Licensee Name,Street,City,State,Zip,Licensee Number,Channel Type,Account Name,RTD Contract,Location
ELYSIUM LOUNGE,8211 GEORGIA AVENUE,SILVER SPRING,MD,20910,BBWLHR1691544,On Premise,EDEN WEST LLC,No,"8211 GEORGIA AVENUE
SILVER SPRING, MD 20910
(38.99201, -77.0266)"
SHAKE SHACK,7997 TUCKERMAN LANE,POTOMAC,MD,20854,HBWHR37155,On Premise,"SHAKE SHACK POTOMAC MD,LLC",No,"7997 TUCKERMAN LANE
POTOMAC, MD 20854
(39.04148, -77.15888)"
AHADU MARKET,8107 FENTON STREET,SILVER SPRING,MD,20910,ABWS1164495,Off Premise,AHADU MARKET LLC,No,"8107 FENTON STREET
SILVER SPRING, MD 20910
(38.99071, -77.0238)"
DICKERSON MARKET,PO BOX 175,DICKERSON,MD,20842,ABW052,Off Premise,"DICKERSON SERVICES, INC.",No,"PO BOX 175
DICKERSON, MD 20842"
Z-N-KEMEKEM BAR & LOUNGE,,,,,BBWLHR973418,On Premise,KEMEKEM LLC,No,
TALLY HO RESTUARANT,9923 FALLS RD,POTOMAC,MD,20854,HBW22790,On Premise,TALLY HO,No,"9923 FALLS RD
POTOMAC, MD 20854
(39.01852, -77.20831)"
FOOD STOP MINI MART,4820 BOILING BROOK PARKWAY,ROCKVILLE,MD,20852,ABW091,Off Premise,"BOILING BROOK PARKWAY FOODS, I",Yes,"4820 BOILING BROOK PARKWAY
ROCKVILLE, MD 20852
(39.04616, -77.09845)"
BONFIELDS MARKET,6124 MACARTHUR BLVD.,BETHESDA,MD,20816,DBW224260,On/Off-Premise,"BONFIELDS MARKET, LLC",No,"6124 MACARTHUR BLVD.
BETHESDA, MD 20816
(38.94367, -77.11595)"
THAI COTTAGE BISTRO,9613 MEDICAL CENTER DR. UNIT G,ROCKVILLE,MD,20850,BBWHR1127446,On/Off-Premise,"THAI COTTAGE BISTRO, INC",No,"9613 MEDICAL CENTER DR. UNIT G
ROCKVILLE, MD 20850
(39.10228, -77.19612)"
BURTONS GRILL & BAR,109 COMMERCE SQUARE PL.,GAITHERSBURG,MD,20878,BDBWL310263,On/Off-Premise,"BURTONS GRILL OF GAITH., LLC",No,"109 COMMERCE SQUARE PL.
GAITHERSBURG, MD 20878
(39.12251, -77.23384)"
WE ART FUN PAINTING STUDIO,"19847 CENTURY BOULEVARD, SUITE G",GERMANTOWN,MD,20874,SAGBW1214499,On Premise,RRL LLC,No,"19847 CENTURY BOULEVARD, SUITE G
GERMANTOWN, MD 20874
(39.1814, -77.2657)"
SPICE GRILL,12611-G WISTERIA DRIVE,GERMANTOWN,MD,20874,HBW346,On Premise,"INDIA GARDEN, INC",No,"12611-G WISTERIA DRIVE
GERMANTOWN, MD 20874
(39.17046, -77.26084)"
BB.Q CHICKEN,9712 TRAVILLE GATEWAY DRIVE,ROCKVILLE,MD,20850,BBWLHR1179497,On Premise,"BIGPRO INVESTMENT, INC.",No,"9712 TRAVILLE GATEWAY DRIVE
ROCKVILLE, MD 20850
(39.09157, -77.20405)"
TALBOTT BEER & WINE,1071 ROCKVILLE PIKE,ROCKVILLE,MD,20852,ABW814373,Off Premise,"Talbott Wine Cellars, LLC",Yes,"1071 ROCKVILLE PIKE
ROCKVILLE, MD 20852
(39.07113, -77.1329)"
PACCI'S TRATTORIA,6 POST OFFICE ROAD,SILVER SPRING,MD,20910,BBWLHR680,On Premise,"PACCI'S TRATTORIA, LLC",No,"6 POST OFFICE ROAD
SILVER SPRING, MD 20910
(39.01504, -77.05539)"
BETHESDA CURRY KITCHEN,4860 CORDELL AVENUE,BETHESDA,MD,20814,BBWLHR1071790,On Premise,"BHAIRAVI, LLC",No,"4860 CORDELL AVENUE
BETHESDA, MD 20814
(38.98981, -77.09767)"
WISTERIA BEER & WINE,"13220 WISTERIA DRIVE, UNIT #4",GERMANTOWN,MD,20874,DBW276,On/Off-Premise,"WISTERIA BEER & WINE, LLC",Yes,"13220 WISTERIA DRIVE, UNIT #4
GERMANTOWN, MD 20874
(39.18075, -77.27603)"
KPOT HOT POT & BBQ,5550 RANDOLPH RD,ROCKVILLE,MD,20852,BBWLHR32900,On Premise,"ROCK HOT POT & BBQ, INC.",No,"5550 RANDOLPH RD
ROCKVILLE, MD 20852
(39.05259, -77.11196)"
CAMPEON,902 MERRIMAC DRIVE,TAKOMA PARK,MD,20912,HBW321,On Premise,"CAMPEON, INC",No,"902 MERRIMAC DRIVE
TAKOMA PARK, MD 20912
(38.99252, -76.99232)"
KOREAN KORNER,12207 VEIRS MILL ROAD,SILVER SPRING,MD,20906,ABW107,Off Premise,"KOREAN KORNER, INC.",No,"12207 VEIRS MILL ROAD
SILVER SPRING, MD 20906
(39.05704, -77.08239)"
FRYER'S ROADSIDE,12830 NEW HAMPSHIRE AVENUE,SILVER SPRING,MD,20904,BDBWL1706544,On/Off-Premise,"FRYER'S ROADSIDE, LLC",No,"12830 NEW HAMPSHIRE AVENUE
SILVER SPRING, MD 20904
(39.06575, -77.00077)"
ZT-SHEBA RESTAURANT,,,,,HBWHR34236,On Premise,"TAZZO, LLC",No,
OSAKA RAMEN & SUSHI,12146 DARNESTOWN RD,GAITHERSBURG,MD,20878,BBWHR1406544,On/Off-Premise,PD98 LLC,No,"12146 DARNESTOWN RD
GAITHERSBURG, MD 20878
(39.11736, -77.25249)"
INDIA PALACE BAR & TANDOOR,19743 FREDERICK ROAD,GERMANTOWN,MD,20876,BBWLHR380,On Premise,SIMRAN INC,No,"19743 FREDERICK ROAD
GERMANTOWN, MD 20876
(39.17953, -77.23837)"
RESIDENCE INN - BETHESDA,7335 WISCONSIN AVE,BETHESDA,MD,20814,BBWLHR735,On Premise,"RLJ R BETHESDA LESSEE, LLC",No,"7335 WISCONSIN AVE
BETHESDA, MD 20814
(38.98289, -77.09342)"
AZUCAR RESTAURANT,14418 LAYHILL ROAD,SILVER SPRING,MD,20906,BBWLHR389,On Premise,"JAR-RAM & JAG, INC.",No,"14418 LAYHILL ROAD
SILVER SPRING, MD 20906
(39.09302, -77.04612)"
WILLOUGHBY MARKET,4515 WILLARD AVE,CHEVY CHASE,MD,20815,ABW175,Off Premise,CHAE UNG CHO,No,"4515 WILLARD AVE
CHEVY CHASE, MD 20815
(38.96216, -77.08983)"
BETHESDA CRAB HOUSE,4958 BETHESDA AVE,BETHESDA,MD,20814,BBWHR079,On/Off-Premise,"BETHESDA CRAB HOUSE, LLC",No,"4958 BETHESDA AVE
BETHESDA, MD 20814
(38.98064, -77.10025)"
ROYAL TANDOOR,820 MUDDY BRANCH RD.,GAITHERSBURG,MD,20878,BBWLHR485312,On Premise,"ROYAL BROTHERS, INC.",No,"820 MUDDY BRANCH RD.
GAITHERSBURG, MD 20878
(39.11415, -77.21716)"
CASA OAXACA,4905 FAIRMOUNT AVENUE,BETHESDA,MD,20814,BBWLHR42419,On Premise,"TEQ. & MEZCAL COCINA MEXICANA,LLC",No,"4905 FAIRMOUNT AVENUE
BETHESDA, MD 20814
(38.98827, -77.0968)"
Z-GEPETTO CATERING COMPANY,,,,,CATBWL26369,On Premise,"GEPETTO CATERING COMPANY, INC.",No,
LUKE'S LOBSTER,7129 BETHESDA LANE,BETHESDA,MD,20814,DBW147,On/Off-Premise,LUKE'S LOBSTER X LLC,No,"7129 BETHESDA LANE
BETHESDA, MD 20814
(38.9818, -77.09781)"
EL SITIO RESTAURANT,8210 PINEY BRANCH ROAD,SILVER SPRING,MD,20910,BBWLHR437,On Premise,"J.B. MARTINEZ, INC.",No,"8210 PINEY BRANCH ROAD
SILVER SPRING, MD 20910
(38.9933, -77.00947)"
CENTRADO CAFE SHOP,15530 OLD COLUMBIA PIKE,BURTONSVILLE,MD,20866,BDBWL785366,On/Off-Premise,CENTRADO INVESTMENTS LLC,No,"15530 OLD COLUMBIA PIKE
BURTONSVILLE, MD 20866
(39.11049, -76.93436)"
BARUCH CAFE EXPRESS,4800 AUBURN AVENUE,BETHESDA,MD,20814,ABWS1346544,Off Premise,BARUCH CAFE LLC,No,"4800 AUBURN AVENUE
BETHESDA, MD 20814
(38.99081, -77.09908)"
FISH TACO OF BETHESDA,10305 OLD GEORGETOWN ROAD,BETHESDA,MD,20814,BBWLHR24030,On Premise,"FISH TACO OF BETHESDA, INC",No,"10305 OLD GEORGETOWN ROAD
BETHESDA, MD 20814
(39.02461, -77.12432)"
LA MEXICANA - GAITHERSBURG,16143 SHADY GROVE ROAD,GAITHERSBURG,MD,20877,BBWLHR828,On Premise,LA MEXICANA INC.,No,"16143 SHADY GROVE ROAD
GAITHERSBURG, MD 20877
(39.12012, -77.179)"
"SEMINARY BEER, WINE & DELI",9458 GEORGIA AVE,SILVER SPRING,MD,20910,ABWS1067695,Off Premise,"B.B.S.B.,INC.",Yes,"9458 GEORGIA AVE
SILVER SPRING, MD 20910
(39.01052, -77.04092)"
SOFIVE,1008 WESTMORE AVENUE,ROCKVILLE,MD,20850,DBW41761,On/Off-Premise,"SOFIVE, INC.",No,"1008 WESTMORE AVENUE
ROCKVILLE, MD 20850
(39.09881, -77.14934)"
MEXICAN GRILL,19710-K FISHER AVE,POOLESVILLE,MD,20837,BBWLHR25584,On Premise,"MEXICAN GRILL, LLC",No,"19710-K FISHER AVE
POOLESVILLE, MD 20837
(39.14408, -77.41246)"
BEST CONVENIENCE MART,8120 PINEY BRANCH RD.,SILVER SPRING,MD,20910,ABW238266,Off Premise,"FANTU, INC.",No,"8120 PINEY BRANCH RD.
SILVER SPRING, MD 20910
(38.99252, -77.00966)"
Z-QDOBAS MEXICAN EATS,16260 FREDERICK RD.,GAITHERSBURG,MD,20877,BBWLHR531355,On/Off-Premise,"METROMEX HOSPITALITY GROUP, INC.",No,"16260 FREDERICK RD.
GAITHERSBURG, MD 20877
(39.12184, -77.17804)"
DOCK OF THE BAY,429 S. FREDERICK AVENUE,GAITHERSBURG,MD,20877,DBW836400,On/Off-Premise,"URKAY, LLC",Yes,"429 S. FREDERICK AVENUE
GAITHERSBURG, MD 20877
(39.13597, -77.19159)"
VFW POST 2562,11316 FERN STREET,SILVER SPRING,MD,20902,CBWLFV001,On Premise,SILVER SPRING MEMORIAL VFW,No,"11316 FERN STREET
SILVER SPRING, MD 20902
(39.04079, -77.04941)"
N-RTD TEST CUSTOMER2,902 Edison Park dr,Gaithersburg,MD,0000,CV12821891,Off Premise,RTD TEST CUSTOMER2,Yes,"902 Edison Park dr
Gaithersburg, MD 0000"
SHERATON ROCKVILLE HOTEL,920 KING FARM BLVD,ROCKVILLE,MD,20850,BBWLHM024,On Premise,"GRAND PRIX ROCKVILLE, LLC",No,"920 KING FARM BLVD
ROCKVILLE, MD 20850
(39.10961, -77.18342)"
AMC THEATRES WHEATON 9,11006 VEIRS MILL RD,WHEATON,MD,20902,BBWLHR21332,On Premise,"AMC OF MARYLAND, LLC",No,"11006 VEIRS MILL RD
WHEATON, MD 20902
(39.03697, -77.05123)"
THE QUARRY HOUSE TAVERN,8401 GEORGIA AVE,SILVER SPRING,MD,20910,BBWLHR030,On Premise,"DOGBONE, LLC.",No,"8401 GEORGIA AVE
SILVER SPRING, MD 20910
(38.99354, -77.02665)"
LA PANETTERIA,4921 CORDELL AVE.,BETHESDA,MD,20814,BBWLHR42759,On Premise,"BAIRES KITCHEN, LLC",No,"4921 CORDELL AVE.
BETHESDA, MD 20814
(38.98879, -77.09867)"
CHOICE WINE & BEER,11160 VEIRS MILL RD.,WHEATON,MD,20902,ABWS566348,Off Premise,"PERFECT CHOICE WINE & BEER, LLC",Yes,"11160 VEIRS MILL RD.
WHEATON, MD 20902
(39.03748, -77.05329)"
JNK BEER & WINE,14344 LAYHILL RD.,SILVER SPRING,MD,20906,DBW450315,On/Off-Premise,"CABIN JOHN WINE & BEER, INC.",Yes,"14344 LAYHILL RD.
SILVER SPRING, MD 20906
(39.09184, -77.04513)"
EL AGUILA - GEORGIA AVENUE,7926 GEORGIA AVENUE,SILVER SPRING,MD,20910,BBWLHR840,On Premise,"JID, LLC",No,"7926 GEORGIA AVENUE
SILVER SPRING, MD 20910
(38.98579, -77.02663)"
THE GREENE TURTLE BAR & GRILLE,18101 TOWN CENTER DRIVE,OLNEY,MD,20832,BBWLHR803,On Premise,"GT OLNEY, LLC",No,"18101 TOWN CENTER DRIVE
OLNEY, MD 20832
(39.15182, -77.06174)"
N-Stephanie Zambrano,25209 Bonny Brooks Ln,Gaithersburg,MD,20882,2025,,,No,"25209 Bonny Brooks Ln
Gaithersburg, MD 20882
(39.27303, -77.18926)"
BAI KAO THAI,12944-D TRAVILAH ROAD,POTOMAC,MD,20854,HBWHR1265550,On Premise,DIBAVADI CORP.,No,"12944-D TRAVILAH ROAD
POTOMAC, MD 20854
(39.06807, -77.26372)"
Z-MOD SUPER FAST PIZZA,,,,,BBWLHR21675,On Premise,"MOD SUPER FAST PIZZA, LLC",No,
NAZRAWI ETHIOPIAN RESTAURANT,952 SLIGO AVENUE,SILVER SPRING,MD,20910,BBWLHR884399,On Premise,MESEYE ENTERPRISES LLC,No,"952 SLIGO AVENUE
SILVER SPRING, MD 20910
(38.99024, -77.02575)"
POLLO BRASERO REST. & CARRYOUT,14336 LAYHILL ROAD,SILVER SPRING,MD,20906,HBW246,On Premise,"JULROC, INC.",No,"14336 LAYHILL ROAD
SILVER SPRING, MD 20906
(39.0915, -77.0458)"
CHINA GARDEN HAN GONG,11333 WOODGLEN DR.,ROCKVILLE,MD,20852,BBWLHR42899,On Premise,"CHINA GARDEN OF VIRGINIA, INC.",No,"11333 WOODGLEN DR.
ROCKVILLE, MD 20852
(39.04388, -77.11293)"
IXTAPALAPA TAQUERIA,411 N. FREDERICK AVENUE,GAITHERSBURG,MD,20877,BBWLHR29498,On Premise,IXTAPALAPA LLC,No,"411 N. FREDERICK AVENUE
GAITHERSBURG, MD 20877
(39.14663, -77.20424)"
IBEX ETHIOPIAN RESTAURANT & LOUNGE,6846 NEW HAMPSHIRE AVE.,TAKOMA PARK,MD,20912,DBWL299261,On Premise,"IBEX BUSINESS P'SHIP, INC.",No,"6846 NEW HAMPSHIRE AVE.
TAKOMA PARK, MD 20912
(38.97462, -76.99558)"
GHAR-E-KABAB,944 WAYNE AVE.,SILVER SPRING,MD,20910,BBWLHR802372,On Premise,MDD GROUP LLC,No,"944 WAYNE AVE.
SILVER SPRING, MD 20910
(38.99465, -77.02578)"
FINEWINE.COM,20 GRAND CORNER AVE.,GAITHERSBURG,MD,20878,DBW542350,On/Off-Premise,"PSB, LLC",Yes,"20 GRAND CORNER AVE.
GAITHERSBURG, MD 20878
(39.11861, -77.20186)"
MARISCOS CULIACAN,"1341 UNIVERSITY BLVD, E.",TAKOMA PARK,MD,20912,DBWL1232518,On Premise,"JOSAM, LLC",No,"1341 UNIVERSITY BLVD, E.
TAKOMA PARK, MD 20912
(38.98716, -76.9855)"
BENIHANA OF TOKYO,7935 WISCONSIN AVE,BETHESDA,MD,20814,BBWLHR040,On Premise,BENIHANA BETHESDA CORPORATION,No,"7935 WISCONSIN AVE
BETHESDA, MD 20814
(38.99041, -77.09551)"
THE SENECA ROCKVILLE,55 WEST GUDE DRIVE,ROCKVILLE,MD,20850,BBWLHR1075432,On Premise,"SILVERSTONE ROCKVILLE OWNER, LLC",No,"55 WEST GUDE DRIVE
ROCKVILLE, MD 20850
(39.10707, -77.16365)"
LONG BRANCH BEER & WINE,649 UNIVERSITY BLVD,SILVER SPRING,MD,20901,ABW041,Off Premise,"LONG BRANCH BEER & WINE, INC.",Yes,"649 UNIVERSITY BLVD
SILVER SPRING, MD 20901
(38.99977, -76.9958)"
KURA REVOLVING SUSHI BAR,12266 ROCKVILLE PIKE,ROCKVILLE,MD,20852,BBWLHR1129447,On Premise,KURA SUSHI USA INC,No,"12266 ROCKVILLE PIKE
ROCKVILLE, MD 20852
(39.05729, -77.12168)"
OLD ANGLERS INN,10801 MACARTHUR BLVD.,POTOMAC,MD,20854,BBWLHR060,On Premise,"MARYLAND CATERING CO., INC.",No,"10801 MACARTHUR BLVD.
POTOMAC, MD 20854
(38.98221, -77.2261)"
OLNEY BEER & WINE,18316 VILLAGE CENTER DR,OLNEY,MD,20832,BDBWL39022,On/Off-Premise,"OLNEY BEER & WINE, INC.",Yes,"18316 VILLAGE CENTER DR
OLNEY, MD 20832
(39.15481, -77.06388)"
WHITE'S FERRY STORE & GRILL,24801 WHITES FERRY RD.,DICKERSON,MD,20842,DBW92261,On/Off-Premise,"RC1, LLC",No,"24801 WHITES FERRY RD.
DICKERSON, MD 20842
(39.15465, -77.5192)"
JUICY SEAFOOD MD,2259 BEL PRE RD.,SILVER SPRING,MD,20906,BBWLHR235264,On Premise,"JUICY SEAFOOD MD, LLC",No,"2259 BEL PRE RD.
SILVER SPRING, MD 20906
(39.09161, -77.04793)"
VILLAGE GRILLE,50 SOUTHLAWN CT,ROCKVILLE,MD,20850,HBWHR875396,On Premise,VILLAGE GRILLE LLC,No,"50 SOUTHLAWN CT
ROCKVILLE, MD 20850
(39.103, -77.12895)"
NANDO'S PERI PERI - GAITHERSBURG,224 BOARDWALK PLACE,GAITHERSBURG,MD,20878,BBWLHR666,On Premise,"NANDO'S OF GAITHERSBURG, LLC",No,"224 BOARDWALK PLACE
GAITHERSBURG, MD 20878
(39.11639, -77.19781)"
MEDINA CUISINE,12205 NEBEL ST,ROCKVILLE,MD,20852,DBW1544545,On/Off-Premise,MEDINA CUISINE,No,"12205 NEBEL ST
ROCKVILLE, MD 20852
(39.05203, -77.11005)"
N-YUMMY BOWL,2010 VEIRS MILL ROAD,ROCKVILLE,MD,20851,BBWLHR1857544,On Premise,"HUA YUMMY BOWL, INC",No,"2010 VEIRS MILL ROAD
ROCKVILLE, MD 20851
(39.07568, -77.1161)"
BURGERFI,8504 FENTON STREET,SILVER SPRING,MD,20910,HBWHR34596,On Premise,"BUFISS, LLC",No,"8504 FENTON STREET
SILVER SPRING, MD 20910
(38.99566, -77.02452)"
T.G.I. FRIDAYS - SILVER SPRING,12281 TECH ROAD,SILVER SPRING,MD,20904,BBWLHR366,On Premise,"ATLANTA RESTAURANT PARTNERS, L",No,"12281 TECH ROAD
SILVER SPRING, MD 20904
(39.05705, -76.9669)"
SHALOM STRICTLY KOSHER MEATS,1361 LAMBERTON DRIVE,SILVER SPRING,MD,20902,ABWS103,Off Premise,"SHALOM STRICTLY KOSHER MEATS,",Yes,"1361 LAMBERTON DRIVE
SILVER SPRING, MD 20902
(39.04073, -77.03186)"
OUTBACK STEAKHOUSE,8661 COLESVILLE RD,SILVER SPRING,MD,20910,BBWLHR1069450,On Premise,"OUTBACK OF SILVER SPRING, INC",No,"8661 COLESVILLE RD
SILVER SPRING, MD 20910
(38.99678, -77.02689)"
CHIDO'S TEX-MEX GRILL,931 ELLSWORTH DRIVE,SILVER SPRING,MD,20910,BBWLHR1230498,On Premise,"EL TENAMPA III, LLC",No,"931 ELLSWORTH DRIVE
SILVER SPRING, MD 20910
(38.99569, -77.02671)"
EL CARACOL CAFE,609 SLIGO AVE,SILVER SPRING,MD,20910,BBWLHR1063665,On Premise,SNS CORPORATION,No,"609 SLIGO AVE
SILVER SPRING, MD 20910
(38.99151, -77.01337)"
VILLA MAYA RESTAURANT-CLARKSBURG,12051 CHESTNUT BRANCH WAY,CLARKSBURG,MD,20871,BBWLHR38456,On Premise,NCJ CORPORATION,No,"12051 CHESTNUT BRANCH WAY
CLARKSBURG, MD 20871
(39.23008, -77.2499)"
MAMAN,7140 BETHESDA LANE,BETHESDA,MD,20814,BBWLHR853396,On Premise,MAMAN BETHESDA LLC,No,"7140 BETHESDA LANE
BETHESDA, MD 20814
(38.98178, -77.0978)"
COLADA SHOP,7993 TUCKERMAN LN.,POTOMAC,MD,20854,BDBWL490322,On/Off-Premise,"COLADA SHOP POTOMAC, LLC",No,"7993 TUCKERMAN LN.
POTOMAC, MD 20854
(39.04089, -77.15833)"
HONG KONG PEARL SEAFOOD RESTAURANT,777 S FREDERICK AVE,GAITHERSBURG,MD,20877,BBWLHR1095432,On Premise,HONG KONG PEARL SEAFOOD RESTAURANT LLC,No,"777 S FREDERICK AVE
GAITHERSBURG, MD 20877
(39.12701, -77.18299)"
MUSE PAINTBAR,217 BOARDWALK PLACE,GAITHERSBURG,MD,20878,HBWHR372276,On Premise,"EAD ENTERTAINMENT, LLC",No,"217 BOARDWALK PLACE
GAITHERSBURG, MD 20878
(39.11653, -77.19799)"
KW BEER AND WINE,8513 PINEY BRANCH ROAD,SILVER SPRING,MD,20901,ABW1119444,Off Premise,KW BEER AND WINE INC,Yes,"8513 PINEY BRANCH ROAD
SILVER SPRING, MD 20901
(38.99812, -77.00291)"
GISELE CREOLE CUISINE,2407 PRICE AVE,WHEATON,MD,20902,BBWLHR1430544,On Premise,"MCI XQUISITE, LLC",No,"2407 PRICE AVE
WHEATON, MD 20902
(39.04025, -77.05068)"
THE CAPITAL GRILLE,"5310 WESTERN AVE, SUITE A",CHEVY CHASE,MD,20815,BBWLHR557,On Premise,"GMR MONTGOMERY COUNTY, INC.",No,"5310 WESTERN AVE, SUITE A
CHEVY CHASE, MD 20815
(38.96127, -77.0851)"
LIA'S,4435 WILLARD AVE,CHEVY CHASE,MD,20815,BBWLHR413,On Premise,"CG3,LLC",No,"4435 WILLARD AVE
CHEVY CHASE, MD 20815
(38.96183, -77.08772)"
GILLY'S CRAFT BEER & FINE WINE,2009 CHAPMAN AVENUE,ROCKVILLE,MD,20852,DBW41021,On/Off-Premise,"ROSEMARY WINEYARD, LLC",Yes,"2009 CHAPMAN AVENUE
ROCKVILLE, MD 20852
(39.05831, -77.11912)"
JC CRAB HOUSE,13432 NEW HAMPSHIRE AVE,SILVER SPRING,MD,20904,HBW31540,On Premise,JC SEAFOOD LLC,No,"13432 NEW HAMPSHIRE AVE
SILVER SPRING, MD 20904
(39.07631, -77.00192)"
FENWICK BEER & WINE,1327 FENWICK LANE,SILVER SPRING,MD,20910,DBW117,On/Off-Premise,"CAT MAN DO, INC.",Yes,"1327 FENWICK LANE
SILVER SPRING, MD 20910
(38.99703, -77.03283)"
IRENE'S PUPUSAS,12391 GEORGIA AVE,SILVER SPRING,MD,20906,BBWLHR729,On Premise,"CHIE' ENTERPRISES, LLC",No,"12391 GEORGIA AVE
SILVER SPRING, MD 20906
(39.06087, -77.05062)"
SPARK BY HILTON GERMANTOWN,20260 GOLDENROD LANE,GERMANTOWN,MD,20876,BBWLHM219,On Premise,"GERMANTOWN HOSPITALITY, LLC",No,"20260 GOLDENROD LANE
GERMANTOWN, MD 20876
(39.18659, -77.25203)"
ROSSMOOR LEISURE WORLD,3700 ROSSMOOR BLVD,SILVER SPRING,MD,20906,CBWLCC001,On Premise,"MARYLAND CLUBHOUSE SERV., INC.",No,"3700 ROSSMOOR BLVD
SILVER SPRING, MD 20906
(39.10088, -77.07324)"
CLASSIC BEER & WINE,891-C ROCKVILLE PIKE,ROCKVILLE,MD,20852,ABWS650360,Off Premise,"CLASSIC WINE ROCKVILLE, LLC",Yes,"891-C ROCKVILLE PIKE
ROCKVILLE, MD 20852
(39.07426, -77.13681)"
REDMILL MARKET BEER & WINE,7248 MUNCASTER MILL ROAD,DERWOOD,MD,20855,DBW090,On/Off-Premise,"SR GROUP, INC.",Yes,"7248 MUNCASTER MILL ROAD
DERWOOD, MD 20855
(39.14572, -77.14537)"
BUTLER'S ORCHARD,22200-C DAVIS MILL ROAD,GERMANTOWN,MD,20876,DBW1081432,On/Off-Premise,"BUTLER'S ORCHARD MARKET, INC",No,"22200-C DAVIS MILL ROAD
GERMANTOWN, MD 20876
(39.21897, -77.22093)"
HOME2,1701 ELTON RD.,SILVER SPRING,MD,20903,DBW42859,On/Off-Premise,"HILLANDALE HOSPITALITY, LLC",No,"1701 ELTON RD.
SILVER SPRING, MD 20903
(39.01987, -76.97461)"
MOSAIC CUISINE,186 HALPINE RD,ROCKVILLE,MD,20852,BBWLHR885403,On Premise,AREN LLC,No,"186 HALPINE RD
ROCKVILLE, MD 20852
(39.06117, -77.12529)"
THE GRILL AT THAT'S AMORE,15201 SHADY GROVE RD.,ROCKVILLE,MD,20850,BBWLHR294259,On Premise,"STRADA FOODS, INC.",No,"15201 SHADY GROVE RD.
ROCKVILLE, MD 20850
(39.10554, -77.1899)"
MEDIUM RARE,4904 FAIRMONT AVE,BETHESDA,MD,20814,BBWLHR25766,On Premise,"MEDIUM RARE BETHESDA, LLC",No,"4904 FAIRMONT AVE
BETHESDA, MD 20814
(38.9882, -77.09687)"
SIMPLY FRESH EVENTS,7621 RICKENBACKER DRIVE #500,GAITHERSBURG,MD,20879,CATBWL28122,On Premise,"SIMPLY FRESH EVENTS, LLC",No,"7621 RICKENBACKER DRIVE #500
GAITHERSBURG, MD 20879
(39.17443, -77.15846)"
APPLEBEE'S,21048 FREDERICK ROAD,GERMANTOWN,MD,20876,BBWLHR645,On Premise,POTOMAC FAMILY DINING GROUP,No,"21048 FREDERICK ROAD
GERMANTOWN, MD 20876
(39.2021, -77.24612)"
EL PAISANO,9112 ROTHBURY DRIVE,MONTGOMERY VILLAGE,MD,20886,BBWLHR214,On Premise,EL PAISANO INC.,No,"9112 ROTHBURY DRIVE
MONTGOMERY VILLAGE, MD 20886
(39.18491, -77.18846)"
T&T WINE SHOP,5052 NICHOLSON LN.,ROCKVILLE,MD,20852,ABWS454314,Off Premise,"T&T WINE SHOP, LLC",No,"5052 NICHOLSON LN.
ROCKVILLE, MD 20852
(39.04606, -77.10337)"
OLD WORLD FAVORITES,3854 INTERNATIONAL DR.,SILVER SPRING,MD,20906,DBW027,On/Off-Premise,"SATSHIV, INC.",Yes,"3854 INTERNATIONAL DR.
SILVER SPRING, MD 20906
(39.10373, -77.07602)"
SAN PANCHO,7056 CARROLL AVE,TAKOMA PARK,MD,20912,BBWLHR1059435,On Premise,SAN PANCHO LLC,No,"7056 CARROLL AVE
TAKOMA PARK, MD 20912
(38.97512, -77.01052)"
ELSI ETHIOPIAN RESTAURANT AND BAR,13825 OUTLET DR,SILVER SPRING,MD,20904,BBWLHR1042432,On Premise,ELSI ETHIOPIAN RESTAURANT AND BAR INC,No,"13825 OUTLET DR
SILVER SPRING, MD 20904
(39.08233, -76.94571)"
PETERS CARRY OUT,8017 WISCONSIN AVE,BETHESDA,MD,20814,BBWHR029,On/Off-Premise,PETERS CARRY OUT,No,"8017 WISCONSIN AVE
BETHESDA, MD 20814
(38.99095, -77.09563)"
PERSIMMON,7003 WISCONSIN AVE,CHEVY CHASE,MD,20815,BBWLHR1014418,On Premise,CHICKADEE LLC,No,"7003 WISCONSIN AVE
CHEVY CHASE, MD 20815
(38.97941, -77.09172)"
HUNAN DELIGHT,18220 VILLAGE CENTER DR,OLNEY,MD,20832,BBWLHR1043437,On Premise,HUNAN DELIGHT 1688 LLC,No,"18220 VILLAGE CENTER DR
OLNEY, MD 20832
(39.1538, -77.06431)"
SILVER STRINGS,8630 COLESVILLE RD.,SILVER SPRING,MD,20910,BBWLHR42502,On Premise,"SILVER STRINGS, INC.",No,"8630 COLESVILLE RD.
SILVER SPRING, MD 20910
(38.99693, -77.02752)"
HULU SKEWER HOUSE,1488-A ROCKVILLE PIKE,ROCKVILLE,MD,20852,BBWLHR779374,On Premise,INVSIGHT GROUP LLC,No,"1488-A ROCKVILLE PIKE
ROCKVILLE, MD 20852
(39.06588, -77.12632)"
ARIRANG RESTAURANT,1314 EAST GUDE DRIVE,ROCKVILLE,MD,20850,BBWLHR020,On Premise,PLEROMA INC.,No,"1314 EAST GUDE DRIVE
ROCKVILLE, MD 20850
(39.09713, -77.1351)"
DAVE & BUSTER'S - GAITHERSBURG,"911 WASHINGTONIAN BLVD., SUITE H1",GAITHERSBURG,MD,20878,BBWLHR36112,On Premise,"DAVE & BUSTER'S OF MARYLAND, INC.",No,"911 WASHINGTONIAN BLVD., SUITE H1
GAITHERSBURG, MD 20878"
GREGORIO'S TRATTORIA,7745 TUCKERMAN LANE,POTOMAC,MD,20854,BDBWLHR1070947,On/Off-Premise,"GREGORIO'S, LLC",No,"7745 TUCKERMAN LANE
POTOMAC, MD 20854
(39.04066, -77.15562)"
KING STREET OYSTER BAR,12435  PARK POTOMAC AVE.,POTOMAC,MD,20854,BBWLHR483305,On Premise,"KSOB POTOMAC, LLC",No,"12435 PARK POTOMAC AVE.
POTOMAC, MD 20854
(39.05944, -77.15757)"
"TRAN DINH BEER,WINE & DELI","20 MONTGOMERY VILLAGE AVE, UNIT D",GAITHERSBURG,MD,20879,DBW141,On/Off-Premise,"TRAN DINH BEER,WINE, & DELI, I",No,"20 MONTGOMERY VILLAGE AVE, UNIT D
GAITHERSBURG, MD 20879
(39.1556, -77.20837)"
GEORGETOWN SQUARE WINE & CHEESE,10400 OLD GEORGETOWN ROAD,BETHESDA,MD,20814,DBW61450,On/Off-Premise,H & A WINE & CHEESE INC.,Yes,"10400 OLD GEORGETOWN ROAD
BETHESDA, MD 20814
(39.02518, -77.12681)"
FIREPAN KOREAN BBQ,962 WAYNE AVE.,SILVER SRPING,MD,20910,BBWLHR671356,On Premise,"FIREPAN KBBQ SS, LLC",No,"962 WAYNE AVE.
SILVER SRPING, MD 20910
(38.99406, -77.02583)"
MEIWAH,4457 WILLARD AVENUE,CHEVY CHASE,MD,20815,BBWLHR1190505,On Premise,"MEIWAH CHEVY CHASE, INC",No,"4457 WILLARD AVENUE
CHEVY CHASE, MD 20815
(38.9619, -77.08816)"
YURAKU JAPANESE RESTAURANT,19773 FREDERICK RD.,GERMANTOWN,MD,20876,BBWLHR41059,On Premise,"LOVEGOD123, INC.",No,"19773 FREDERICK RD.
GERMANTOWN, MD 20876
(39.1796, -77.23838)"
TOP SHELF,914 EAST WEST HWY,TAKOMA PARK,MD,20912,DBW1060434,On/Off-Premise,TOP SHELF LLC,No,"914 EAST WEST HWY
TAKOMA PARK, MD 20912
(38.97566, -76.99325)"
UPCOUNTY FINE WINE & BEER,23229 STRINGTOWN RD.,CLARKSBURG,MD,20871,DBW51271,On/Off-Premise,"AP RETAIL, LLC",Yes,"23229 STRINGTOWN RD.
CLARKSBURG, MD 20871
(39.23804, -77.27655)"
YOUNG GOURMET BEER & WINE,3422 OLNEY LAYTONSVILLE ROAD,OLNEY,MD,20832,ABW247,Off Premise,"JAEJUNG FAMILY, INC",Yes,"3422 OLNEY LAYTONSVILLE ROAD
OLNEY, MD 20832
(39.15298, -77.06783)"
WOODLANDS PURE VEGETARIAN,555 QUINCE ORCHARD RD.,GAITHERSBURG,MD,20878,HBWHR650356,On Premise,"UDIPI, INC.",No,"555 QUINCE ORCHARD RD.
GAITHERSBURG, MD 20878
(39.14359, -77.21975)"
AMERICAS SUPERMARKET,2404 UNIVERSITY BLVD.,WHEATON,MD,20902,ABW767359,Off Premise,"BITENCOURT HOLDINGS, LLC",No,"2404 UNIVERSITY BLVD.
WHEATON, MD 20902
(39.04155, -77.05072)"
FINNEGAN'S WAKE IRISH PUB,100-F GIBBS STREET,ROCKVILLE,MD,20850,BBWLHR21337,On Premise,"FINNEGAN'S WAKE IRISH PUB,LLC",No,"100-F GIBBS STREET
ROCKVILLE, MD 20850
(39.08552, -77.15194)"
BETHESDA BEER & WINE,8015 WISCONSIN AVE,BETHESDA,MD,20814,ABW121,Off Premise,BSBB LIMITED INC.,Yes,"8015 WISCONSIN AVE
BETHESDA, MD 20814
(38.99087, -77.09561)"
DISTRICT TACO,1310 EAST WEST HWY.,SILVER SPRING,MD,20910,HBWHR387275,On Premise,"DISTRICT TACO, LLC",No,"1310 EAST WEST HWY.
SILVER SPRING, MD 20910
(38.99266, -77.0317)"
SALT AND VINE,3308 OLNEY SANDY SPRING RD.,OLNEY,MD,20832,BDBWL287260,On/Off-Premise,"THE OLNEY HOUSE, LLC",No,"3308 OLNEY SANDY SPRING RD.
OLNEY, MD 20832
(39.15222, -77.0659)"
CHIPOTLE MEXICAN GRILL- CC,4471 WILLARD AVE,CHEVY CHASE,MD,20815,BBWLHR540,On Premise,CHIPOTLE MEXICAN GRILL OF MARY,No,"4471 WILLARD AVE
CHEVY CHASE, MD 20815
(38.96199, -77.08871)"
COPPER CANYON GRILL- SILVER SPRING,928 ELLSWORTH DRIVE,SILVER SPRING,MD,20910,BBWLHR079,On Premise,"RED ROCK CANYON GRILL, LLC",No,"928 ELLSWORTH DRIVE
SILVER SPRING, MD 20910
(38.99553, -77.02689)"
IL PIZZICO,15209 FREDERICK ROAD,ROCKVILLE,MD,20850,BBWLHR741,On Premise,LIVIA INC.,No,"15209 FREDERICK ROAD
ROCKVILLE, MD 20850
(39.1057, -77.15744)"
NANDO'S PERI PERI,922 ROSE AVENUE,NORTH BETHESDA,MD,20852,BBWLHR34549,On Premise,"NANDO'S OF PIKE & ROSE, LLC",No,"922 ROSE AVENUE
NORTH BETHESDA, MD 20852
(39.05104, -77.1165)"
FIVE STAR PREMIER RESIDENCES OF CC,8100 CONNECTICUT AVE,CHEVY CHASE,MD,20815,BBWLHR693,On Premise,"FVE MANAGERS, INC.",No,"8100 CONNECTICUT AVE
CHEVY CHASE, MD 20815
(38.99272, -77.07725)"
MAKI CAFE,842-C ROCKVILLE PIKE,ROCKVILLE,MD,20852,DBW152,On/Off-Premise,"MAKI, LLC",No,"842-C ROCKVILLE PIKE
ROCKVILLE, MD 20852
(39.07574, -77.13706)"
ITALIAN KITCHEN,8201 FENTON STREET,SILVER SPRING,MD,20910,BBWHR21279,On/Off-Premise,8201 FENTON STREET LLC,No,"8201 FENTON STREET
SILVER SPRING, MD 20910
(38.99202, -77.02405)"
PRALINE,"4611 SANGAMORE ROAD, UNIT O",BETHESDA,MD,20816,BBWLHR408,On Premise,"PRALINE BAKERY, LLC,",No,"4611 SANGAMORE ROAD, UNIT O
BETHESDA, MD 20816
(38.94875, -77.11848)"
NOODLE KING RESTAURANT,12705 NEW HAMPSHIRE AVENUE,SILVER SPRING,MD,20904,HBWHR34641,On Premise,"UNITED XU, INC.",No,"12705 NEW HAMPSHIRE AVENUE
SILVER SPRING, MD 20904
(39.06438, -76.9992)"
SUMMER HOUSE,11825 GRANDPARK AVENUE,ROCKVILLE,MD,20852,BBWLHR873,On Premise,"ROCKVILLE RESTAURANT,LLC",No,"11825 GRANDPARK AVENUE
ROCKVILLE, MD 20852
(39.04979, -77.11719)"
TOPGOLF,20051 CENTURY BLVD.,GERMANTOWN,MD,20874,BBWLHR208259,On Premise,"TOPGOLF USA GERMANTOWN, LLC",No,"20051 CENTURY BLVD.
GERMANTOWN, MD 20874
(39.18481, -77.25956)"
CITIZENS & CULTURE,8113 GEORGIA AVE,SILVER SPRING,MD,20910,BBWLHR907411,On Premise,CITIZENS INC,No,"8113 GEORGIA AVE
SILVER SPRING, MD 20910
(38.99079, -77.0261)"
YARD HOUSE #8380,211 RIO BLVD,GAITHERSBURG,MD,20878,BBWLHR33183,On Premise,"GMR MONTGOMERY COUNTY, INC.",No,"211 RIO BLVD
GAITHERSBURG, MD 20878
(39.11703, -77.20035)"
BARRA BRAVA,15921 FREDERICK ROAD,ROCKVILLE,MD,20855,BDBWL42119,On/Off-Premise,"BARRA BRAVA PERUVIAN SEAFOOD, LLC",No,"15921 FREDERICK ROAD
ROCKVILLE, MD 20855
(39.11673, -77.16696)"
LEDO PIZZA ROCKVILLE,1319-H ROCKVILLE PIKE,ROCKVILLE,MD,20852,HBWHR1724544,On Premise,"S&P RESTAURANTS, LLC",No,"1319-H ROCKVILLE PIKE
ROCKVILLE, MD 20852
(39.06875, -77.13066)"
MOBYDICK SUSHI,11220 TRIANGLE LANE,SILVER SPRING,MD,20902,BBWHR023,On/Off-Premise,"CHANG & MI, INC.",No,"11220 TRIANGLE LANE
SILVER SPRING, MD 20902
(39.03907, -77.05173)"
FIRST WATCH (GAITHERSBURG),802 MUDDY BRANCH ROAD,GAITHERSBURG,MD,20878,BBWLHR1134478,On Premise,"FIRST WATCH RESTAURANTS, INC.",No,"802 MUDDY BRANCH ROAD
GAITHERSBURG, MD 20878
(39.11368, -77.21656)"
OM INDIAN RESTAURANT,"785 ROCKVILLE PIKE, UNIT K",ROCKVILLE,MD,20852,HBW220,On Premise,"JACREAS ENTERPRISES, INC",No,"785 ROCKVILLE PIKE, UNIT K
ROCKVILLE, MD 20852
(39.07661, -77.14113)"
BOTTLEGO,10723 COLUMBIA PIKE,SILVER SPRING,MD,20901,ABWS402274,Off Premise,"BOTTLEGO, INC.",Yes,"10723 COLUMBIA PIKE
SILVER SPRING, MD 20901
(39.0308, -77.00407)"
LA COLOMBIANA RESTAURANT,11216 GRANDVIEW AVE.,WHEATON,MD,20902,BBWLHR485314,On Premise,"LA COLOMBIANA BAR RESTAURANT, LLC",No,"11216 GRANDVIEW AVE.
WHEATON, MD 20902
(39.03908, -77.05238)"
MERCURY LOUNGE,9433 GEORGIA AVENUE,SILVER SPRING,MD,20910,DBWL1123453,On Premise,"DESTINY REAL ESTATE HOLDING COMPANY, LLC",No,"9433 GEORGIA AVENUE
SILVER SPRING, MD 20910
(39.00937, -77.04033)"
GREEK VILLAGE RESTAURANT,13476 NEW HAMPSHIRE AVE,SILVER SPRING,MD,20904,BBWLHR295,On Premise,"GREEK VILLAGE RESTAURANT, INC.",No,"13476 NEW HAMPSHIRE AVE
SILVER SPRING, MD 20904
(39.07713, -77.00293)"
LAS AMERICAS MARKET,785 E. ROCKVILLE PIKE,ROCKVILLE,MD,20852,ABW37577,Off Premise,"LAS AMERICAS MARKET, LLC",No,"785 E. ROCKVILLE PIKE
ROCKVILLE, MD 20852
(39.07661, -77.14113)"
SPICE STREET,8242 GEORGIA AVE.,SILVER SPRING,MD,20910,BBWLHR374284,On Premise,"MD ARSHVEER, LLC",No,"8242 GEORGIA AVE.
SILVER SPRING, MD 20910
(38.99304, -77.02663)"
MI RANCHO - SILVER SPRING,8701 RAMSEY AVE,SILVER SPRING,MD,20910,BBWLHR077,On Premise,8701 RAM INC.,No,"8701 RAMSEY AVE
SILVER SPRING, MD 20910
(38.99657, -77.03014)"
NANCY'S KITCHEN,3808 INTERNATIONAL DRIVE,SILVER SPRING,MD,20906,HBW065,On Premise,NANCY'S KITCHEN OF SILVER SPRI,No,"3808 INTERNATIONAL DRIVE
SILVER SPRING, MD 20906
(39.10329, -77.07544)"
AL CARBON,200 PARK ROAD,ROCKVILLE,MD,20850,BBWLHR624,On Premise,"CMV GROUP, INC.",No,"200 PARK ROAD
ROCKVILLE, MD 20850
(39.08579, -77.14663)"
FIRST WATCH (ROCKVILLE),100 GIBBS STREET,ROCKVILLE,MD,20850,BBWLHR1135492,On Premise,"FIRST WATCH RESTAURANTS, INC.",No,"100 GIBBS STREET
ROCKVILLE, MD 20850
(39.08552, -77.15194)"
THE SALT LINE,4900 HAMPDEN LANE,BETHESDA,MD,20814,BBWLHR980419,On Premise,TSL BETHESDA LLC,No,"4900 HAMPDEN LANE
BETHESDA, MD 20814
(38.98269, -77.09654)"
HANK DIETLE'S TAVERN,11010 ROCKVILLE PIKE,ROCKVILLE,MD,20852,DBW001,On/Off-Premise,"HANK DIETLE'S, LLC",Yes,"11010 ROCKVILLE PIKE
ROCKVILLE, MD 20852
(39.0389, -77.10932)"
SILVER DINER,9811 WASHINGTONIAN BLVD.,GAITHERSBURG,MD,20878,BBWLHR40010,On Premise,"SILVER DINER RIO WASH, LLC",No,"9811 WASHINGTONIAN BLVD.
GAITHERSBURG, MD 20878
(39.11547, -77.19812)"
PLAZA OAXACA,141 GIBBS ST.,ROCKVILLE,MD,20850,BBWLHR482315,On Premise,"PLAZA OAXACA, INC.",No,"141 GIBBS ST.
ROCKVILLE, MD 20850
(39.08635, -77.15199)"
BELBY DISCOUNT BEER & WINE,888 ROCKVILLE PIKE,ROCKVILLE,MD,20852,DBW109,On/Off-Premise,"CKCE, INC",Yes,"888 ROCKVILLE PIKE
ROCKVILLE, MD 20852
(39.07496, -77.13566)"
RAKUGAKI,10223 OLD GEORGETOWN ROAD,BETHESDA,MD,20814,BBWLHR791373,On Premise,OG3 LLC,No,"10223 OLD GEORGETOWN ROAD
BETHESDA, MD 20814
(39.02359, -77.12361)"
POOLESVILLE GOLF COURSE - CROSSVINES,16601 WEST WILLARD ROAD,POOLESVILLE,MD,20837,BBWLCL084,On Premise,MONTGOMERY COUNTY REVENUE AUTH,No,"16601 WEST WILLARD ROAD
POOLESVILLE, MD 20837
(39.1271, -77.42429)"
NEW YORK MART,15108 FREDERICK ROAD,ROCKVILLE,MD,20850,ABWS23008,Off Premise,NEW YORK MART MD. INC,No,"15108 FREDERICK ROAD
ROCKVILLE, MD 20850
(39.10313, -77.15782)"
ELILLTA RESTAURANT AND GROCERY,10118 COLESVILLE RD,SILVER SPRING,MD,20901,BBWHR1003420,On/Off-Premise,SEMHAR LLC,No,"10118 COLESVILLE RD
SILVER SPRING, MD 20901
(39.02079, -77.01245)"
DOWNTOWN CROWN WINE & BEER,303 COPLEY PLACE,GAITHERSBURG,MD,20878,DBW155,On/Off-Premise,"CROWN BEER & WINE, LLC.",Yes,"303 COPLEY PLACE
GAITHERSBURG, MD 20878
(39.11488, -77.20694)"
MAPLE BEER AND WINE,8125 WISCONSIN AVENUE,BETHESDA,MD,20814,ABWS22685,Off Premise,"MY 523, LLC",Yes,"8125 WISCONSIN AVENUE
BETHESDA, MD 20814
(38.99178, -77.09582)"
BEATESUB MARKET & CARRY OUT,8201 GEORGIA AVENUE,SILVER SPRING,MD,20910,BBWHR26282,On/Off-Premise,"BEATESUB MARKET & CARRY-OUT, INC.",No,"8201 GEORGIA AVENUE
SILVER SPRING, MD 20910
(38.99172, -77.0266)"
MARIA'S CAFE & RESTAURANT,11305 ELKIN ST.,WHEATON,MD,20902,BBWLHR185262,On Premise,"MARIA'S CAFE & RESTAURANT, INC.",No,"11305 ELKIN ST.
WHEATON, MD 20902
(39.04056, -77.05034)"
EL CHANGARRO,107-B EAST DIAMOND AVENUE,GAITHERSBURG,MD,20877,DBW23613,On/Off-Premise,DELMA CORP,No,"107-B EAST DIAMOND AVENUE
GAITHERSBURG, MD 20877
(39.14194, -77.1957)"
MOTI'S MARKET,4860 BOILING BROOK PARKWAY,ROCKVILLE,MD,20852,BBWHR114,On/Off-Premise,"ADAD, LLC",Yes,"4860 BOILING BROOK PARKWAY
ROCKVILLE, MD 20852
(39.04635, -77.09957)"
SPENCERVILLE DELI,2215 SPENCERVILLE RD,SPENCERVILLE,MD,20868,BDBWL25583,On/Off-Premise,"SPENCERVILLE DELI, LLC",No,"2215 SPENCERVILLE RD
SPENCERVILLE, MD 20868
(39.11613, -76.96572)"
FULL ON CRAFT EATS & DRINKS,4007-D NORBECK ROAD,ROCKVILLE,MD,20853,BBWHR136,On/Off-Premise,"FULL ON CRAFT EATS&DRINKS, LLC",No,"4007-D NORBECK ROAD
ROCKVILLE, MD 20853
(39.10997, -77.07723)"
JAVA NATION SILVER SPRING,1010 WAYNE AVE,SILVER SPRING,MD,20910,BDBWL1060435,On/Off-Premise,JN SILVER SPRING INC,No,"1010 WAYNE AVE
SILVER SPRING, MD 20910
(38.9945, -77.02768)"
LOS CHORROS RESTAURANT,2420 BLUERIDGE AVE,SILVER SPRING,MD,20902,BBWLHR173,On Premise,BLUERIDGE 2420 INC.,No,"2420 BLUERIDGE AVE
SILVER SPRING, MD 20902
(39.04293, -77.05128)"
ETCHISON COUNTRY STORE,7000 DAMASCUS ROAD,GAITHERSBURG,MD,20882,ABW118,Off Premise,ELK INCORPORATED,Yes,"7000 DAMASCUS ROAD
GAITHERSBURG, MD 20882
(39.25486, -77.14371)"
CONVENIENCE EXPRESS,948 WAYNE AVE,SILVER SPRING,MD,20910,ABW030,Off Premise,"JOACHIM & JOYCE, INC.",Yes,"948 WAYNE AVE
SILVER SPRING, MD 20910
(38.99462, -77.02588)"
LA SPERANZA RESTAURANT,806 BALTIMORE ROAD,ROCKVILLE,MD,20851,BBWLHR1110435,On Premise,NEPORL LLC,No,"806 BALTIMORE ROAD
ROCKVILLE, MD 20851
(39.08469, -77.1353)"
SAKURA JAPANESE STEAK & SEAFOOD,11502 MIDDLEBROOK ROAD,GERMANTOWN,MD,20876,BBWLHR116,On Premise,GERMANTOWN SAKURA INC,No,"11502 MIDDLEBROOK ROAD
GERMANTOWN, MD 20876
(39.18014, -77.23935)"
KUSSHI KO,8512 FENTON ST.,SILVER SPRING,MD,20910,HBWHR804375,On Premise,"KUSSHI KO, LLC",No,"8512 FENTON ST.
SILVER SPRING, MD 20910
(38.99635, -77.0249)"
POTOMAC GROCER,10107 RIVER RD.,POTOMAC,MD,20854,DBW95264,On/Off-Premise,"POTOMAC GROCER, LLC",Yes,"10107 RIVER RD.
POTOMAC, MD 20854
(39.01774, -77.20812)"
DOWNTOWN BEER AND WINE 3,70 UPPER ROCK CIR,ROCKVILLE,MD,20850,DBW22817,On/Off-Premise,DOWNTOWN BEER & WINE 3 CORP,No,"70 UPPER ROCK CIR
ROCKVILLE, MD 20850
(39.104, -77.157)"
THE LADY VINTNER,42 MARYLAND AVE,ROCKVILLE,MD,20850,DBW1307544,On/Off-Premise,"THE LADY VINTNER, LLC",No,"42 MARYLAND AVE
ROCKVILLE, MD 20850
(39.08471, -77.15092)"
BONCHON CHICKEN-KENTLANDS,130 MARKET ST.,GAITHERSBURG,MD,20878,BBWLHR277259,On Premise,"KF KENTLANDS, INC.",No,"130 MARKET ST.
GAITHERSBURG, MD 20878
(39.12209, -77.235)"
WESENYELESH INTERNATIONAL MKT,901 SILVER SPRING AVENUE,SILVER SPRING,MD,20910,DBW1071145,Off Premise,WESENYELESH INTER. MARKET INC.,No,"901 SILVER SPRING AVENUE
SILVER SPRING, MD 20910
(38.99167, -77.02427)"
IRISH INN AT GLEN ECHO,6119 TULANE AVE,GLEN ECHO,MD,20812,BBWLHR101,On Premise,"BALLYMAHON, CORP.",No,"6119 TULANE AVE
GLEN ECHO, MD 20812
(38.96515, -77.13707)"
PHO TAN VINH,8705 COLESVILLE ROAD,SILVER SPRING,MD,20910,BBWLHR846,On Premise,TAN VINH CORPORATION,No,"8705 COLESVILLE ROAD
SILVER SPRING, MD 20910
(38.99791, -77.02685)"
SENECA CONVENIENCE,"12611 WISTERIA DRIVE, UNIT F",GERMANTOWN,MD,20874,ABWS119,Off Premise,SOOD & SOOD INC,Yes,"12611 WISTERIA DRIVE, UNIT F
GERMANTOWN, MD 20874
(39.17046, -77.26084)"
KISS & RIDE  CONVENIENCE STORE,11175 GEORGIA AVE.,SILVER SPRING,MD,20902,ABWS774364,Off Premise,"HOPE FOUND, INC.",No,"11175 GEORGIA AVE.
SILVER SPRING, MD 20902
(39.03845, -77.05073)"
HILTON GARDEN INN & HOMEWOOD SUITES,14975 SHADY GROVE ROAD,ROCKVILLE,MD,20850,BBWLHM021,On Premise,"FALLSGROVE HOTEL ASSOCIATES, L",No,"14975 SHADY GROVE ROAD
ROCKVILLE, MD 20850
(39.10026, -77.19118)"
SILVER DINER - ROCKVILLE,12276 ROCKVILLE PIKE,ROCKVILLE,MD,20852,BBWLHR614,On Premise,"SILVER DINER ROCKVILLE, LLC",No,"12276 ROCKVILLE PIKE
ROCKVILLE, MD 20852
(39.05789, -77.1207)"
ZAO STAMINA RAMEN,7345 WISCONSIN AVE.,BETHESDA,MD,20814,BBWHR485311,On Premise,"ZAO STAMINA RAMEN, LLC",No,"7345 WISCONSIN AVE.
BETHESDA, MD 20814
(38.98312, -77.09352)"
MOKO SUSHI,5550 NORBECK ROAD,ROCKVILLE,MD,20853,HBWHR1745544,On Premise,"LU FAMILY SUSHI, INC.",No,"5550 NORBECK ROAD
ROCKVILLE, MD 20853
(39.09464, -77.11096)"
GEORGE'S HOT POT & BBQ,24 BUREAU DR.,GAITHERSBURG,MD,20878,HBWHR223266,On Premise,"GEORGE'S HOT POT & BBQ, INC.",No,"24 BUREAU DR.
GAITHERSBURG, MD 20878
(39.14347, -77.21731)"
GOURMET BEER & WINE,"11530 ROCKVILLE PIKE, UNIT D",ROCKVILLE,MD,20852,DBW166,On/Off-Premise,HOPE RESOURCES CORPORATION,Yes,"11530 ROCKVILLE PIKE, UNIT D
ROCKVILLE, MD 20852
(39.04649, -77.1132)"
GOLF ULTRA LOUNGE,8123 GEORGIA AVE,SILVER SPRING,MD,20910,BBWLHR21250,On Premise,MXM LLC,No,"8123 GEORGIA AVE
SILVER SPRING, MD 20910
(38.99116, -77.02641)"
ETHIOPIS RESTAURANT,825 HUNGERFORD DRIVE,ROCKVILLE,MD,20850,BBWHR1233556,On/Off-Premise,TEAM SELAM LLC,No,"825 HUNGERFORD DRIVE
ROCKVILLE, MD 20850
(39.09527, -77.15288)"
HUNAN CITY,9429 GEORGIA AVE,SILVER SPRING,MD,20910,DBW040,On/Off-Premise,YAN WING INC.,No,"9429 GEORGIA AVE
SILVER SPRING, MD 20910
(39.00931, -77.04031)"
CHEESESTEAK MIKE'S,10222 NEW HAMPSHIRE AVE,SILVER SPRING,MD,20903,BDBWL1062553,On/Off-Premise,"DJS OH, LLC",No,"10222 NEW HAMPSHIRE AVE
SILVER SPRING, MD 20903
(39.02283, -76.97837)"
SHUVAM BEER AND WINE,10313 WESTLAKE DRIVE,BETHESDA,MD,20817,ABWS40709,Off Premise,"NARAYAN PUJJA, LLC",Yes,"10313 WESTLAKE DRIVE
BETHESDA, MD 20817
(39.02569, -77.14775)"
IKKO SUSHI,1215 EAST-WEST HIGHWAY,SILVER SPRING,MD,20910,DBW124,On/Off-Premise,"POMEGRANATE, INC.",No,"1215 EAST-WEST HIGHWAY
SILVER SPRING, MD 20910
(38.99094, -77.02984)"
TRUE FOOD KITCHEN - BETH,7100 WISCONSIN AVENUE,BETHESDA,MD,20814,BBWLHR1763544,On Premise,FRC BALANCE LLC,No,"7100 WISCONSIN AVENUE
BETHESDA, MD 20814
(38.98025, -77.09231)"
THE CORDELL,4865 CORDELL AVE,BETHESDA,MD,20814,DBWL1303544,On Premise,"EVALINA RESTAURANT GROUP, LLC",No,"4865 CORDELL AVE
BETHESDA, MD 20814
(38.98976, -77.09772)"
"STEVES BEER, WINE & DELI",12132 DARNESTOWN ROAD,GAITHERSBURG,MD,20878,DBW043,On/Off-Premise,MANHO CORPORATION,Yes,"12132 DARNESTOWN ROAD
GAITHERSBURG, MD 20878
(39.11679, -77.25196)"
DOG HAUS BIERGARTEN-KENTLAND,644 CENTER POINT WAY,GAITHERSBURG,MD,20878,BBWLHR95263,On Premise,"DHKMSQ, LLC",No,"644 CENTER POINT WAY
GAITHERSBURG, MD 20878
(39.1219, -77.23448)"
UZU SUSHI,1701 ROCKVILLE PIKE SUITE A7,ROCKVILLE,MD,20852,HBWHR1268556,On Premise,"CVS,LLC",No,"1701 ROCKVILLE PIKE SUITE A7
ROCKVILLE, MD 20852
(39.06056, -77.12336)"
YOLO CAFE,18022 MATNEY RD,GERMANTOWN,MD,20874,BBWHR1624544,On/Off-Premise,"YOLO CAFE, INC",No,"18022 MATNEY RD
GERMANTOWN, MD 20874
(39.14655, -77.27379)"
ARGYLE COUNTRY CLUB,14600 ARGYLE CLUB ROAD,SILVER SPRING,MD,20906,CBWLCC003,On Premise,ARGYLE LAND COMPANY INC.,No,"14600 ARGYLE CLUB ROAD
SILVER SPRING, MD 20906
(39.09618, -77.04871)"
LEGENDS CAFE,11317 ELKIN STREET,SILVER SPRING,MD,20902,BBWLHR150,On Premise,"MEGA 112,INC.",No,"11317 ELKIN STREET
SILVER SPRING, MD 20902
(39.04092, -77.05033)"
MONTGOMERY COUNTRY CLUB,20908 GOLF VIEW DRIVE,GAITHERSBURG,MD,20882,CBWLCC24652,On Premise,"EAGL BEVERAGE HOLDINGS, LLC",No,"20908 GOLF VIEW DRIVE
GAITHERSBURG, MD 20882
(39.20027, -77.13373)"
CAVA MEZZE-OLNEY,3124 OLNEY SANDY SPRING RD,OLNEY,MD,20832,BBWLHR22697,On Premise,"DTI 108, LLC",No,"3124 OLNEY SANDY SPRING RD
OLNEY, MD 20832
(39.15158, -77.06374)"
7 LOCKS BREWING,12227 WILKINS AVENUE,ROCKVILLE,MD,20852,DBW21275,On/Off-Premise,"SLIGO MILL BREWING COMPANY, LLC",No,"12227 WILKINS AVENUE
ROCKVILLE, MD 20852
(39.05578, -77.11028)"
BASSETT'S RESTAURANT,19950 FISHER AVENUE,POOLESVILLE,MD,20837,BBWLHR799369,On Premise,"ALL FLAVORS, INC",No,"19950 FISHER AVENUE
POOLESVILLE, MD 20837
(39.14611, -77.41686)"
DOLLAR PLUS STORE AND BEER & WINE,11250 TRIANGLE LANE,SILVER SPRING,MD,20902,ABW1203514,Off Premise,FKRE LLC,No,"11250 TRIANGLE LANE
SILVER SPRING, MD 20902
(39.03976, -77.05194)"
THE CHICKEN BAR,210 EAST DIAMOND AVE,GAITHERSBURG,MD,20877,BBWLHR1133477,On Premise,THE CHICKEN BAR LLC,No,"210 EAST DIAMOND AVE
GAITHERSBURG, MD 20877
(39.14213, -77.19406)"
KNIGHTS OF COLUMBUS #2169,9707 ROSENSTEEL AVE,SILVER SPRING,MD,20910,CBWLFV007,On Premise,FATHER ROSENSTEEL KNIGHTS OF COLUMBUS CLUBHOUSE ASSOCIATION,No,"9707 ROSENSTEEL AVE
SILVER SPRING, MD 20910
(39.01582, -77.05077)"
MIKE & SON'S SUBS,5404 RANDOLPH RD,ROCKVILLE,MD,20852,DBW26658,On/Off-Premise,"BHATTI FAMILY, LLC",No,"5404 RANDOLPH RD
ROCKVILLE, MD 20852
(39.05323, -77.10768)"
MI RANCHO - GERMANTOWN,"19725 GERMANTOWN ROAD, UNIT A",GERMANTOWN,MD,20874,BBWLHR145,On Premise,19725A INC.,No,"19725 GERMANTOWN ROAD, UNIT A
GERMANTOWN, MD 20874
(39.17936, -77.2662)"
SONG DOG DISTILLING,18100 BUCKLODGE ROAD,BOYDS,MD,20841,OCP1596544,On Premise,"SONG DOG SPIRITS, LLC",No,"18100 BUCKLODGE ROAD
BOYDS, MD 20841
(39.15044, -77.36154)"
MOM'S ORGANIC MARKET,5566 RANDOLPH ROAD,ROCKVILLE,MD,20852,ABWS037,Off Premise,"MOM'S ORGANIC MARKET,INC",Yes,"5566 RANDOLPH ROAD
ROCKVILLE, MD 20852
(39.05306, -77.11217)"
LA MEXICANA - GERMANTOWN,13016 MIDDLEBROOK ROAD,GERMANTOWN,MD,20874,BBWLHR034,On Premise,EL MEXICANO INC.,No,"13016 MIDDLEBROOK ROAD
GERMANTOWN, MD 20874
(39.18081, -77.27152)"
WILLIAMS BEER & WINE,15440 OLD COLUMBIA PIKE,BURTONSVILLE,MD,20866,DBW27325,On/Off-Premise,"SONI AND SONS, LLC",Yes,"15440 OLD COLUMBIA PIKE
BURTONSVILLE, MD 20866
(39.10953, -76.9355)"
CHEF TONY'S @ THE PROMENADE,5225 POOKS HILL RD.,BETHESDA,MD,20814,BBWLHR413274,On/Off-Premise,"ESPLANADE, LLC",No,"5225 POOKS HILL RD.
BETHESDA, MD 20814
(39.01646, -77.10696)"
ALA BETHESDA,4948 FAIRMONT AVE,BETHESDA,MD,20814,BBWLHR1129448,On Premise,4948 FAIRMONT LLC,No,"4948 FAIRMONT AVE
BETHESDA, MD 20814
(38.98745, -77.09759)"
POTOMAC PIZZA - TRAVILLE,9709 TRAVILLE GATEWAY DRIVE,ROCKVILLE,MD,20850,HBWHR449,On Premise,"PIZZA ZONE OF TRAVILLE, LLC",No,"9709 TRAVILLE GATEWAY DRIVE
ROCKVILLE, MD 20850
(39.09151, -77.2041)"
EMPIRE CAFE & MARKET,22301 GEORGIA AVENUE,BROOKVILLE,MD,20833,ABW26399,Off Premise,"NASSA MART, LLC",Yes,"22301 GEORGIA AVENUE
BROOKVILLE, MD 20833
(39.22136, -77.0595)"
BLACK'S BAR & KITCHEN,7750 WOODMONT AVE,BETHESDA,MD,20814,BBWLHR301,On Premise,"I.T.B., EIGHT,LLC",No,"7750 WOODMONT AVE
BETHESDA, MD 20814
(38.98781, -77.09601)"
SEOULFOOD DC,7302 CARROLL AVE,TAKOMA PARK,MD,20912,BBWHR33500,On/Off-Premise,"SEOULFOOD DC, LLC",No,"7302 CARROLL AVE
TAKOMA PARK, MD 20912
(38.97817, -77.00598)"
MARUICHI,1047 ROCKVILLE PIKE,ROCKVILLE,MD,20852,DBW053,On/Off-Premise,MARUICHI INC.,No,"1047 ROCKVILLE PIKE
ROCKVILLE, MD 20852
(39.0716, -77.1328)"
FAR EAST RESTAURANT,5055 NICHOLSON LANE,ROCKVILLE,MD,20852,BBWLHR35232,On Premise,"KAIWEN, LLC",No,"5055 NICHOLSON LANE
ROCKVILLE, MD 20852
(39.04619, -77.10431)"
CABIN JOHN MEMORIAL VFW POST 5633,11511 MACARTHUR BLVD.,POTOMAC,MD,20854,CBWLC002,On Premise,CABIN JOHN MEMORIAL VFW 5633,No,"11511 MACARTHUR BLVD.
POTOMAC, MD 20854
(38.99572, -77.2377)"
AMERICAN LEGION POST #41,905 SLIGO AVE,SILVER SPRING,MD,20910,CBWLFV012,On Premise,"CISSEL-SAXON POST #41, INC.",No,"905 SLIGO AVE
SILVER SPRING, MD 20910
(38.9907, -77.02485)"
BOWLERO BETHESDA,5353 WESTBARD AVE,BETHESDA,MD,20816,BBWLHR328,On Premise,WESTWOOD LANES LLC,No,"5353 WESTBARD AVE
BETHESDA, MD 20816
(38.96356, -77.10578)"
HOT POT HERO,100 PARAMOUNT PARK DR.,GAITHERSBURG,MD,20879,HBWHR299259,On Premise,"HPH ROCKVILLE, LLC",No,"100 PARAMOUNT PARK DR.
GAITHERSBURG, MD 20879
(39.15975, -77.22151)"
COURTYARD BY MARRIOTT - GAITH,204 BOARDWALK PLACE,GAITHERSBURG,MD,20878,BBWLHM018,On Premise,COURTYARD MANAGEMENT LLC,No,"204 BOARDWALK PLACE
GAITHERSBURG, MD 20878
(39.11696, -77.19835)"
TJ BEER WINE LIQUOR,7669 NEW HAMPSHIRE AVENUE,TAKOMA PARK,MD,20912,ABWLTP002,Off Premise,KKR KIM. INC.,No,"7669 NEW HAMPSHIRE AVENUE
TAKOMA PARK, MD 20912
(38.98779, -76.98758)"
GLENWOOD'S,2000 TOWER OAKS BOULEVARD,ROCKVILLE,MD,20852,BBWLHR23452,On Premise,"TOWER OAKS REST HOLDINGS, LLC",No,"2000 TOWER OAKS BOULEVARD
ROCKVILLE, MD 20852
(39.06571, -77.15326)"
TAQUERIA SABOR MIXTECO,2460-2462 ENNALLS AVENUE,WHEATON,MD,20902,BBWLHR1319544,On Premise,TAQUERIA SABOR MIXTECO LLC,No,"2460-2462 ENNALLS AVENUE
WHEATON, MD 20902
(39.04024, -77.05258)"
LA VILLA RESTAURANT BAR & GRILL,18701 N. FREDERICK AVE.,GAITHERSBURG,MD,20879,BBWLHR38656,On Premise,"REE ENTERPRISE, INC.",No,"18701 N. FREDERICK AVE.
GAITHERSBURG, MD 20879
(39.16256, -77.22452)"
BLACK DIAMOND RESTAURANT,8407 RAMSEY AVENUE,SILVER SPRING,MD,20910,DBWL924409,On Premise,"BLACKDIAMOND RESTAURANT, LLC",No,"8407 RAMSEY AVENUE
SILVER SPRING, MD 20910
(38.99395, -77.02911)"
LAS PALMAS BAR AND RESTAURANT,2310 PRICE AVE.,SILVER SPRING,MD,20902,BDBWL715355,On/Off-Premise,"LOS BERRACOS 2, LLC",No,"2310 PRICE AVE.
SILVER SPRING, MD 20902
(39.03997, -77.05003)"
N-Ali Conway,34 Tarragon Drive,East Hampton,CT,06424,2024,,,No,"34 Tarragon Drive
East Hampton, CT 06424
(41.57967, -72.52365)"
BLUE MASH GOLF COURSE,5821 OLNEY LAYTONSVILLE RD,GAITHERSBURG,MD,20882,BBWLHR961415,On Premise,"KSM MARYLAND II, LLC",No,"5821 OLNEY LAYTONSVILLE RD
GAITHERSBURG, MD 20882
(39.18725, -77.11855)"
ABYSSINIA RESTAURANT,8221 GEORGIA AVE,SILVER SPRING,MD,20910,BBWLHR561,On Premise,"SOLO & AD, INC.",No,"8221 GEORGIA AVE
SILVER SPRING, MD 20910
(38.99236, -77.0266)"
SIU'S ASIAN BISTRO,12271 TECH ROAD,SILVER SPRING,MD,20904,BBWHR1089437,On/Off-Premise,"YINFENG, LLC",No,"12271 TECH ROAD
SILVER SPRING, MD 20904
(39.05683, -76.96597)"
AJI-NIPPON RESTAURANT,6937 ARLINGTON RD,BETHESDA,MD,20814,BBWHR089,On/Off-Premise,"ASAHI FUSION, INC.",No,"6937 ARLINGTON RD
BETHESDA, MD 20814
(38.97932, -77.09836)"
THE BOTTLE SHOP,"350 FORTUNE TERRACE, SUITE 102",ROCKVILLE,MD,20854,DBW156,On/Off-Premise,"THE BOUKALI GROUP, LLC",Yes,"350 FORTUNE TERRACE, SUITE 102
ROCKVILLE, MD 20854
(39.06186, -77.15852)"
N-NORMANDIE FARM,10710 FALLS ROAD,POTOMAC,MD,20854,BBWLHR1205504,On Premise,"NFBG, LLC",No,"10710 FALLS ROAD
POTOMAC, MD 20854
(39.03046, -77.20218)"
FUSION SPORTS BAR,15535 NEW HAMPSHIRE AVE,SILVER SPRING,MD,20905,BBWLHR37936,On Premise,"FUSION SPORTS BAR, LLC",No,"15535 NEW HAMPSHIRE AVE
SILVER SPRING, MD 20905
(39.11091, -76.99491)"
WESTSIDE WINE CELLAR & BEER,8010 GRAMERCY BLVD,ROCKVILLE,MD,20855,DBW32215,On/Off-Premise,HIMA LLC,Yes,"8010 GRAMERCY BLVD
ROCKVILLE, MD 20855
(39.12358, -77.16468)"
THE HEIGHTS,5406 WISCONSIN AVE SUITE A,CHEVY CHASE,MD,20815,BBWLHR878403,On Premise,THE HEIGHTS MD LLC,No,"5406 WISCONSIN AVE SUITE A
CHEVY CHASE, MD 20815
(38.96126, -77.086)"
GUAPO'S - BETHESDA,8130 WISCONSIN AVE,BETHESDA,MD,20814,BBWLHR051,On Premise,GUAPO'S BETHESDA INC.,No,"8130 WISCONSIN AVE
BETHESDA, MD 20814
(38.99175, -77.09615)"
RASA,12033 ROCKVILLE PIKE,ROCKVILLE,MD,20852,BBWLHR950413,On Premise,RASA ROCKVILLE LLC,No,"12033 ROCKVILLE PIKE
ROCKVILLE, MD 20852
(39.05492, -77.11743)"
MELEKET ETHIOPIAN RESTAURANT AND LOUNGE,1907 SEMINARY RD,SILVER SPRING,MD,20910,BBWLHR1083435,On Premise,ZURIASHWORK LLC,No,"1907 SEMINARY RD
SILVER SPRING, MD 20910
(39.00879, -77.04086)"
TIA QUETA RESTAURANT,4839 DEL RAY AVE,BETHESDA,MD,20814,BBWLHR160,On Premise,"TIA QUETA RESTAURANT, INC.",No,"4839 DEL RAY AVE
BETHESDA, MD 20814
(38.9901, -77.09858)"
MALA CANTEEN,33  MARYLAND AVE UNIT E,ROCKVILLE,MD,20850,HBWHR914411,On Premise,WEMEKITCHEN LLC,No,"33 MARYLAND AVE UNIT E
ROCKVILLE, MD 20850
(39.08574, -77.15099)"
UTOPIA BEER & WINE,14 RANDOLPH RD.,SILVER SPRING,MD,20904,ABW299260,Off Premise,"ZEMEN, LLC",No,"14 RANDOLPH RD.
SILVER SPRING, MD 20904
(39.07543, -77.00299)"
JERK HOUSE EATERY,25 UNIVERSITY BLVD W,SILVER SPRING,MD,20901,BDBWL866397,On/Off-Premise,"NICKOYAN ENTERPRISES, LLC",Yes,"25 UNIVERSITY BLVD W
SILVER SPRING, MD 20901
(39.02065, -77.0132)"
MUOI TIEU,7006 CARROLL AVE SUITE #A,TAKOMA PARK,MD,20912,HBWHR1096436,On Premise,"MARK'S KITCHEN, LLC",No,"7006 CARROLL AVE SUITE #A
TAKOMA PARK, MD 20912
(38.97486, -77.01196)"
PETER CHANG,637 N FREDERICK AVE,GAITHERSBURG,MD,20879,BBWLHR1246550,On Premise,PC GAITHERSBURG LLC,No,"637 N FREDERICK AVE
GAITHERSBURG, MD 20879
(39.15464, -77.21418)"
LEDO'S LEISURE WORLD,3850 INTERNATIONAL DRIVE,SILVER SPRING,MD,20906,HBWHR27710,On Premise,"MHI HOTELS SERVICES, LLC",No,"3850 INTERNATIONAL DRIVE
SILVER SPRING, MD 20906
(39.1022, -77.07533)"
LANGANO ETHIOPIAN RESTAURANT,8305 GEORGIA AVE,SILVER SPRING,MD,20910,BBWLHR738,On Premise,LANGANO LLC,No,"8305 GEORGIA AVE
SILVER SPRING, MD 20910
(38.99315, -77.02663)"
RUTH'S CHRIS STEAK HOUSE - G/BURG,106 CROWN PARK AVENUE,GAITHERSBURG,MD,20878,BBWLHR857,On Premise,"RCSH OPERATIONS, LLC",No,"106 CROWN PARK AVENUE
GAITHERSBURG, MD 20878
(39.11498, -77.20646)"
LA CURVITA RESTAURANT,12 EAST DIAMOND AVE.,GAITHERSBURG,MD,20877,BDBWL55260,On/Off-Premise,"ANTOJITOS RESTAURANT, INC.",No,"12 EAST DIAMOND AVE.
GAITHERSBURG, MD 20877
(39.14206, -77.19759)"
TACO MEX RESTAURANT,13830 OLD COLUMBIA PIKE,SILVER SPRING,MD,20904,BBWLHR284,On Premise,"ERICK & EDWIN, INC.",No,"13830 OLD COLUMBIA PIKE
SILVER SPRING, MD 20904
(39.08417, -76.95205)"
TIJUANA MEXICAN CAFE - S.S.,949 EAST UNIVERSITY BLVD,SILVER SPRING,MD,20903,BBWLHR486,On Premise,"TIJUANA TAKOMA, INC.",No,"949 EAST UNIVERSITY BLVD
SILVER SPRING, MD 20903
(38.99214, -76.9907)"
MARRIOTT HOTEL - BETHESDA,5151 POOKS HILL ROAD,BETHESDA,MD,20814,BBWLHM002,On Premise,"MARRIOTT HOTEL SERVICES, LLC",No,"5151 POOKS HILL ROAD
BETHESDA, MD 20814
(39.01609, -77.1042)"
B & B BEER & WINE,8403 SNOUFFER SCHOOL ROAD,GAITHERSBURG,MD,20879,DBW1071994,Off Premise,"SOVATHA, LLC",Yes,"8403 SNOUFFER SCHOOL ROAD
GAITHERSBURG, MD 20879
(39.1673, -77.17227)"
ITALIAMO KITCHEN,15855 REDLAND ROAD,DERWOOD,MD,20855,BBWLHR1659545,On Premise,"ITALIAMO KITCHEN, LLC",No,"15855 REDLAND ROAD
DERWOOD, MD 20855
(39.11624, -77.16558)"
FAIRFIELD INN,20025 CENTURY BOULEVARD,GERMANTOWN,MD,20874,DBW158,On/Off-Premise,"HOSPITALITY SERVICES 2, LLC",No,"20025 CENTURY BOULEVARD
GERMANTOWN, MD 20874
(39.18435, -77.25938)"
MORTON'S - THE STEAKHOUSE,7400 WISCONSIN AVE,BETHESDA,MD,20814,BBWLHR377,On Premise,MORTON'S OF CHICAGO/BETHESDA,No,"7400 WISCONSIN AVE
BETHESDA, MD 20814
(38.98383, -77.09401)"
THE BREAKFAST CLUB,8240 FENTON ST,SILVER SPRING,MD,20910,BBWLHR745355,On Premise,"EAT 2 LIVE, LLC",No,"8240 FENTON ST
SILVER SPRING, MD 20910
(38.99275, -77.02407)"
MYKONOS GRILL,121 CONGRESSIONAL LANE,ROCKVILLE,MD,20852,BBWLHR210,On Premise,"HANE RESTAURANT, INC.",No,"121 CONGRESSIONAL LANE
ROCKVILLE, MD 20852
(39.06328, -77.12771)"
SUNDAY MORNING BAKEHOUSE,11869 GRAND PARK AVE.,NORTH BETHESDA,MD,20852,BBWLHR42483,On Premise,"SUNDAY MORNING BAKEHOUSE, LLC",No,"11869 GRAND PARK AVE.
NORTH BETHESDA, MD 20852
(39.05042, -77.11737)"
NEWS EXPRESS,4853 CORDELL AVE,BETHESDA,MD,20814,ABW262,Off Premise,NEWS EXPRESS,No,"4853 CORDELL AVE
BETHESDA, MD 20814
(38.99028, -77.09746)"
RED BOWL,12051 C-4 CHESTNUT BRANCH WAY,CLARKSBURG,MD,20871,BBWLHR20257,On Premise,"RED BOWL OF CLARKSBURG, INC",No,"12051 C-4 CHESTNUT BRANCH WAY
CLARKSBURG, MD 20871
(39.23008, -77.2499)"
ASADUR'S MARKET,5536 RANDOLPH RD.,ROCKVILLE,MD,20852,ABW41082,Off Premise,"MEHRANIAN, LLC",No,"5536 RANDOLPH RD.
ROCKVILLE, MD 20852
(39.05218, -77.11173)"
CHOP SHOP BUTCHERY,12209 DARNESTOWN ROAD,GAITHERSBURG,MD,20878,ABWS1190498,Off Premise,CHOP SHOP NEIGHBORHOOD BUTCHERY LLC,No,"12209 DARNESTOWN ROAD
GAITHERSBURG, MD 20878
(39.1188, -77.25361)"
OLNEY THEATRE CENTER,2001 OLNEY-SANDY SPRING ROAD,OLNEY,MD,20832,SBWLCPA003,On Premise,OLNEY THEATRE CENTER FOR THE A,No,"2001 OLNEY-SANDY SPRING ROAD
OLNEY, MD 20832
(39.14453, -77.04399)"
SLIGO CREEK GOLF COURSE,9701 SLIGO CREEK PKY,SILVER SPRING,MD,20901,BBWLCL269,On Premise,MONTGOMERY CO. REV. AUTHORITY,No,"9701 SLIGO CREEK PKY
SILVER SPRING, MD 20901
(39.01396, -77.03081)"
MAYAN MONKEY BREWING CO.,227 E DIAMOND AVE,GAITHERSBURG,MD,20877,BDBWL1256533,On/Off-Premise,MAYAN MONKEY BREWING CO.,No,"227 E DIAMOND AVE
GAITHERSBURG, MD 20877
(39.14217, -77.19355)"
THIRD HILL BREWING CO,8216 GEORGIA AVE,SILVER SPRING,MD,20910,DBW1063445,On/Off-Premise,TH BREWING LLC,No,"8216 GEORGIA AVE
SILVER SPRING, MD 20910
(38.99197, -77.0269)"
MAPLEWOOD PARK PLACE,9707 OLD GEORGETOWN ROAD,BETHESDA,MD,20814,CBWLRC002,On Premise,SUNRISE SENIOR LIVING SERVICES,No,"9707 OLD GEORGETOWN ROAD
BETHESDA, MD 20814
(39.01514, -77.11703)"
LEENA'S BEER AND WINE,13505 CLOPPER ROAD,GERMANTOWN,MD,20874,ABWS1270553,Off Premise,"ANJANI, LLC",Yes,"13505 CLOPPER ROAD
GERMANTOWN, MD 20874
(39.16246, -77.28059)"
ON ST ELMO/FLYING BUDDHA,4915 ST ELMO AVENUE,BETHESDA,MD,20814,BDBWL1001429,On/Off-Premise,BELLASHED LLC,No,"4915 ST ELMO AVENUE
BETHESDA, MD 20814
(38.98869, -77.09761)"
29 CONVENIENCE MART,10755 COLESVILLE ROAD,SILVER SPRING,MD,20901,DBW32443,On/Off-Premise,A&I ENTERPRISE VI . INC,Yes,"10755 COLESVILLE ROAD
SILVER SPRING, MD 20901"
MERIDIAN MARKET & WINE,5230 TUCKERMAN LANE,ROCKVILLE,MD,20852,ABW251,Off Premise,EMC AT MERIDIAN INC.,Yes,"5230 TUCKERMAN LANE
ROCKVILLE, MD 20852
(39.02749, -77.10135)"
DAWSON'S MARKET,9636 GUDELSKY DRIVE,ROCKVILLE,MD,20850,CATBWL1453544,On Premise,DM USG LLC,No,"9636 GUDELSKY DRIVE
ROCKVILLE, MD 20850
(39.09463, -77.20211)"
DISTRICT BISTRO AND FRANK'S BURGERS,11230 GRANDVIEW AVE,SILVER SPRING,MD,20902,BDBWL1069448,On/Off-Premise,SIMPLE FOOD GROUP LLC,No,"11230 GRANDVIEW AVE
SILVER SPRING, MD 20902
(39.03938, -77.05246)"
CITY LIGHTS OF CHINA,4953 BETHESDA AVENUE,BETHESDA,MD,20814,BBWLHR1071900,On Premise,Q & Q RESTAURANT,No,"4953 BETHESDA AVENUE
BETHESDA, MD 20814
(38.98078, -77.10008)"
N-CLUB CAPRI,11222 GRANDVIEW AVE,SILVER SRING,MD,20902,BBWLHR,On Premise,"CLUB CAPRI, LLC",No,"11222 GRANDVIEW AVE
SILVER SRING, MD 20902
(39.03926, -77.05243)"
DERWOOD BEER & WINE,17601 REDLAND ROAD,DERWOOD,MD,20855,DBW133,On/Off-Premise,"SUBH LAXMI, INC.",Yes,"17601 REDLAND ROAD
DERWOOD, MD 20855
(39.14425, -77.14443)"
SHEGER SPRING CAFE,900 SILVER SPRING AVENUE,SILVER SPRING,MD,20910,BBWLHR21274,On Premise,"SHEGER SPRING CAFE, LLC",No,"900 SILVER SPRING AVENUE
SILVER SPRING, MD 20910
(38.99167, -77.02428)"
SUGARLOAF WINE CELLAR,12955 WISTERIA DR,GERMANTOWN,MD,20874,DBW25768,On/Off-Premise,"VHVP GROUP, LLC",Yes,"12955 WISTERIA DR
GERMANTOWN, MD 20874
(39.17853, -77.27026)"
LUCKY STRIKE ROCKVILLE,15720 SHADY GROVE ROAD,GAITHERSBURG,MD,20877,BBWLHR497,On Premise,"AMF BOWLING CENTERS, INC.",No,"15720 SHADY GROVE ROAD
GAITHERSBURG, MD 20877
(39.11409, -77.18795)"
TAKOMA PARK SILVER SPRING COOP,201 ETHAN ALLEN AVENUE,TAKOMA PARK,MD,20912,ABWS21343,Off Premise,TAKOMA PARK SILVER SPRING COOP,No,"201 ETHAN ALLEN AVENUE
TAKOMA PARK, MD 20912
(38.97775, -77.00576)"
RIO GRANDE CAFE & SAVAGE BURRITO- BETH.,4870 BETHESDA AVE,BETHESDA,MD,20814,BBWLHR161,On Premise,"THE MEXICAN REST., INC.",No,"4870 BETHESDA AVE
BETHESDA, MD 20814
(38.98088, -77.09811)"
MODENA RESERVE AT KENSINGTON,10540 METROPOLITAN AVE.,KENSINGTON,MD,20895,BBWLHR603348,On Premise,"SHI-III SOLERA KENSINGTON OWNER, LLC",No,"10540 METROPOLITAN AVE.
KENSINGTON, MD 20895
(39.02793, -77.07315)"
BOUBOULINA,921 MEETING ST,NORTH BETHESDA,MD,20852,BBWLHR1272550,On Premise,"BOUBOULINA, LLC",No,"921 MEETING ST
NORTH BETHESDA, MD 20852
(39.05031, -77.11524)"
ARAT KILO MARKET AND RESTAURANT,818 EASLEY STREET,SILVER SPRING,MD,20910,HBW23352,On Premise,"HELINA ASEGED AND SONS, LLC",No,"818 EASLEY STREET
SILVER SPRING, MD 20910
(38.99373, -77.02373)"
KARLEE'S DELI AND MARKET,3750 HOWARD AVENUE,KENSINGTON,MD,20895,DBW1091447,On/Off-Premise,KARLEE'S DELI LLC,No,"3750 HOWARD AVENUE
KENSINGTON, MD 20895
(39.02763, -77.07373)"
AMAZING ART STUDIO,115 CROWN PARK AVENUE,GAITHERSBURG,MD,20878,SAGBW1520544,On Premise,AMAZING ART STUDIO III INC.,No,"115 CROWN PARK AVENUE
GAITHERSBURG, MD 20878
(39.11487, -77.20631)"
SUPER CHICKEN-GERMANTOWN,12611-H WISTERIA DRIVE,GERMANTOWN,MD,20874,HBWHR35833,On Premise,"MEGA PARTNERS, LLC",No,"12611-H WISTERIA DRIVE
GERMANTOWN, MD 20874
(39.17046, -77.26084)"
TRAVILAH BEER & WINE,10028 DARNESTOWN ROAD,ROCKVILLE,MD,20850,DBW1289545,On/Off-Premise,"NKGS, LLC",Yes,"10028 DARNESTOWN ROAD
ROCKVILLE, MD 20850
(39.09591, -77.20671)"
GUARDADO'S RESTAURANT,4918 DEL RAY AVE,BETHESDA,MD,20814,BBWLHR220,On Premise,"NICOREY, LLC",No,"4918 DEL RAY AVE
BETHESDA, MD 20814
(38.98928, -77.09935)"
ABI AZTECA GRILL,11514 MIDDLEBROOK ROAD,GERMANTOWN,MD,20876,BBWLHR792,On Premise,"AZTECA GRILL, LLC",No,"11514 MIDDLEBROOK ROAD
GERMANTOWN, MD 20876
(39.17953, -77.24012)"
PICCA POLLO A LA BRASA,13000 MIDDLEBROOK ROAD,GERMANTOWN,MD,20874,BBWLHR854,On Premise,"PICCA CHICKEN, INC",No,"13000 MIDDLEBROOK ROAD
GERMANTOWN, MD 20874
(39.18139, -77.27139)"
TACOSWAY MEXICAN GRILL,8777 - B FIRST AVENUE,SILVER SPRING,MD,20910,DBWL718356,On Premise,"TWSS1,LLC",No,"8777 - B FIRST AVENUE
SILVER SPRING, MD 20910
(38.9982, -77.03266)"
HILLANDALE BEER & WINE,10117 NEW HAMPSHIRE AVE,SILVER SPRING,MD,20903,ABW183,Off Premise,SATH INC.,Yes,"10117 NEW HAMPSHIRE AVE
SILVER SPRING, MD 20903
(39.02105, -76.97541)"
NEW SILVER FOUNTAIN RESTAURANT,13533 CONNECTICUT AVE,SILVER SPRING,MD,20906,BBWLHR771,On Premise,"NEW SILVER FOUNTAIN, INC",No,"13533 CONNECTICUT AVE
SILVER SPRING, MD 20906
(39.07751, -77.07998)"
Z-N-ROHOBOT ETHIOPIAN RESTAURANT,,,,,BBWHR642355,On Premise,"ROHOBOT ENTERPRISE, LLC",No,
RIO GRANDE CAFE & SAVAGE BURRITO-GAIT,231 RIO BLVD,GAITHERSBURG,MD,20878,BBWLHR048,On Premise,"THE MEXICAN RESTAURANT,INC.",No,"231 RIO BLVD
GAITHERSBURG, MD 20878
(39.11811, -77.20034)"
GOSHEN PLAZA BEER & WINE,9150 ROTHBURY DR.,MONTGOMERY VILLAGE,MD,20886,DBW029,On/Off-Premise,"LAKSHMI LLC,",Yes,"9150 ROTHBURY DR.
MONTGOMERY VILLAGE, MD 20886
(39.18502, -77.18976)"
RED HOUND,7050 CARROLL AVE UNIT 101,TAKOMA PARK,MD,20912,DBW1377544,On/Off-Premise,BAKHOS LLC,No,"7050 CARROLL AVE UNIT 101
TAKOMA PARK, MD 20912
(38.97508, -77.01082)"
PRIME BEER & WINE,12842 NEW HAMPSHIRE AVENUE,SILVER SPRING,MD,20904,ABW1658544,Off Premise,CARLEYS CONVENIENCE STORE LLC,Yes,"12842 NEW HAMPSHIRE AVENUE
SILVER SPRING, MD 20904
(39.06603, -77.00099)"
NANDO'S PERI PERI - WHEATON,11160 VEIRS MILL ROAD SPACE P205,WHEATON,MD,20902,BBWLHR23474,On Premise,"NANDO'S OF WHEATON, LLC",No,"11160 VEIRS MILL ROAD SPACE P205
WHEATON, MD 20902
(39.03748, -77.05329)"
AKIRA RAMEN & IZAKAYA,"1800 ROCKVILLE PIKE, STE H1",ROCKVILLE,MD,20852,HBWHR749355,On Premise,"HS PANIDA, INC.",No,"1800 ROCKVILLE PIKE, STE H1
ROCKVILLE, MD 20852
(39.05994, -77.12199)"
TG SILVER SPRING MART,8211 FENTON STREET,SILVER SPRING,MD,20910,DBW1057690,On/Off-Premise,TG SILVER SPRING MART LLC,No,"8211 FENTON STREET
SILVER SPRING, MD 20910
(38.99208, -77.02405)"
BJ'S BEER & WINE,20032 GOSHEN RD.,GAITHERSBURG,MD,20879,ABW42099,Off Premise,"JEON GALAXY, INC.",Yes,"20032 GOSHEN RD.
GAITHERSBURG, MD 20879
(39.18651, -77.18716)"
ASI ES MI TIERRA,2559 ENNALS AVENUE,WEATON,MD,20902,BBWLHR1142498,On Premise,AEMT LLC,No,"2559 ENNALS AVENUE
WEATON, MD 20902
(39.03971, -77.05411)"
WATKINS MILL BEER & WINE,857 RUSSELL AVE.,GAITHERSBURG,MD,20879,DBW508327,On/Off-Premise,"SONI FAMILY, LLC",Yes,"857 RUSSELL AVE.
GAITHERSBURG, MD 20879
(39.15725, -77.21181)"
RED ROBIN GOURMET BURGERS & BREWS,20001 CENTURY BLVD,GERMANTOWN,MD,20874,BBWLHR332,On Premise,RED ROBIN OF MONTGOMERY CO INC,No,"20001 CENTURY BLVD
GERMANTOWN, MD 20874
(39.18289, -77.25954)"
KUYA JA'S LECHON BELLY,5268H NICHOLSON LN,ROCKVILLE,MD,20895,DBW33522,On/Off-Premise,"KUYA JAS LECHON BELLY, LLC",No,"5268H NICHOLSON LN
ROCKVILLE, MD 20895
(39.0446, -77.10683)"
YIKU SUSHI,818 MUDDY BRANCH ROAD,GAITHERSBURG,MD,20878,BBWHR23411,On/Off-Premise,"JWL, LLC",No,"818 MUDDY BRANCH ROAD
GAITHERSBURG, MD 20878
(39.1141, -77.21709)"
ARMAND'S PIZZERIA & GRILLE,190 HALPINE ROAD,ROCKVILLE,MD,20852,BBWHR137,On/Off-Premise,"SAPHRO, LLC.",No,"190 HALPINE ROAD
ROCKVILLE, MD 20852
(39.06108, -77.12546)"
TRATTORIA DA LINA,7000 CARROLL AVENUE,TAKOMA PARK,MD,20912,BBWLHR24865,On Premise,"MINNA, LLC",No,"7000 CARROLL AVENUE
TAKOMA PARK, MD 20912
(38.97473, -77.01209)"
COASTAL FLATS,135 CROWN PARK AVENUE,GAITHERSBURG,MD,20878,BBWLHR853,On Premise,COASTAL FLATS - CROWN,No,"135 CROWN PARK AVENUE
GAITHERSBURG, MD 20878
(39.11456, -77.2059)"
LAKESIDE BEER AND WINE,9621 LOST KNIFE RD,GAITHERSBURG,MD,20877,DBW31825,On/Off-Premise,SHUVASHREE CORPORATION,Yes,"9621 LOST KNIFE RD
GAITHERSBURG, MD 20877
(39.15285, -77.19684)"
BEST BEER WINE AND DELI & GROCERY,18749-A NORTH FREDERICK ROAD,GAITHERSBURG,MD,20879,ABWS854397,Off Premise,BEST BEER WINE AND DELI,Yes,"18749-A NORTH FREDERICK ROAD
GAITHERSBURG, MD 20879"
FIRST WATCH,12255 PROSPERITY DRIVE SUITE 117,SILVER SPRING,MD,20904,BBWLHR1519545,On Premise,"FIRST WATCH RESTAURANTS, INC.",No,"12255 PROSPERITY DRIVE SUITE 117
SILVER SPRING, MD 20904
(39.06134, -76.96049)"
HYATT REGENCY BETHESDA,ONE BETHESDA METRO,BETHESDA,MD,20814,BBWLHM21674,On Premise,"TMG II BETHESDA HOTEL TRS, LLC",No,"ONE BETHESDA METRO
BETHESDA, MD 20814
(38.98409, -77.09506)"
ADULIS COFFEE AND ROASTERY,7825 EASTERN AVENUE,SILVER SPRING,MD,20910,BBWLHR1490544,On Premise,"SPRING STAR GROUP, LLC",No,"7825 EASTERN AVENUE
SILVER SPRING, MD 20910
(38.98528, -77.02715)"
LANCE'S BEER & WINE,4701 MILLER AVE,BETHESDA,MD,20814,DBW120,On/Off-Premise,"GUTHWORKS, LLC",Yes,"4701 MILLER AVE
BETHESDA, MD 20814
(38.98057, -77.09289)"
VFW POST NO. 350,6420 ORCHARD AVE,TAKOMA PARK,MD,20912,CBWLFV1,On Premise,POST NO. 350 VFW OF THE U.S,No,"6420 ORCHARD AVE
TAKOMA PARK, MD 20912
(38.96938, -77.00292)"
THE GRILLED OYSTER COMPANY,200 MAIN ST.,GAITHERSBURG,MD,20878,BBWLHR732,On Premise,"OLLIE JACK, LLC",No,"200 MAIN ST.
GAITHERSBURG, MD 20878
(39.12306, -77.23855)"
SHALLA RESTAURANT & BAR,8081 GEORGIA AVE.,SILVER SPRING,MD,20910,BBWLHR463302,On Premise,"TRIPLE BROTHERS, LLC",No,"8081 GEORGIA AVE.
SILVER SPRING, MD 20910
(38.99013, -77.02637)"
MUNDO LATINO MARKET II,2307 UNIVERSITY BLVD W,SILVER SPRING,MD,20902,DBW916412,On/Off-Premise,MUNDO MARKET II,Yes,"2307 UNIVERSITY BLVD W
SILVER SPRING, MD 20902
(39.04171, -77.04912)"
DILL DINKERS,4942 BOILING BROOK PARKWAY,NORTH BETHESDA,MD,20852,DBW1284549,On/Off-Premise,DILL DINKERS LLC,No,"4942 BOILING BROOK PARKWAY
NORTH BETHESDA, MD 20852
(39.04673, -77.0981)"
FEASTY CRAB SEAFOOD RESTAURANT,16811 CRABBS BRANCH WAY,DERWOOD,MD,20855,BBWLHR864396,On Premise,FEASTY CRAB LLC,No,"16811 CRABBS BRANCH WAY
DERWOOD, MD 20855
(39.13156, -77.167)"
PIZZA STOP,2231 BEL PRE ROAD,SILVER SPRING,MD,20906,BBWHR1493544,On/Off-Premise,RAMA FOOD LLC,No,"2231 BEL PRE ROAD
SILVER SPRING, MD 20906
(39.09183, -77.04764)"
PINES OF ROME,4918 CORDELL AVENUE,BETHESDA,MD,20814,BBWHR045,On/Off-Premise,"LA TAVERNA, INC.",No,"4918 CORDELL AVENUE
BETHESDA, MD 20814
(38.98886, -77.0986)"
WOODMONT DELI,8225 WOODMONT AVE,BETHESDA,MD,20814,DBW051,On/Off-Premise,WOODMONT DELI CORPORATION,No,"8225 WOODMONT AVE
BETHESDA, MD 20814
(38.99225, -77.09697)"
THE CHEESECAKE FACTORY,7101 DEMOCRACY BOULEVARD,BETHESDA,MD,20817,BBWLHR816,On Premise,"THE CHEESECAKE FACT. REST.,INC",No,"7101 DEMOCRACY BOULEVARD
BETHESDA, MD 20817
(39.0242, -77.1459)"
TRUE FOOD KITCHEN - GAITHERSBURG,221 RIO BLVD.,GAITHERSBURG,MD,20878,BBWLHR696358,On Premise,"FRC BALANCE, LLC",No,"221 RIO BLVD.
GAITHERSBURG, MD 20878
(39.11762, -77.20008)"
PICCOLI PIATTI,10257 OLD GEORGETOWN RD.,BETHESDA,MD,20814,HBWHR393274,On Premise,"PICCOLI PIATTI, INC.",No,"10257 OLD GEORGETOWN RD.
BETHESDA, MD 20814
(39.02439, -77.12417)"
CAFE ROMA,12166 DARNESTOWN ROAD,GAITHERSBURG,MD,20878,BBWLHR30393,On Premise,"MILA, INC.",No,"12166 DARNESTOWN ROAD
GAITHERSBURG, MD 20878
(39.11696, -77.25245)"
COMMONWEALTH INDIAN,11610 OLD GEORGETOWN ROAD,NORTH BETHESDA,MD,20852,BBWLHR36044,On Premise,"COMMONWEALTH INDIAN, INC",No,"11610 OLD GEORGETOWN ROAD
NORTH BETHESDA, MD 20852
(39.04912, -77.11642)"
ZINNIA,9201 COLESVILLE RD.,SILVER SPRING,MD,20910,BBWLHR533348,On Premise,"MILLS  GROUP, LLC",No,"9201 COLESVILLE RD.
SILVER SPRING, MD 20910
(39.00573, -77.02244)"
BRIGHTON BEER & WINE,225 MUDDY BRANCH ROAD,GAITHERSBURG,MD,20878,ABW23906,Off Premise,"NDA GROUP, INC",Yes,"225 MUDDY BRANCH ROAD
GAITHERSBURG, MD 20878
(39.12891, -77.20806)"
KENTLANDS GOURMET,414 MAIN ST,GAITHERSBURG,MD,20878,ABW201,Off Premise,"HUR & SONS ENTERPRISE, INC.",No,"414 MAIN ST
GAITHERSBURG, MD 20878
(39.12097, -77.2365)"
QUINCY'S POTOMAC BAR & GRILLE,1093 SEVEN LOCKS RD.,ROCKVILLE,MD,20854,BBWLHR292259,On Premise,"RAT PACK OF MD II, LLC",No,"1093 SEVEN LOCKS RD.
ROCKVILLE, MD 20854
(39.06234, -77.16077)"
3 STAR BEER & WINE,18524 WOODFIELD ROAD,GAITHERSBURG,MD,20879,ABW194,Off Premise,"CPSS, INC.",Yes,"18524 WOODFIELD ROAD
GAITHERSBURG, MD 20879
(39.16082, -77.15961)"
COLUMBIA COUNTRY CLUB,7900 CONNECTICUT AVE,CHEVY CHASE,MD,20815,CBWLCC009,On Premise,COLUMBIA COUNTRY CLUB INC.,No,"7900 CONNECTICUT AVE
CHEVY CHASE, MD 20815
(38.98913, -77.07852)"
WHEATON WINE & CRAFT BEER,12039 GEORGIA AVE,WHEATON,MD,20902,DBW892414,On/Off-Premise,CHEERS MATE LLC,Yes,"12039 GEORGIA AVE
WHEATON, MD 20902
(39.05283, -77.05)"
LEBANESE TAVERNA CAFE - TOWN CENTER,"115 GIBBS STREET, UNIT A",ROCKVILLE,MD,20850,HBWHR434,On Premise,"LEBANESE TAVERNA ROCKVILLE, IN",No,"115 GIBBS STREET, UNIT A
ROCKVILLE, MD 20850
(39.08587, -77.15196)"
LA FERME,7101 BROOKVILLE ROAD,CHEVY CHASE,MD,20815,BBWLHR228,On Premise,LA FERME INCORPORATED,No,"7101 BROOKVILLE ROAD
CHEVY CHASE, MD 20815
(38.98138, -77.07099)"
UMI SUSHI & SEAFOOD BUFFET,1471 ROCKVILLE PIKE,ROCKVILLE,MD,20852,BBWLHR1181494,On Premise,UMI BUFFET ROCKVILLE LLC,No,"1471 ROCKVILLE PIKE
ROCKVILLE, MD 20852
(39.06551, -77.1277)"
ALL SET,8630 FENTON STREET,SILVER SPRING,MD,20910,BBWLHR18690,On Premise,"ALL SET HOSPITALITY, LLC",No,"8630 FENTON STREET
SILVER SPRING, MD 20910
(38.99816, -77.02832)"
BABYCAT BREWERY,10241 KENSINGTON PKWY.,KENSINGTON,MD,20895,BDBWL782364,On/Off-Premise,"BABYCAT BREWERY, LLC",No,"10241 KENSINGTON PKWY.
KENSINGTON, MD 20895
(39.02572, -77.07079)"
J.HOLLINGERS,8606 COLESVILLE RD.,SILVER SPRING,MD,20910,BDBWL493303,On Premise,"J.HOLLINGER'S-SS, LLC",No,"8606 COLESVILLE RD.
SILVER SPRING, MD 20910
(38.99663, -77.02771)"
YU ZHOU CAFE,576 N FREDERICK AVE,GAITHERSBURG,MD,20877,HBWHR1697544,On Premise,BOLLMANDI LLC,No,"576 N FREDERICK AVE
GAITHERSBURG, MD 20877
(39.14821, -77.2107)"
MANOR COUNTRY CLUB,14901 CARROLTON ROAD,ROCKVILLE,MD,20853,CBWLCC017,On Premise,"MANOR COUNTRY CLUB, INC.",No,"14901 CARROLTON ROAD
ROCKVILLE, MD 20853
(39.10116, -77.08546)"
THE FILLMORE SILVER SPRING,8656 COLESVILLE RD,SILVER SPRING,MD,20910,BBWLPA28293,,FILLMORE SILVER SPRING CONCERT VENUE,No,"8656 COLESVILLE RD
SILVER SPRING, MD 20910
(38.9973, -77.02727)"
MATCHBOX-ROCKVILLE,1699 ROCKVILLE PIKE,ROCKVILLE,MD,20852,BBWLHR483304,On Premise,"MATCHBOX CONGRESSIONAL PLZ, LLC",No,"1699 ROCKVILLE PIKE
ROCKVILLE, MD 20852
(39.06226, -77.12521)"
LOVE SUSHI,9031 GAITHER ROAD,GAITHERSBURG,MD,20877,HBW299,On Premise,"KAWA ENTERPRISE, INC",No,"9031 GAITHER ROAD
GAITHERSBURG, MD 20877
(39.11768, -77.1852)"
THE VILLAGE AT ROCKVILLE,9701 VEIRS DR,ROCKVILLE,MD,20850,CBWLRC26512,On Premise,"THE VILLAGE AT ROCKVILLE, INC",No,"9701 VEIRS DR
ROCKVILLE, MD 20850
(39.0784, -77.19573)"
QUICK STOP BEER & WINE,"21101 FREDERICK ROAD, UNIT A",GERMANTOWN,MD,20876,ABWS267,Off Premise,"LEW LIQUORS, LLC.",Yes,"21101 FREDERICK ROAD, UNIT A
GERMANTOWN, MD 20876
(39.20309, -77.2453)"
CARRABBAS ITALIAN GRILL,19935 CENTURY BLVD,GERMANTOWN,MD,20874,BBWLHR099,On Premise,"CARRABBAS OF GERMANTOWN, INC.",No,"19935 CENTURY BLVD
GERMANTOWN, MD 20874
(39.18201, -77.26182)"
N-METRO PARK COFFEE & CONVENIENCE,202 PARK ROAD,ROCKVILLE,MD,20850,ABW32384,,N-METRO PARK COFFEE & CONVENIENCE,No,"202 PARK ROAD
ROCKVILLE, MD 20850
(39.08613, -77.14636)"
EURO MARKET,13077 WISTERIA DR,GERMANTOWN,MD,20874,ABWS28312,Off Premise,"ANDIRA, LLC",No,"13077 WISTERIA DR
GERMANTOWN, MD 20874
(39.17818, -77.27161)"
CONVENIENT BEER AND WINE,8441 SNOUFFER SCHOOL ROAD,GAITHERSBURG,MD,20879,ABW27890,Off Premise,"CONVENIENT BEER AND WINE, INC",Yes,"8441 SNOUFFER SCHOOL ROAD
GAITHERSBURG, MD 20879
(39.16803, -77.17412)"
FONTINA GRILLE,801 PLEASANT DRIVE,ROCKVILLE,MD,20850,BBWLHR520,On Premise,"HIBA, LLC",No,"801 PLEASANT DRIVE
ROCKVILLE, MD 20850
(39.11375, -77.17121)"
RAINBOW SUSHI,18076 MATENY ROAD,GERMANTOWN,MD,20874,HBWHR34235,On Premise,"RAINBOW SUSHI ZYW, LLC",No,"18076 MATENY ROAD
GERMANTOWN, MD 20874
(39.14736, -77.27292)"
N-Our Family Restaurant,201 EDISON PARK DR,GAITHERSBURG,MD,00000,BBWLHR756356,On Premise,"Our Family Restaurant, LLC",No,"201 EDISON PARK DR
GAITHERSBURG, MD 00000
(39.1133, -77.23257)"
PINSTRIPES,11920 GRAND PARK AVE,NORTH BETHESDA,MD,20852,BBWLHR29538,On Premise,"PINSTRIPES, INC.",No,"11920 GRAND PARK AVE
NORTH BETHESDA, MD 20852
(39.05124, -77.11759)"
STELLA POINT GRILLE,3739 UNIVERSITY BLVD,KENSINGTON,MD,20895,BBWLHR1424544,On Premise,KENSINGTON CATHAY LLC,No,"3739 UNIVERSITY BLVD
KENSINGTON, MD 20895
(39.03289, -77.07408)"
MONTEREY MART & CAFE,5901 MONTROSE ROAD,ROCKVILLE,MD,20852,DBW34934,On/Off-Premise,"UK STORES, LLC",Yes,"5901 MONTROSE ROAD
ROCKVILLE, MD 20852
(39.05298, -77.11907)"
LEDO PIZZA - ROCKVILLE,10058 DARNESTOWN ROAD,ROCKVILLE,MD,20850,HBW133,On Premise,"DARNESTOWN ROAD PIZZA, INC.",No,"10058 DARNESTOWN ROAD
ROCKVILLE, MD 20850
(39.09591, -77.20732)"
N-WAREHOUSE - PRE ORDER PURCHASE,202 EDISON PARK DR,GAITHERSBURG,MD,20878,34232,On Premise,WAREHOUSE - PRE ORDER PURCHASE,No,"202 EDISON PARK DR
GAITHERSBURG, MD 20878
(39.11161, -77.23531)"
ROCK CREEK TAVERN,5500 OLNEY LAYTONSVILLE ROAD,OLNEY,MD,20832,BDBWL1680544,On/Off-Premise,"ARK19 LIMITED, INC",No,"5500 OLNEY LAYTONSVILLE ROAD
OLNEY, MD 20832
(39.18294, -77.11005)"
BESTWAY MARYLAND SUPERMARKET,8540 PINEY BRANCH ROAD,SILVER SPRING,MD,20901,ABWS082,Off Premise,GREEN CASTLE INTERNATIONAL INC,Yes,"8540 PINEY BRANCH ROAD
SILVER SPRING, MD 20901
(38.99882, -77.00228)"
TASTEFUL TABLE CATERING AT MILTON RIDGE,26130 FREDERICK ROAD,CLARKSBURG,MD,20871,DBWL1506544,On Premise,"TASTEFUL TABLE CATERING, LLC",No,"26130 FREDERICK ROAD
CLARKSBURG, MD 20871
(39.28551, -77.31438)"
KINGS CRAFT BEER & WINE DELI,"402 KING FARM BLVD., STE.100",ROCKVILLE,MD,20850,DBW43143,On/Off-Premise,"DNB, INC.",Yes,"402 KING FARM BLVD., STE.100
ROCKVILLE, MD 20850
(39.11381, -77.17248)"
BURGERFI,11881 GRAND PARK AVENUE,NORTH BETHESDA,MD,20852,HBWHR39250,On Premise,"BUFIPIRO, LLC",No,"11881 GRAND PARK AVENUE
NORTH BETHESDA, MD 20852
(39.05068, -77.11745)"
BEST WESTERN MOTEL,1251 WEST MONTGOMERY AVE,ROCKVILLE,MD,20850,BBWLHM010,On Premise,ROCKVILLE MOTEL ASSOCIATES LLC,No,"1251 WEST MONTGOMERY AVE
ROCKVILLE, MD 20850
(39.08911, -77.17663)"
TERRAPIN BICYCLES,4933 AUBURN AVE.,BETHESDA,MD,20814,DBW768355,On/Off-Premise,"TERRAPIN BICYCLES, LLC",No,"4933 AUBURN AVE.
BETHESDA, MD 20814
(38.98932, -77.10052)"
SOZACH CONVENIENCE INC,202 PARK ROAD,ROCKVILLE,MD,20850,DBW1270558,On/Off-Premise,SOZACH CONVENIENCE INC,No,"202 PARK ROAD
ROCKVILLE, MD 20850
(39.08613, -77.14636)"
FARMSOOK HAPPINESS THAI KITCHEN,"800 KING FARM BLVD., #125",ROCKVILLE,MD,20850,BBWLHR100259,On Premise,"FARMSOOK, LLC",No,"800 KING FARM BLVD., #125
ROCKVILLE, MD 20850
(39.11053, -77.18197)"
SOL AZTECA RESTAURANT,18129 TOWN CENTER DRIVE,OLNEY,MD,20832,BBWLHR179,On Premise,"SOL AZTECA, INC.",No,"18129 TOWN CENTER DRIVE
OLNEY, MD 20832
(39.15274, -77.06154)"
SAL'S KITCHEN,"7945 MACARTHUR BOULEVARD, #107",CABIN JOHN,MD,20818,BBWLHR867,On Premise,"CJ2, INC",No,"7945 MACARTHUR BOULEVARD, #107
CABIN JOHN, MD 20818
(38.97497, -77.16256)"
FRANKLY...PIZZA!,10417 ARMORY AVENUE,KENSINGTON,MD,20895,BKBWHR005,On Premise,"FRANKLY...FOOD, LLC",No,"10417 ARMORY AVENUE
KENSINGTON, MD 20895
(39.02722, -77.07437)"
HELLO VIETNAM! RESTAURANT,2200 VEIRS MILL RD,ROCKVILLE,MD,20851,BBWHR1024434,On/Off-Premise,VIETFOOD LLC,No,"2200 VEIRS MILL RD
ROCKVILLE, MD 20851
(39.07526, -77.11483)"
MAMMA LENA,13507 CLOPPER ROAD,GERMANTOWN,MD,20874,BBWHR24735,On/Off-Premise,"MAMMA LENA, LLC",No,"13507 CLOPPER ROAD
GERMANTOWN, MD 20874
(39.16199, -77.28011)"
STRATHMORE MUSIC CENTER & MANSION,5301 TUCKERMAN LANE,ROCKVILLE,MD,20852,SBWLCPA1069795,On Premise,"STRATHMORE HALL FOUNDATION, IN",No,"5301 TUCKERMAN LANE
ROCKVILLE, MD 20852
(39.03169, -77.10253)"
EUROPEAN DELIGHT,"1488 ROCKVILLE PIKE, UNIT I",ROCKVILLE,MD,20852,DBW201,Off Premise,"ILHOM, INC.",No,"1488 ROCKVILLE PIKE, UNIT I
ROCKVILLE, MD 20852
(39.06588, -77.12632)"
BEERS AND CHEERS,19827 CENTURY BLVD,GERMANTOWN,MD,20874,DBW061,On/Off-Premise,GRAND CREW ENTERPRISES INC,Yes,"19827 CENTURY BLVD
GERMANTOWN, MD 20874
(39.18119, -77.26679)"
LOCALS FARM MARKET,19929 FISHER AVENUE,POOLESVILLE,MD,20837,BDBWL918418,On/Off-Premise,DAVID THERRIAULT LLC,No,"19929 FISHER AVENUE
POOLESVILLE, MD 20837
(39.1463, -77.41535)"
BAMBOO CAFE,4222 D HOWARD AVE.,KENSINGTON,MD,20895,ABW275259,Off Premise,"BAMBOO CAFE, LLC",No,"4222 D HOWARD AVE.
KENSINGTON, MD 20895
(39.03105, -77.08328)"
HOT POT CITY,199 EAST MONTGOMERY AVE.,ROCKVILLE,MD,20850,HBWHR41405,On Premise,"BT TRADING, LLC",No,"199 EAST MONTGOMERY AVE.
ROCKVILLE, MD 20850
(39.08409, -77.14997)"
COLONY GRILL,11325 SEVEN LOCKS ROAD #50,POTOMAC,MD,20854,BBWLHR1037433,On Premise,CABIN JOHN LLC,No,"11325 SEVEN LOCKS ROAD #50
POTOMAC, MD 20854
(39.04196, -77.15831)"
SKKY MARKET,108 OLDE TOWNE AVE,GAITHERSBURG,MD,20877,ABWS125,Off Premise,"AYALA ANDRADE, INC.",Yes,"108 OLDE TOWNE AVE
GAITHERSBURG, MD 20877
(39.14068, -77.19449)"
CORNER MARKET BEER AND WINE,8309 GRUBB RD,SILVER SPRING,MD,20910,ABWS1352544,Off Premise,ROCK CREEK MARKET OF MD LLC,Yes,"8309 GRUBB RD
SILVER SPRING, MD 20910
(38.99232, -77.04905)"
BARRA BRAVA CEVICHERIA PERUANA,15420 OLD COLUMBIA PIKE UNIT B,BURTONSVILLE,MD,20866,BBWLHR1011419,On Premise,BARRA BRAVA GROUP LLC,No,"15420 OLD COLUMBIA PIKE UNIT B
BURTONSVILLE, MD 20866
(39.10897, -76.93615)"
THE URBAN WINERY,2315 STEWART AVE.,SILVER SPRING,MD,20910,DBWL21272,On Premise,"URBAN WINERY, LLC",No,"2315 STEWART AVE.
SILVER SPRING, MD 20910
(39.00319, -77.04947)"
ELENA JAMES,8551CONNECTICUT AVENUE,CHEVY CHASE,MD,20815,BDBWL1264556,On/Off-Premise,"HOSPITALITY GURU CCL, LLC",No,"8551CONNECTICUT AVENUE
CHEVY CHASE, MD 20815
(38.99559, -77.07651)"
CLYDE'S TOWER OAKS LODGE,2 PRESERVE PARKWAY,ROCKVILLE,MD,20852,BBWLHR339,On Premise,CLYDE'S TOWER OAKS LODGE LLC,No,"2 PRESERVE PARKWAY
ROCKVILLE, MD 20852
(39.06553, -77.15031)"
SALA THAI BETHESDA,4828 CORDELL AVE,BETHESDA,MD,20814,BBWLHR178,On Premise,"JA-ROEN-D, INC.",No,"4828 CORDELL AVE
BETHESDA, MD 20814
(38.99059, -77.09689)"
JULLIANO'S ITALIAN CAFE,6840 OLNEY LAYTONSVILLE ROAD,LAYTONSVILLE,MD,20882,HBW281,On Premise,"FUENTES RESTAURANT, INC.",No,"6840 OLNEY LAYTONSVILLE ROAD
LAYTONSVILLE, MD 20882
(39.20384, -77.13984)"
CINCO DE MAYO,640 CENTER POINT WAY,GAITHERSBURG,MD,20878,BBWLHR188259,On Premise,"CINCO DE MAYO KENTLANDS, INC.",No,"640 CENTER POINT WAY
GAITHERSBURG, MD 20878
(39.12189, -77.23428)"
PARKWAY DELICATESSEN,8317 GRUBB ROAD,SILVER SPRING,MD,20910,BBWHR031,On/Off-Premise,G.G.S. INCORPORATED,Yes,"8317 GRUBB ROAD
SILVER SPRING, MD 20910
(38.99245, -77.04931)"
BLACK ROCK CENTER FOR THE ARTS,12901 TOWN COMMONS DRIVE,GERMANTOWN,MD,20874,SBWLCPA21286,On Premise,"GERMANTOWN CULT. ARTS CTR, INC.",No,"12901 TOWN COMMONS DRIVE
GERMANTOWN, MD 20874
(39.18185, -77.26738)"
PUENTE DE ORO RESTAURANT,11123 VEIRS MILL ROAD,SILVER SPRING,MD,20902,BBWLHR24387,On Premise,"CASTRO & CEDILLOS, INC",No,"11123 VEIRS MILL ROAD
SILVER SPRING, MD 20902
(39.03804, -77.05229)"
MOJITOS BAR AND GRILL,8035 SNOUFFER SCHOOL ROAD,GAITHERSBURG,MD,20879,BDBWL1170499,On/Off-Premise,MOJITOS BAR AND GRILL INC.,No,"8035 SNOUFFER SCHOOL ROAD
GAITHERSBURG, MD 20879
(39.161, -77.16293)"
TIGER BEER WINE & DELI,303 NORTH WASHINGTON STREET,ROCKVILLE,MD,20850,DBW1256531,On/Off-Premise,"SHRI HARI, INC.",Yes,"303 NORTH WASHINGTON STREET
ROCKVILLE, MD 20850
(39.08875, -77.15269)"
KAPOW BUDDY,7101 DEMOCRACY BLVD STORE 1158,BETHESDA,MD,20817,BBWLHR1263536,On Premise,KAPOW BUDDY GROUP LLC,No,"7101 DEMOCRACY BLVD STORE 1158
BETHESDA, MD 20817
(39.0242, -77.1459)"
HOMEWOOD SUITES BY HILTON,805 RUSSELL AVENUE,GAITHERSBURG,MD,20879,BBWLHM220,On Premise,"ROCKVILLE LEGACY SERVICES, LLC",No,"805 RUSSELL AVENUE
GAITHERSBURG, MD 20879
(39.15636, -77.21034)"
THAI TANIUM,657 CENTER POINT WAY,GAITHERSBURG,MD,20878,BBWLHR492,On Premise,"SUNNY & P.S, INC.",No,"657 CENTER POINT WAY
GAITHERSBURG, MD 20878
(39.12193, -77.2349)"
TANDOORI NIGHTS,106 MARKET STREET,GAITHERSBURG,MD,20878,BBWLHR696,On Premise,"DLV, LLC.",No,"106 MARKET STREET
GAITHERSBURG, MD 20878
(39.12271, -77.23493)"
FAMILY MARKET BEER & WINE,15432 NEW HAMPSHIRE AVENUE,SILVER SPRING,MD,20905,ABW1354544,Off Premise,"HDS TREE, INC.",Yes,"15432 NEW HAMPSHIRE AVENUE
SILVER SPRING, MD 20905
(39.10981, -76.99683)"
POTOMAC OAK MART,12960 TRAVILAH RD.,POTOMAC,MD,20854,ABW485313,Off Premise,"VIDHRU, LLC",Yes,"12960 TRAVILAH RD.
POTOMAC, MD 20854
(39.06842, -77.26402)"
KOOK KAI'S THAI NOODLES,939 BONIFANT ST,SILVER SPRING,MD,20910,BBWHR825372,On/Off-Premise,"PK FOOD SERVICE, LLC",No,"939 BONIFANT ST
SILVER SPRING, MD 20910
(38.99391, -77.02522)"
TACO BAMBA - GAITHERSBURG,670 QUINCE ORCHARD ROAD,GAITHERSBURG,MD,20878,BBWLHR831388,On Premise,"PYM HOLDINGS, LLC",No,"670 QUINCE ORCHARD ROAD
GAITHERSBURG, MD 20878
(39.14098, -77.22279)"
BURGERFI-GAITHERSBURG,5 GRAND CORNER AVE.,GAITHERSBURG,MD,20878,BBWHR733356,On/Off-Premise,"BUFIRIO, LLC",No,"5 GRAND CORNER AVE.
GAITHERSBURG, MD 20878
(39.11823, -77.20092)"
ROOTED3,4916 CORDELL AVENUE,BETHESDA,MD,20814,DBWL1219500,On Premise,ROOT STRENGTH LLC DBA ROOTED3,No,"4916 CORDELL AVENUE
BETHESDA, MD 20814
(38.98895, -77.09851)"
MANOLI CANOLI,8540 CONNECTICUT AVE,CHEVY CHASE,MD,20815,BBWLHR376,On Premise,"MANOLI CANOLI, LLC",No,"8540 CONNECTICUT AVE
CHEVY CHASE, MD 20815
(38.99539, -77.0773)"
GOURMET ASIAN BISTRO,7224 MUNCASTER MILL ROAD,DERWOOD,MD,20855,HBW348,On Premise,"R AND S GROUP, LLC",No,"7224 MUNCASTER MILL ROAD
DERWOOD, MD 20855
(39.14582, -77.14531)"
GRAPE & GRAIN,19233 WATKINS MILL RD,MONTGOMERY VILLAGE,MD,20886,DBW40359,On/Off-Premise,"AABHA, LLC",Yes,"19233 WATKINS MILL RD
MONTGOMERY VILLAGE, MD 20886
(39.17201, -77.20595)"
KENAKI SUSHI COUNTER,706 CENTER POINT WAY,GAITHERSBURG,MD,20878,BBWLHR36295,On Premise,"KENAKI, LLC",No,"706 CENTER POINT WAY
GAITHERSBURG, MD 20878
(39.12196, -77.23528)"
LA PLAYITA,8638 FLOWER AVENUE,TAKOMA PARK,MD,20912,BBWLHR287259,On Premise,"LA PLAYITA REST., INC.",No,"8638 FLOWER AVENUE
TAKOMA PARK, MD 20912
(38.99761, -77.00359)"
BRADLEY FOOD & BEVERAGE,6904 ARLINGTON ROAD,BETHESDA,MD,20814,DBW130,On/Off-Premise,"BRADLEY FOOD & BEVERAGE, INC.",Yes,"6904 ARLINGTON ROAD
BETHESDA, MD 20814
(38.9786, -77.09894)"
EGGSPECTATION,15763 OLD COLUMBIA PIKE,BURTONSVILLE,MD,20866,BBWLHR1727544,On Premise,BURTONSVILLE EATERY LLC,No,"15763 OLD COLUMBIA PIKE
BURTONSVILLE, MD 20866
(39.11447, -76.93297)"
CARIBBEAN FLAVOR,11524 MIDDLEBROOK RD.,GERMANTOWN,MD,20876,DBW42301,On/Off-Premise,"CARIBBEAN FLAVOR, LLC",No,"11524 MIDDLEBROOK RD.
GERMANTOWN, MD 20876
(39.17953, -77.24012)"
TIKKA MASALA INDIAN CUISINE,4929 ELM STREET,BETHESDA,MD,20814,BBWLHR42459,On Premise,"LOTUS MODERN INDIAN CUISINE, LLC",No,"4929 ELM STREET
BETHESDA, MD 20814
(38.98209, -77.09738)"
LAYTONSVILLE GOLF COURSE,7130 DORSEY RD,LAYTONSVILLE,MD,20882,BBWLCL018,On Premise,MONTGOMERY CO.REV. AUTHORITY,No,"7130 DORSEY RD
LAYTONSVILLE, MD 20882
(39.19752, -77.14335)"
COURTYARD BY MARRIOTT-CHEVY CHASE,5520 WISCONSIN AVE.,CHEVY CHASE,MD,20815,BBWLHM475300,On Premise,"5520 WISCONSIN HOTEL PROP, LP",No,"5520 WISCONSIN AVE.
CHEVY CHASE, MD 20815
(38.96392, -77.08791)"
LA ANTIGUA RESTAURANT,11260 GEORGIA AVE,SILVER SPRING,MD,20902,BBWLHR403,On Premise,"LA ANTIGUA RESTAURANT, INC.",No,"11260 GEORGIA AVE
SILVER SPRING, MD 20902
(39.0402, -77.05144)"
VINE ALLEY,114 MARKET ST.,GAITHERSBURG,MD,20878,BDBWL489303,On/Off-Premise,"KENTLANDS WINE GROUP, INC.",No,"114 MARKET ST.
GAITHERSBURG, MD 20878
(39.1225, -77.23495)"
LA GULA MEXICANA,21030 FREDERICK RD.,GERMANTOWN,MD,20876,BBWLHR451300,On Premise,"LA GULA, LLC",No,"21030 FREDERICK RD.
GERMANTOWN, MD 20876
(39.20117, -77.24689)"
AMERICAN LEGION POST #86,2013 VEIRS MILL ROAD,ROCKVILLE,MD,20851,CBWLFV016,On Premise,"HENDERSON-SMITH-EDMONDS#86, INC",No,"2013 VEIRS MILL ROAD
ROCKVILLE, MD 20851
(39.07444, -77.11619)"
BETHESDA N. MARRIOTT HOTEL/CONF CTR,5701 MARINELLI ROAD,ROCKVILLE,MD,20852,BBWLHC001,On Premise,"MARRIOTT HOTEL SERVICES, LLC",No,"5701 MARINELLI ROAD
ROCKVILLE, MD 20852
(39.04707, -77.11523)"
CHOICE MARKET,18700 WALKERS CHOICE ROAD,MONTGOMERY VILLAGE,MD,20886,ABW24171,Off Premise,"E AND F, INC",No,"18700 WALKERS CHOICE ROAD
MONTGOMERY VILLAGE, MD 20886
(39.16316, -77.205)"
LA LIMENA GRILL,1093 ROCKVILLE PIKE,ROCKVILLE,MD,20852,BBWLHR26364,On Premise,"DUIVI, INC",No,"1093 ROCKVILLE PIKE
ROCKVILLE, MD 20852
(39.07096, -77.13273)"
GEMELLI'S ITALIAN MARKET,12169 DARNESTOWN ROAD,GAITHERSBURG,MD,20878,DBW151,On/Off-Premise,"M AND M CALCAGNO, LLC",No,"12169 DARNESTOWN ROAD
GAITHERSBURG, MD 20878
(39.11762, -77.25015)"
ZN-BOMBAY INDIAN RESTAURANT,,,,,HBW28025,,,No,
GOOD HARVEST,5700-A FISHER LANE,ROCKVILLE,MD,20852,HBWHR393275,On/Off-Premise,"HS HARVEST, INC.",No,"5700-A FISHER LANE
ROCKVILLE, MD 20852
(39.06277, -77.11694)"
MASA HIBACHI STEAKHOUSE & SUSHI,"921 ELLSWORTH DRIVE, UNIT J",SILVER SPRING,MD,20910,BBWLHR705,On Premise,JE DING COROPORATION,No,"921 ELLSWORTH DRIVE, UNIT J
SILVER SPRING, MD 20910
(38.99644, -77.02677)"
NANDO'S PERI PERI - SILVER SPRING,924 ELLSWORTH DRIVE,SILVER SPRING,MD,20910,BBWLHR606,On Premise,"NANDO'S OF SILVER SPRING, LLC",No,"924 ELLSWORTH DRIVE
SILVER SPRING, MD 20910
(38.99586, -77.02651)"
SPORTS & SOCIAL BETHESDA,11800 GRAND PARK AVE.,NORTH BETHESDA,MD,20852,BDBWL498327,On/Off-Premise,"S&S BETHESDA, LLC",No,"11800 GRAND PARK AVE.
NORTH BETHESDA, MD 20852
(39.04928, -77.11706)"
UNPLUGGED SPORT BAR & RESTAURANT,11305-C GEORGIA AVE,WHEATON,MD,20902,BBWLHR23147,On Premise,"UNPLUGGED SPORT BAR & REST., INC",No,"11305-C GEORGIA AVE
WHEATON, MD 20902
(39.04049, -77.05136)"
CEDAR GROVE STORE,23412 RIDGE ROAD,GERMANTOWN,MD,20876,DBW61603,On/Off-Premise,CHEAM CORPORATION,Yes,"23412 RIDGE ROAD
GERMANTOWN, MD 20876
(39.24177, -77.23497)"
LA POSADA RESTAURANT,8545 PINEY BRANCH ROAD,SILVER SPRING,MD,20901,BBWLHR621,On Premise,"RHH ENTERPRISES, INC.",No,"8545 PINEY BRANCH ROAD
SILVER SPRING, MD 20901
(38.99786, -77.00127)"
KUSSHI,11826 TRADE STREET,NORTH BETHESDA,MD,20852,BBWLHR35806,On Premise,"TWMK,LLC",No,"11826 TRADE STREET
NORTH BETHESDA, MD 20852
(39.04998, -77.11616)"
MEZEHUB,11506-11508 SCHUYLKILL RD,ROCKVILLE,MD,20852,DBW416289,On/Off-Premise,"FILLY FOODS, LLC",No,"11506-11508 SCHUYLKILL RD
ROCKVILLE, MD 20852
(39.04559, -77.09751)"
THE KOSHER PASTRY OVEN,1372 LAMBERTON DRIVE,SILVER SPRING,MD,20902,HBW216,On Premise,"KOSHER PASTRY OVEN, LLC.",No,"1372 LAMBERTON DRIVE
SILVER SPRING, MD 20902
(39.04021, -77.03127)"
MUSSEL BAR & GRILLE,4903 CORDELL AVE,BETHESDA,MD,20814,BBWLHR1232495,On Premise,WLM LLC,No,"4903 CORDELL AVE
BETHESDA, MD 20814
(38.98929, -77.09835)"
LAMOON THAI,906 THAYER AVE.,SILVER SPRING,MD,20910,BBWHR610348,On Premise,"S&P 6868, LLC",No,"906 THAYER AVE.
SILVER SPRING, MD 20910
(38.99305, -77.02467)"
IL FORNO II/METRO DHABA,8941 N WESTLAND DRIVE,GAITHERSBURG,MD,20877,HBW069,On Premise,JAI & NAYAR LLC,No,"8941 N WESTLAND DRIVE
GAITHERSBURG, MD 20877
(39.12842, -77.18432)"
HOOK & REEL,9643 LOST KNIFE ROAD,GAITHERSBURG,MD,20877,BBWLHR42554,On Premise,"HOOK REEL GAITHERSBURG, LLC",No,"9643 LOST KNIFE ROAD
GAITHERSBURG, MD 20877
(39.15389, -77.19754)"
WASHINGTONIAN CENTER MARRIOTT,9751 WASHINGTONIAN BLVD,GAITHERSBURG,MD,20878,BBWLHM011,On Premise,"MARRIOTT HOTEL SERVICES, LLC",No,"9751 WASHINGTONIAN BLVD
GAITHERSBURG, MD 20878
(39.11539, -77.19524)"
LEBANESE TAVERNA CAFE - SS,8535 FENTON ST.,SILVER SPRING,MD,20910,HBWHR392,On Premise,LEBANESE TAVERNA CAFE CONGRESS,No,"8535 FENTON ST.
SILVER SPRING, MD 20910
(38.99714, -77.02601)"
N-KOI SUSHI RESTAURANT,203 BOARDWALK PLACE,GAITHERSBURG,MD,20878,BBWLHR,On Premise,KOI LLC,No,"203 BOARDWALK PLACE
GAITHERSBURG, MD 20878
(39.11677, -77.1983)"
WANG JJA JANG,1613 EAST GUDE DRIVE,ROCKVILLE,MD,20850,BBWLHR694,On Premise,"JYS ENTERPRISES, INC",No,"1613 EAST GUDE DRIVE
ROCKVILLE, MD 20850
(39.09359, -77.13236)"
SEASON'S 52,11414 ROCKVILLE PIKE,ROCKVILLE,MD,20852,BBWLHR638,On Premise,"GMR MONTGOMERY COUNTY, INC",No,"11414 ROCKVILLE PIKE
ROCKVILLE, MD 20852
(39.04303, -77.11104)"
COMMAS FOOD HALL,"8661 COLESVILLE ROAD, UNIT C101",SILVER SPRING,MD,20910,BDBWL1390544,On/Off-Premise,"ELLSWORTH PLACE FOOD HALL, LLC",No,"8661 COLESVILLE ROAD, UNIT C101
SILVER SPRING, MD 20910
(38.99678, -77.02689)"
CANCUN MEXICAN CUISINE,117 EAST DIAMOND AVE,GAITHERSBURG,MD,20877,BBWLHR249,On Premise,"CANCUN MEXICAN CUISINE, INC.",No,"117 EAST DIAMOND AVE
GAITHERSBURG, MD 20877
(39.14203, -77.19496)"
EMBASSY SUITES BETHESDA,6711 DEMOCRACY BLVD.,BETHESDA,MD,20817,BBWLHM782363,On Premise,"SAGE CLIENT 227, LLC",No,"6711 DEMOCRACY BLVD.
BETHESDA, MD 20817
(39.02228, -77.13878)"
COURTYARD BY MARRIOTT - PROSPERITY,12521 PROSPERITY DRIVE,SILVER SPRING,MD,20904,BBWLHM214,On Premise,COURTYARD II ASSOCIATES LIMITE,No,"12521 PROSPERITY DRIVE
SILVER SPRING, MD 20904
(39.0609, -76.9601)"
FLOWER CHILD-BETHESDA,"10205 OLD GEORGETOWN RD.,",BETHESDA,MD,20814,HBWHR37056,On Premise,"FC WILDWOOD, LLC",No,"10205 OLD GEORGETOWN RD.,
BETHESDA, MD 20814
(39.02347, -77.12307)"
EXTRA FANCY,5223 RIVER RD.,POTOMAC,MD,20816,CATBWL431274,On Premise,"RRG CATERING, LLC",No,"5223 RIVER RD.
POTOMAC, MD 20816
(38.9659, -77.10348)"
SICHUAN JIN RIVER,410 HUNGERFORD DRIVE,ROCKVILLE,MD,20850,HBWHR39699,On Premise,"GOOD FORTUNE ROCKVILLE, INC.",No,"410 HUNGERFORD DRIVE
ROCKVILLE, MD 20850
(39.08748, -77.15154)"
TEX'S PLACE,14630 SOUTHLAWN LANE,ROCKVILLE,MD,20850,BBWHR34384,On/Off-Premise,"DOAN, INC",No,"14630 SOUTHLAWN LANE
ROCKVILLE, MD 20850
(39.09556, -77.14101)"
WORLD MARKET - ROCKVILLE,"12266 ROCKVILLE PIKE, UNIT P",ROCKVILLE,MD,20852,ABWS220,Off Premise,"WORLD MARKET, LLC",Yes,"12266 ROCKVILLE PIKE, UNIT P
ROCKVILLE, MD 20852
(39.05729, -77.12168)"
KUNGFU KITCHEN,20-A MARYLAND AVENUE,ROCKVILLE,MD,20850,HBWHR1297554,On Premise,KUNGFU KITCHEN INC.,No,"20-A MARYLAND AVENUE
ROCKVILLE, MD 20850
(39.08681, -77.15108)"
BUFFALO WILD WINGS-GAITH,668 CLOPPER RD.,GAITHERSBURG,MD,20878,BBWLHR389274,On Premise,"BWW LEX PARK, LLC",No,"668 CLOPPER RD.
GAITHERSBURG, MD 20878
(39.14252, -77.22212)"
QUINCY'S UPTOWN,9813 MAIN STREET,DAMASCUS,MD,20872,BBWLHR40099,On Premise,"QUINCYGROUP, LLC",No,"9813 MAIN STREET
DAMASCUS, MD 20872
(39.28805, -77.20236)"
NO REGRETS PIZZA,5454 NICHOLSON LANE,BETHESDA,MD,20852,BBWLHR1142497,On Premise,NO REGRETS PIZZA COMPANY LLC,No,"5454 NICHOLSON LANE
BETHESDA, MD 20852
(39.04479, -77.10759)"
"THE ROCKVILLE PIKE CRAFT BEER, WINE & MORE",1800 ROCKVILLE PIKE,ROCKVILLE,MD,20852,DBW32114,On/Off-Premise,"RAM RAM, LLC",No,"1800 ROCKVILLE PIKE
ROCKVILLE, MD 20852
(39.05994, -77.12199)"
IL PORTO,245 MUDDY BRANCH ROAD,GAITHERSBURG,MD,20878,BBWLHR235,On Premise,"JCD,INC.",No,"245 MUDDY BRANCH ROAD
GAITHERSBURG, MD 20878
(39.12875, -77.20821)"
CLARKSBURG BEER & WINE,23335 FREDERICK RD.,CLARKSBURG,MD,20871,ABWS468301,Off Premise,SHANKER LIMITED,Yes,"23335 FREDERICK RD.
CLARKSBURG, MD 20871
(39.23881, -77.27945)"
VILLAGE BEER & FINE WINE,5526 NORBECK ROAD,ROCKVILLE,MD,20853,DBW798367,On/Off-Premise,"ANT, LLC",Yes,"5526 NORBECK ROAD
ROCKVILLE, MD 20853
(39.09467, -77.11077)"
KENSINGTON BEER & WINE KABOB & PIZZA,"3701 UNIVERSITY BLVD., WEST",KENSINGTON,MD,20895,BBWHR003,On/Off-Premise,"HOMA, INC.",No,"3701 UNIVERSITY BLVD., WEST
KENSINGTON, MD 20895
(39.03355, -77.07333)"
HOUSE OF MILAE,4932 SAINT ELMO AVENUE,BETHESDA,MD,20814,BBWLHR326,On Premise,"LYON & MILAE, LLC",No,"4932 SAINT ELMO AVENUE
BETHESDA, MD 20814
(38.98798, -77.09822)"
EN BISTRO AND SUSHI,9945 FALLS ROAD,POTOMAC,MD,20854,BBWLHR820387,On Premise,"EN BISTRO POTOMAC, LLC",No,"9945 FALLS ROAD
POTOMAC, MD 20854
(39.01876, -77.20791)"
BEER & WINE INTERNATIONAL,"4011 NORBECK ROAD, UNIT B",ROCKVILLE,MD,20853,ABWS218,Off Premise,"AKSHAT, LLC",Yes,"4011 NORBECK ROAD, UNIT B
ROCKVILLE, MD 20853
(39.10993, -77.07759)"
THE CREEK LODGE BAR & GRILL,5566 NORBECK RD.,ROCKVILLE,MD,20853,BBWLHR767362,On Premise,"SKY HIGH HOSPITALITY, INC.",No,"5566 NORBECK RD.
ROCKVILLE, MD 20853
(39.09541, -77.11122)"
"HALPINE BEER, WINE & DELI",1701-B8 ROCKVILLE PIKE,ROCKVILLE,MD,20852,ABWS24778,Off Premise,JAI LAXMI MATA CORPORATION,Yes,"1701-B8 ROCKVILLE PIKE
ROCKVILLE, MD 20852
(39.06056, -77.12336)"
HILTON WASHINGTON DC/ROCKVILLE EMC,1750 ROCKVILLE PIKE,ROCKVILLE,MD,20852,BBWLHM23552,On Premise,"MARYLAND SPECIAL SERVICING, LLC",No,"1750 ROCKVILLE PIKE
ROCKVILLE, MD 20852
(39.06116, -77.12266)"
HOLLYWOOD BALLROOM DANCE CENTER,2126 INDUSTRIAL PARKWAY,SILVER SPRING,MD,20904,DBWL1059072,On Premise,"HOLLYWOOD BALLROOM CENTER, INC.",No,"2126 INDUSTRIAL PARKWAY
SILVER SPRING, MD 20904
(39.05555, -76.96841)"
CLARKSBURG TAVERN,23315 FREDERICK RD.,CLARKSBURG,MD,20871,BBWLHR641363,On Premise,"THE CLARKSBURG TAVEN, LLC",No,"23315 FREDERICK RD.
CLARKSBURG, MD 20871
(39.23877, -77.27891)"
JAVA NATION-ROCKVILLE,11120 ROCKVILLE PIKE,ROCKVILLE,MD,20852,BBWLHR43779,On Premise,"JAVA NATION, INC.",No,"11120 ROCKVILLE PIKE
ROCKVILLE, MD 20852
(39.03912, -77.10953)"
YETT GOL RESTAURANT,12337-C GEORGIA AVENUE,SILVER SPRING,MD,20906,BBWHR234,On/Off-Premise,EAST HILL CORPORATION,No,"12337-C GEORGIA AVENUE
SILVER SPRING, MD 20906
(39.05931, -77.04984)"
VILLAGE CENTER BEER WINE,9991 STEDWICK RD.,GAITHERSBURG,MD,20886,ABW441295,Off Premise,"RUPAL & PARI, INC.",Yes,"9991 STEDWICK RD.
GAITHERSBURG, MD 20886
(39.1708, -77.20674)"
SENOR TEQUILAS OF GERMANTOWN,20021 CENTURY BLVD.,GERMANTOWN,MD,20874,BBWLHR452300,On Premise,"RIVAS RESTAURANT VENTURES, LLC",No,"20021 CENTURY BLVD.
GERMANTOWN, MD 20874
(39.18364, -77.25941)"
CHADOL,1403 RESEARCH BLVD.,ROCKVILLE,MD,20850,BBWLHR655356,On Premise,"DAE SEUNG, INC.",No,"1403 RESEARCH BLVD.
ROCKVILLE, MD 20850
(39.09057, -77.17734)"
SASUNS,7217 MUNCASTER MILL RD,DERWOOD,MD,20855,BBWHR28724,On/Off-Premise,"SASUNS, LLC",No,"7217 MUNCASTER MILL RD
DERWOOD, MD 20855
(39.14633, -77.1448)"
LAKEWOOD COUNTRY CLUB,13901 GLEN MILL ROAD,ROCKVILLE,MD,20850,CBWLCC015,On Premise,LAKEWOOD COUNTRY CLUB INC,No,"13901 GLEN MILL ROAD
ROCKVILLE, MD 20850
(39.08267, -77.19442)"
WOODMONT COUNTRY CLUB,1201 ROCKVILLE PIKE,ROCKVILLE,MD,20852,CBWLCC002,On Premise,R.SHARLIN T.GORDON A.KASLOW,No,"1201 ROCKVILLE PIKE
ROCKVILLE, MD 20852
(39.0694, -77.13087)"
SABAI SABAI...SIMPLY THAI,19847 CENTURY BLVD,GERMANTOWN,MD,20874,BBWHR549,On/Off-Premise,"AGATE, INC",No,"19847 CENTURY BLVD
GERMANTOWN, MD 20874
(39.1814, -77.2657)"
EAST GRILL KARAOKE,12 N. WASHINGTON ST,ROCKVILLE,MD,20850,BBWLHR26237,On Premise,"EAST GRILL KARAOKE, LLC",No,"12 N. WASHINGTON ST
ROCKVILLE, MD 20850
(39.08438, -77.15316)"
CHAPEL BEER & WINE,19737 FREDERICK RD,GERMANTOWN,MD,20876,ABWS1066434,Off Premise,"CHAPEL BEER & WINE, LLC",Yes,"19737 FREDERICK RD
GERMANTOWN, MD 20876
(39.17952, -77.23837)"
FOUR STREAMS,19501 DARNESTOWN ROAD,BEALLSVILLE,MD,20839,CBWLCC023,On Premise,"FOUR STREAMS, LLC.",No,"19501 DARNESTOWN ROAD
BEALLSVILLE, MD 20839
(39.17498, -77.40457)"
CALIFORNIA PIZZA KITCHEN - BETHESDA,7101 DEMOCRACY BLVD,BETHESDA,MD,20817,BBWLHR676,On Premise,"CALIFORNIA PIZZA KITCHEN, INC.",No,"7101 DEMOCRACY BLVD
BETHESDA, MD 20817
(39.0242, -77.1459)"
MERENDERO,11220 GEORGIA AVE.,SILVER SPRING,MD,20902,DBWL650359,On Premise,"MERENDERO, LLC",No,"11220 GEORGIA AVE.
SILVER SPRING, MD 20902
(39.03917, -77.05125)"
BOWLERO GAITHERSBURG,1101 CLOPPER RD.,GAITHERSBURG,MD,20878,BBWLHR738356,On Premise,"BOWL AMERICA 1, LLC",No,"1101 CLOPPER RD.
GAITHERSBURG, MD 20878
(39.14726, -77.22934)"
MAMMA LUCIA - SHADY GROVE,14921 SHADY GROVE ROAD,ROCKVILLE,MD,20850,BBWLHR341,On Premise,"MAMMA LUCIA'S OF FALLSGROVE, I",No,"14921 SHADY GROVE ROAD
ROCKVILLE, MD 20850
(39.09704, -77.19343)"
NORBECK COUNTRY CLUB,17200 CASHELL ROAD,ROCKVILLE,MD,20853,CBWLCCO29874,On Premise,"NORBECK CC, LLC",No,"17200 CASHELL ROAD
ROCKVILLE, MD 20853
(39.137517, -77.094454)"
BURNING TREE CLUB,8600 BURDETTE ROAD,BETHESDA,MD,20817,CBWLCC007,On Premise,"BURNING TREE CLUB, INC.",No,"8600 BURDETTE ROAD
BETHESDA, MD 20817
(38.99589, -77.14872)"
ATTMAN'S DELICATESSEN,12505 PARK POTOMAC AVE.,POTOMAC,MD,20854,BBWHR403274,On/Off-Premise,"ATTMAN'S DELI. CABIN JOHN, LLC",No,"12505 PARK POTOMAC AVE.
POTOMAC, MD 20854
(39.06025, -77.15709)"
FLOWER HILL BEER & WINE,18253 FLOWER HILL WAY,GAITHERSBURG,MD,20879,ABW092,Off Premise,"HBJ, INC",Yes,"18253 FLOWER HILL WAY
GAITHERSBURG, MD 20879
(39.15736, -77.16181)"
SUSHIKO CHEVY CHASE,5455 WISCONSIN AVENUE,CHEVY CHASE,MD,20815,BBWLHR851,On Premise,"SUSHIKO CHEVY CHASE, LLC.",No,"5455 WISCONSIN AVENUE
CHEVY CHASE, MD 20815
(38.96262, -77.08526)"
VILLAGE WEST LIQUOR,19520 WATERS ROAD,GERMANTOWN,MD,20874,DBW29800,On/Off-Premise,"VILLAGE WEST LIQUOR, LLC",Yes,"19520 WATERS ROAD
GERMANTOWN, MD 20874
(39.17553, -77.27386)"
ADDIS BEER & WINE,730 SLIGO AVENUE,SILVER SPRING,MD,20910,ABW29872,Off Premise,"HOT, INC.",Yes,"730 SLIGO AVENUE
SILVER SPRING, MD 20910
(38.99009, -77.01933)"
STATE LINE MARKET,7817 EASTERN AVE,SILVER SPRING,MD,20910,ABW229,Off Premise,"BAMLAK, LLC",No,"7817 EASTERN AVE
SILVER SPRING, MD 20910
(38.98517, -77.02703)"
FOGO DE CHAO,11600 OLD GEORGETOWN ROAD,BETHESDA,MD,20852,BBWLHR41519,On Premise,"FOGO DE CHAO CHURRASCARIA, LLC",No,"11600 OLD GEORGETOWN ROAD
BETHESDA, MD 20852
(39.04909, -77.11662)"
BROOKVILLE EATERY,8921 BROOKVILLE ROAD,SILVER SPRING,MD,20910,ABW026,Off Premise,"BROOKVILLE EATERY ,INC.",No,"8921 BROOKVILLE ROAD
SILVER SPRING, MD 20910
(39.00286, -77.0527)"
CLEAR SKIES MEADERY,15201 DISPLAY COURT,ROCKVILLE,MD,20850,DBW986418,On/Off-Premise,R & H EIGNER,No,"15201 DISPLAY COURT
ROCKVILLE, MD 20850
(39.10449, -77.14703)"
DOVIS BEST RESTAURANT & BAR,13843 OUTLET DRIVE,SILVER SPRING,MD,20904,BBWLHR1251527,On Premise,"DOVIS BEST RESTAURANT & BAR, CYNDY'S SEAFOOD, LLC",No,"13843 OUTLET DRIVE
SILVER SPRING, MD 20904
(39.08265, -76.94512)"
KADHAI INDIAN CUISINE,7905 NORFOLK AVE,BETHESDA,MD,20814,BBWLHR766,On Premise,"KADHAI, INC",No,"7905 NORFOLK AVE
BETHESDA, MD 20814
(38.98907, -77.09751)"
ISAAC'S POULTRY MARKET,15785 OLD COLUMBIA PIKE,BURTONSVILLE,MD,20866,BDBWL1379544,On Premise,"IPM 002, LLC",No,"15785 OLD COLUMBIA PIKE
BURTONSVILLE, MD 20866
(39.11492, -76.93172)"
DUKES GROCERY,10128 RIVER ROAD,POTOMAC,MD,20854,BBWLHR1511545,On Premise,DUKES POTOMAC LLC,No,"10128 RIVER ROAD
POTOMAC, MD 20854
(39.01678, -77.2092)"
GRAND FUSION,350 FORTUNE TERRACE,ROCKVILLE,MD,20854,HBW025,On Premise,"KYS ENTERPRISES, INC.",No,"350 FORTUNE TERRACE
ROCKVILLE, MD 20854
(39.06186, -77.15852)"
KIN DA,6923 LAUREL AVENUE,TAKOMA PARK,MD,20912,HBW19789,On Premise,"PRASOBSUK, INC.",No,"6923 LAUREL AVENUE
TAKOMA PARK, MD 20912
(38.97437, -77.01241)"
SIRIWAN THAI RESTAURANT,736 CLOVERLY STREET,SILVER SPRING,MD,20905,HBW275,On Premise,"SIRIWAN THAI RESTAURANT, INC.",No,"736 CLOVERLY STREET
SILVER SPRING, MD 20905
(39.10943, -76.99544)"
SPRINGHILL SUITES GAITHERSBURG,9715 WASHINGTONIAN BLVD,GAITHERSBURG,MD,20878,BBWHR28291,On/Off-Premise,"SPRINGHILL SMC, LLC",No,"9715 WASHINGTONIAN BLVD
GAITHERSBURG, MD 20878
(39.11317, -77.19242)"
SUSHI OISHII,9706 TRAVILLE GATEWAY DR,ROCKVILLE,MD,20850,BBWLHR928424,On Premise,UNITED BUFFET & GRILL INC,No,"9706 TRAVILLE GATEWAY DR
ROCKVILLE, MD 20850
(39.09145, -77.20415)"
CHARLEY PRIME FOODS,"9811 WASHINGTONIAN BLVD, L9",GAITHERSBURG,MD,20878,BBWLHR848402,On Premise,9811 WASHINGTONIAN HOSPITALITY LLC,No,"9811 WASHINGTONIAN BLVD, L9
GAITHERSBURG, MD 20878
(39.11547, -77.19812)"
BISTRO PROVENCE,4933 FAIRMONT AVE,BETHESDA,MD,20814,BBWLHR584,On Premise,"BISTRO PROVENCE, LLC",No,"4933 FAIRMONT AVE
BETHESDA, MD 20814
(38.98786, -77.09757)"
HWA GAE JANG TUH,2104 VEIRS MILL RD,ROCKVILLE,MD,20851,BBWLHR37315,On Premise,"QGS, INC.",No,"2104 VEIRS MILL RD
ROCKVILLE, MD 20851
(39.07538, -77.11518)"
BEMNET SUPERMARKET & DELI,617 SLIGO AVENUE,SILVER SPRING,MD,20910,BDBWLHR18176,On/Off-Premise,"BEMNET SUPERMARKET & DELI, LLC",No,"617 SLIGO AVENUE
SILVER SPRING, MD 20910
(38.99117, -77.01406)"
BIRYANI JOINT INDIAN CUISINE,15504 OLD COLUMBIA PIKE,BURTONSVILLE,MD,20866,BBWHR885396,On/Off-Premise,HASHTAG FOOD AND BEVERAGE LLC,No,"15504 OLD COLUMBIA PIKE
BURTONSVILLE, MD 20866
(39.10982, -76.93497)"
VICINO RISTORANTE ITALIANO,959 SLIGO AVE,SILVER SPRING,MD,20910,HBW032,On Premise,"VICINO RISTORANTE ITALIANO, IN",No,"959 SLIGO AVE
SILVER SPRING, MD 20910
(38.99024, -77.02571)"
N-RETAIL TASTINGS - SALES REP PURCHASE,202 EDISON PARK DR,GAITHERSBURG,MD,20878,34230,On Premise,RETAIL TASTINGS - SALES REP PURCHASE,No,"202 EDISON PARK DR
GAITHERSBURG, MD 20878
(39.11161, -77.23531)"
ELA MESA TASTE OF GREECE,109 PARAMOUNT PARK DR.,GAITHERSBURG,MD,20879,BBWLHR257262,On Premise,"EPSILON GI, LLC",No,"109 PARAMOUNT PARK DR.
GAITHERSBURG, MD 20879
(39.15947, -77.22169)"
DOG HAUS BIERGARTEN-BETH.,7904 WOODMONT AVENUE,BETHESDA,MD,20814,BBWLHR29718,On Premise,"CASTLEROCK RESTAURANTS 1, LLC",No,"7904 WOODMONT AVENUE
BETHESDA, MD 20814
(38.98914, -77.09625)"
ANDY'S BEER AND WINE,15523 NEW HAMPSHIRE AVE,SILVER SPRING,MD,20905,ABW21694,Off Premise,"JS2Y, INC",Yes,"15523 NEW HAMPSHIRE AVE
SILVER SPRING, MD 20905
(39.11062, -76.99548)"
LIME & CILANTRO,1909 SEMINARY RD,SILVER SPRING,MD,20910,BBWHR1325544,On/Off-Premise,TWO BLOSSOMS LLC,No,"1909 SEMINARY RD
SILVER SPRING, MD 20910
(39.00879, -77.04088)"
NAGOYA SUSHI,402 KING FARM BLVD SUITE 130,ROCKVILLE,MD,20850,HBWHR998420,On Premise,HE TANG MOON GROUP LLC,No,"402 KING FARM BLVD SUITE 130
ROCKVILLE, MD 20850
(39.11381, -77.17248)"
LEDO PIZZA - WHEATON,"2638 UNIVERSITY BLVD, WEST",SILVER SPRING,MD,20902,HBW176,On Premise,SHRI CORPORATION,No,"2638 UNIVERSITY BLVD, WEST
SILVER SPRING, MD 20902
(39.04048, -77.05352)"
CADDIES ON CORDELL,4922 CORDELL AVENUE,BETHESDA,MD,20814,BBWLHR27463,On Premise,HOLE IN ONE OF MD LLC,No,"4922 CORDELL AVENUE
BETHESDA, MD 20814
(38.98875, -77.0987)"
IROCK KARAOKE LOUNGE,15964 SHADY GROVE RD,GAITHERSBURG,MD,20877,DBWL1566545,On Premise,BRICKSTONE LLC,No,"15964 SHADY GROVE RD
GAITHERSBURG, MD 20877
(39.11814, -77.18322)"
BOMBAY BISTRO,98 W. MONTGOMERY AVE,ROCKVILLE,MD,20850,HBW122,On Premise,BOMBAY BREEZE INTL. INC.,No,"98 W. MONTGOMERY AVE
ROCKVILLE, MD 20850
(39.08403, -77.15466)"
Z-KING STREET OYSTER BAR,,,,,BBWLHR1016420,On Premise,"KSOB POTOMAC, LLC",No,
MATCHBOX-SILVER SPRING,919 ELLSWORTH DRIVE,SILVER SPRING,MD,20910,BBWLHR42625,On Premise,"MATCHBOX SILVER SPRING, LLC",No,"919 ELLSWORTH DRIVE
SILVER SPRING, MD 20910
(38.99606, -77.02627)"
MANNEQUIN PIS,18064 GEORGIA AVENUE,OLNEY,MD,20832,HBW30862,On Premise,"QUINTERO MARTELL, LLC",No,"18064 GEORGIA AVENUE
OLNEY, MD 20832
(39.15258, -77.06756)"
BEL PRE BEER & WINE,2251 BEL PRE ROAD,SILVER SPRING,MD,20906,DBW103,On/Off-Premise,RETAIL & REAL ESTATE SERVICES INC.,Yes,"2251 BEL PRE ROAD
SILVER SPRING, MD 20906
(39.09177, -77.04793)"
IPIC THEATERS,11830 GRAND PARK AVE.,NORTH BETHESDA,MD,20852,BBWLHR416288,On Premise,"IPIC THEATERS, LLC",No,"11830 GRAND PARK AVE.
NORTH BETHESDA, MD 20852
(39.04971, -77.11717)"
BRETTON WOODS RECREATION CENTER,15700 RIVER ROAD,GERMANTOWN,MD,20874,CBWLCCO006,On Premise,"BRETTON WOODS REC. CENTER, INC",No,"15700 RIVER ROAD
GERMANTOWN, MD 20874
(39.07593, -77.33174)"
SILVER,7150 WOODMONT AVENUE,BETHESDA,MD,20815,BBWLHR22814,On Premise,"SILVER BETHESDA, LLC",No,"7150 WOODMONT AVENUE
BETHESDA, MD 20815
(38.98062, -77.09482)"
JINYA RAMEN BAR,910 PROSE STREET,ROCKVILLE,MD,20852,BBWLHR35339,On Premise,"RAMEN PR, LLC",No,"910 PROSE STREET
ROCKVILLE, MD 20852
(39.05149, -77.11674)"
COURTYARD BY MARRIOTT-ROCKVILLE,2500 RESEARCH BOULEVARD,ROCKVILLE,MD,20850,BBWLHM19293,On Premise,COURTYARD MANAGEMENT LLC,No,"2500 RESEARCH BOULEVARD
ROCKVILLE, MD 20850
(39.10393, -77.18918)"
HAMMER & STAIN,107B GIBBS ST,ROCKVILLE,MD,20850,SAGBW779376,On Premise,IZQUIERDO ART LLC,No,"107B GIBBS ST
ROCKVILLE, MD 20850
(39.08549, -77.15194)"
WESTLAKE BEER & WINE,10442 AUTO PARK AVE,BETHESDA,MD,20817,ABW263,Off Premise,A-ONE GROUPS LTD,Yes,"10442 AUTO PARK AVE
BETHESDA, MD 20817
(39.02873, -77.14519)"
MISS TOYA'S CREOLE HOUSE,923 ELLSWORTH DR.,SILVER SPRING,MD,20910,BBWLHR648360,On Premise,"MISS TOYA'S CREOLE HOUSE, LLC",No,"923 ELLSWORTH DR.
SILVER SPRING, MD 20910
(38.99593, -77.02642)"
HAN SPOT,9811 WASHINGTONIAN CENTER DR,GAITHERSBURG,MD,20878,BBWLHR1232496,On Premise,HAN SPOT LLC,No,"9811 WASHINGTONIAN CENTER DR
GAITHERSBURG, MD 20878
(39.11547, -77.19812)"
DOGFISH HEAD ALEHOUSE,800 W. DIAMOND AVENUE,GAITHERSBURG,MD,20878,BDBWL1568545,On/Off-Premise,"AMERICAN ALEHOUSE, LLC",No,"800 W. DIAMOND AVENUE
GAITHERSBURG, MD 20878
(39.142, -77.2166)"
HOT BREADS BAKERY & DOSA CHAAT,68 MARKET STREET,GAITHERSBURG,MD,20878,BBWHR1185494,On/Off-Premise,VAANGO ELLORUM LLC,No,"68 MARKET STREET
GAITHERSBURG, MD 20878
(39.12394, -77.23491)"
PHO VIET USA,4917 CORDELL AVE.,BETHESDA,MD,20814,BBWLHR489304,On Premise,"PHO VIET USA, INC.",No,"4917 CORDELL AVE.
BETHESDA, MD 20814
(38.98889, -77.09857)"
THE BETHESDAN HOTEL,8120 WISCONSIN AVE,BETHESDA,MD,20814,BBWLHR835387,On Premise,"CRESCENT HOTELS & RESORTS, LLC",No,"8120 WISCONSIN AVE
BETHESDA, MD 20814
(38.99091, -77.09608)"
FRIENDSHIP GOURMET MARKET,5550 FRIENDSHIP BLVD,CHEVY CHASE,MD,20815,DBW082,On/Off-Premise,"TAAF, LLC",No,"5550 FRIENDSHIP BLVD
CHEVY CHASE, MD 20815
(38.964038, -77.089536)"
LITTLE BENNETT GOLF COURSE,25900 PRESCOTT ROAD,CLARKSBURG,MD,20871,BBWLCL100,On Premise,MONTGOMERY CO. REV. AUTHORITY,No,"25900 PRESCOTT ROAD
CLARKSBURG, MD 20871
(39.28432, -77.29181)"
MCGINTY'S PUBLIC HOUSE,911 ELLSWORTH DRIVE,SILVER SPRING,MD,20910,BBWLHR1219494,On Premise,BARRY-LEA LLC,No,"911 ELLSWORTH DRIVE
SILVER SPRING, MD 20910
(38.99636, -77.02592)"
GRINGOS & MARIACHIS,4928 CORDELL AVENUE,BETHESDA,MD,20814,BBWLHR815,On Premise,"G & M GROUP, INC",No,"4928 CORDELL AVENUE
BETHESDA, MD 20814
(38.98861, -77.09884)"
LEDO PIZZA - DAMASCUS,9805 MAIN STREET,DAMASCUS,MD,20872,HBW310,On Premise,MAIN STREET INN INC.,No,"9805 MAIN STREET
DAMASCUS, MD 20872
(39.28826, -77.20359)"
LESAAC CAFE,8200 FENTON STREET,SILVER SPRING,MD,20910,BBWLHR708,On Premise,LESAAC INC.,No,"8200 FENTON STREET
SILVER SPRING, MD 20910
(38.99194, -77.02404)"
KAO THAI RESTAURANT,8650 COLESVILLE ROAD,SILVER SPRING,MD,20910,DBW137,On/Off-Premise,"KAO THAI, LLC",No,"8650 COLESVILLE ROAD
SILVER SPRING, MD 20910
(38.99717, -77.02735)"
AZUL BAR & GRILL,18749 NORTH FREDERICK ROAD,GAITHERSBURG,MD,20879,BBWLHR767,On Premise,SCUMV GROUP INC.,No,"18749 NORTH FREDERICK ROAD
GAITHERSBURG, MD 20879
(39.16347, -77.22616)"
THE ROCKVILLE HOTEL,3 RESEARCH CT.,ROCKVILLE,MD,20850,BBWLHR633355,On Premise,AIL HOSPITALITY LLC,No,"3 RESEARCH CT.
ROCKVILLE, MD 20850
(39.10704, -77.18673)"
LEBANESE TAVERNA CAFE - ROCKVILLE,1629 ROCKVILLE PIKE,ROCKVILLE,MD,20852,HBWHR042,On Premise,LEBANESE TAVERNA CAFE CONGRESS,No,"1629 ROCKVILLE PIKE
ROCKVILLE, MD 20852
(39.06278, -77.12497)"
CHINESE EXPRESS,849 RUSSELL AVE.,GAITHERSBURG,MD,20879,BBWLHR717357,On Premise,"W&Y FOOD, LLC",No,"849 RUSSELL AVE.
GAITHERSBURG, MD 20879
(39.15712, -77.21199)"
EL POLLO REAL RESTAURANT,5058-C NICHOLSON LANE,ROCKVILLE,MD,20852,BBWLHR21336,On Premise,"TRUJILLO-LIMA FOODS, LLC",No,"5058-C NICHOLSON LANE
ROCKVILLE, MD 20852
(39.04586, -77.10405)"
MELA MARKET,8711 1st AVE.,SILVER SPRING,MD,20910,DBW174262,On/Off-Premise,MELA LLC,No,"8711 1st AVE.
SILVER SPRING, MD 20910
(38.99765, -77.03206)"
MAMMA LUCIA - BETHESDA,4916 ELM STREET,BETHESDA,MD,20814,BBWLHR385,On Premise,"MAMMA LUCIA OF BETHESDA, INC.",No,"4916 ELM STREET
BETHESDA, MD 20814
(38.9821, -77.09696)"
PLANTA BETHESDA,4910 ELM ST.,BETHESDA,MD,20814,BDBWL656364,On/Off-Premise,"PLANTA BETHESDA, LLC",No,"4910 ELM ST.
BETHESDA, MD 20814
(38.98211, -77.09674)"
"LAPERAUX, THE JOURNEYMANCHEF'S BISTRO","18056 MATENY RD, UNIT #13",GERMANTOWN,MD,20874,BBWLHR804373,On Premise,"LAPERAUX, LLC",No,"18056 MATENY RD, UNIT #13
GERMANTOWN, MD 20874
(39.14843, -77.27367)"
"KEMP MILL BEER, WINE & DELI",1339 LAMBERTON DRIVE,SILVER SPRING,MD,20902,ABW067,Off Premise,"JAI SHREE GANESH, INC.",Yes,"1339 LAMBERTON DRIVE
SILVER SPRING, MD 20902
(39.04085, -77.03143)"
7 BILLIARDS,15966 SHADY GROVE RD.,GAITHERSBURG,MD,20877,DBWL36065,On Premise,"7 BILLARDS, INC.",No,"15966 SHADY GROVE RD.
GAITHERSBURG, MD 20877
(39.11814, -77.18322)"
DESSIE ETHIOPIAN RESTAURANT & MARKET,2655 UNIVERSITY BLVD,SILVER SPRING,MD,20902,BDBWL1008423,On/Off-Premise,PENIAL LLC,No,"2655 UNIVERSITY BLVD
SILVER SPRING, MD 20902
(39.04034, -77.05498)"
RAINBOW RESTAURANT,"312 E. DIAMOND AVE, B-1",GAITHERSBURG,MD,20877,HBW119,On Premise,RAINBOW REST. AND CATERING SER,No,"312 E. DIAMOND AVE, B-1
GAITHERSBURG, MD 20877
(39.14217, -77.19256)"
LA CALETA PERUVIAN RESTAURANT,9627 LOST KNIFE ROAD,GAITHERSBURG,MD,20877,BBWLHR1228503,On Premise,LA CALETA PERUVIAN RESTAURANT LLC,No,"9627 LOST KNIFE ROAD
GAITHERSBURG, MD 20877
(39.153, -77.19691)"
GLENSTONE FOUNDATION,12100 GLEN RD.,POTOMAC,MD,20854,HBWHR43459,On Premise,"GLENSTONE FOUNDATION, INC.",No,"12100 GLEN RD.
POTOMAC, MD 20854
(39.05873, -77.25064)"
LA CANELA,141 GIBBS STREET,ROCKVILLE,MD,20850,BBWLHR281,On Premise,MASHA CORP II,No,"141 GIBBS STREET
ROCKVILLE, MD 20850
(39.08635, -77.15199)"
FIREBIRDS WOOD FIRED GRILL,390 SPECTRUM AVENUE,GAITHERSBURG,MD,20879,BBWLHR26374,On Premise,"FIREBIRDS OF GAITHERSBURG, LLC",No,"390 SPECTRUM AVENUE
GAITHERSBURG, MD 20879
(39.1596, -77.22019)"
DAVE & BUSTER'S - SILVER SPRING,8661 COLESVILLE ROAD SUITE E-102,SILVER SPRING,MD,20910,BBWLHR24779,On Premise,"DAVE & BUSTER'S OF MARYLAND, INC",No,"8661 COLESVILLE ROAD SUITE E-102
SILVER SPRING, MD 20910
(38.99678, -77.02689)"
SHADY GROVE  BEER & WINE,15904 SHADY GROVE ROAD,GAITHERSBURG,MD,20877,ABW27290,Off Premise,"CHOISDREAM, INC",Yes,"15904 SHADY GROVE ROAD
GAITHERSBURG, MD 20877
(39.11775, -77.18392)"
LAREDO GRILLE,347 MUDDY BRANCH ROAD,GAITHERSBURG,MD,20878,BBWLHR258,On Premise,LAREDO GRILLE INC.,No,"347 MUDDY BRANCH ROAD
GAITHERSBURG, MD 20878
(39.12766, -77.2093)"
TACO BAMBA TAQUERIA - ROCKVILLE,1627 ROCKVILLE PIKE,ROCKVILLE,MD,20852,BBWLHR481301,On Premise,"PYM HOLDINGS, LLC",No,"1627 ROCKVILLE PIKE
ROCKVILLE, MD 20852
(39.06276, -77.12495)"
RESTAURANT 198,15540 OLD COLUMBIA PIKE,BURTONSVILLE,MD,20866,BBWLHR768356,On Premise,"CHAPALA, INC.",No,"15540 OLD COLUMBIA PIKE
BURTONSVILLE, MD 20866
(39.1105, -76.93418)"
RIDERWOOD VILLAGE,3120 GRACEFIELD ROAD,SILVER SPRING,MD,20904,CBWLRC001,On Premise,RIDERWOOD VILLAGE INC.,No,"3120 GRACEFIELD ROAD
SILVER SPRING, MD 20904
(39.0485, -76.95056)"
WORLD OF BEER-BETHESDA,7200 WISCONSIN AVE,BETHESDA,MD,20814,BBWLHR26104,On Premise,"WOB BETHESDA, LLC",No,"7200 WISCONSIN AVE
BETHESDA, MD 20814
(38.98152, -77.0935)"
THE GIRL AND THE VINE,7071 CARROLL AVENUE,TAKOMA PARK,MD,20912,BDBWL41020,On/Off-Premise,"KULA HOSPITALITY, LLC",No,"7071 CARROLL AVENUE
TAKOMA PARK, MD 20912
(38.97528, -77.00953)"
CAFE VIA ROMA,911 BONIFANT STREET,SILVER SPRING,MD,20910,BBWLHR1552544,On Premise,ASMARINI LLC,No,"911 BONIFANT STREET
SILVER SPRING, MD 20910
(38.99425, -77.02444)"
WHITE OAK BOWLING LANES,11207 NEW HAMPSHIRE AVE,SILVER SPRING,MD,20904,HBWHR35355,On Premise,"WHITE OAK BOWL, LLC",No,"11207 NEW HAMPSHIRE AVE
SILVER SPRING, MD 20904
(39.04059, -76.98998)"
EL GOLFO RESTAURANT,8739 FLOWER AVE,SILVER SPRING,MD,20901,BBWLHR215,On Premise,"EL MEZCAL RESTAURANT, INC.",No,"8739 FLOWER AVE
SILVER SPRING, MD 20901
(38.99944, -77.00369)"
AY! JALISCO,8401 SNOUFFER SCHOOL ROAD,GAITHERSBURG,MD,20879,BBWLHR187,On Premise,"ABI II, INC.",No,"8401 SNOUFFER SCHOOL ROAD
GAITHERSBURG, MD 20879
(39.16728, -77.17223)"
TED'S MONTANA GRILL,105 ELLINGTON BOULEVARD,GAITHERSBURG,MD,20878,BBWLHR21344,On Premise,"TMG OF GAITHERSBURG, LLC",No,"105 ELLINGTON BOULEVARD
GAITHERSBURG, MD 20878
(39.11553, -77.20423)"
PANSA LLENA,"11279 NEW HAMPSHIRE AVE, UNIT A",SILVER SPRING,MD,20904,BBWLHR473,On Premise,"RED GROUP, INC.",No,"11279 NEW HAMPSHIRE AVE, UNIT A
SILVER SPRING, MD 20904
(39.041, -76.99108)"
EL ESTERON RESTAURANT,8500 DAKOTA DRIVE,GAITHERSBURG,MD,20877,DBW134,On/Off-Premise,"EL ESTERON RESTAURANT, INC.",No,"8500 DAKOTA DRIVE
GAITHERSBURG, MD 20877
(39.12726, -77.17505)"
EL GAVILAN RESTAURANT,8805 FLOWER AVE,SILVER SPRING,MD,20901,BBWLHR227,On Premise,ABY & ASSOCIATES LTD.,No,"8805 FLOWER AVE
SILVER SPRING, MD 20901
(38.99994, -77.00369)"
EL NORTENO,8917 BROOKVILLE ROAD,SILVER SPRING,MD,20910,BBWLHR367,On Premise,"DALISSON,LLC",No,"8917 BROOKVILLE ROAD
SILVER SPRING, MD 20910
(39.00221, -77.05285)"
BONEFISH GRILL,82 MARKET STREET,GAITHERSBURG,MD,20878,BBWLHR143,On Premise,"BONEFISH OF GAITHERSBURG, INC.",No,"82 MARKET STREET
GAITHERSBURG, MD 20878
(39.12426, -77.2339)"
KABUTO,1 CHOICE HOTEL CIRCLE,ROCKVILLE,MD,20850,BBWLHR37806,On Premise,"KABU ROCKVILLE, INC.",No,"1 CHOICE HOTEL CIRCLE
ROCKVILLE, MD 20850
(39.08583, -77.14911)"
THE CLARKS LODGE,12011 SNOWDEN FARM PARKWAY,CLARKSBURG,MD,20841,BBWLHR1187495,On Premise,"MS GRILL, INC",No,"12011 SNOWDEN FARM PARKWAY
CLARKSBURG, MD 20841
(39.22862, -77.25069)"
BISCOTTI RESTAURANT,7212 MUNCASTER MILL ROAD,DERWOOD,MD,20855,HBWHR34622,On Premise,"BISCOTTI RESTAURANT, LLC",No,"7212 MUNCASTER MILL ROAD
DERWOOD, MD 20855
(39.14509, -77.14492)"
TAKO GRILL,4914 HAMPDEN LANE,BETHESDA,MD,20814,HBWHR311,On Premise,S.K.O. CORPORATION,No,"4914 HAMPDEN LANE
BETHESDA, MD 20814
(38.98248, -77.09696)"
WHITE OAK CONVENIENCE STORE,11407 LOCKWOOD DRIVE,SILVER SPRING,MD,20904,ABW159,Off Premise,WHITE OAK CONVENIENCE STORE,Yes,"11407 LOCKWOOD DRIVE
SILVER SPRING, MD 20904
(39.04039, -76.9884)"
N-SALUD! BEER & WINE,1173-C UNIVERSITY BLVD,TAKOMA PARK,MD,20912,DBW1220495,Off Premise,"SALUD TAKOMA, LLC",No,"1173-C UNIVERSITY BLVD
TAKOMA PARK, MD 20912
(38.98855, -76.9886)"
SUSHI HOUSE,"1331 ROCKVILLE PIKE, UNIT D",ROCKVILLE,MD,20852,HBW214,On Premise,"SUSHI HOUSE, INC.",No,"1331 ROCKVILLE PIKE, UNIT D
ROCKVILLE, MD 20852
(39.06771, -77.12976)"
TAKOMA BEVERAGE,6917 LAUREL AVENUE,TAKOMA PARK,MD,20912,BDBWLHR26663,On/Off-Premise,"TAKOMA BEVERAGE COMPANY, LLC",No,"6917 LAUREL AVENUE
TAKOMA PARK, MD 20912
(38.97422, -77.01253)"
GRAPE EXPECTATIONS,20207 GOSHEN ROAD,GAITHERSBURG,MD,20879,DBW1516544,On/Off-Premise,"NTMU, INC",Yes,"20207 GOSHEN ROAD
GAITHERSBURG, MD 20879
(39.18798, -77.18519)"
RAKU AN ASIAN DINER,7240 WOODMONT AVE,BETHESDA,MD,20814,BBWLHR263,On Premise,"D.G. HOLDINGS , INC.",No,"7240 WOODMONT AVE
BETHESDA, MD 20814
(38.98159, -77.09586)"
GROG BEER WINE & DELI,513 QUINCE ORCHARD RD UNIT 3,GAITHERSBURG,MD,20878,ABW117,Off Premise,"SWASTIK, INC.",Yes,"513 QUINCE ORCHARD RD UNIT 3
GAITHERSBURG, MD 20878
(39.14438, -77.2203)"
OUTBACK STEAKHOUSE - ASPEN HILL,13703 GEORGIA AVE,SILVER SPRING,MD,20906,BBWLHR472,On Premise,"OUTBACK OF ASPEN HILL, INC.",No,"13703 GEORGIA AVE
SILVER SPRING, MD 20906
(39.08004, -77.07292)"
AMERICAN LEGION POST 268,11225 FERN STREET,SILVER SPRING,MD,20902,CBWLFV002,On Premise,WHEATON POST #268,No,"11225 FERN STREET
SILVER SPRING, MD 20902
(39.03971, -77.04936)"
THE CARNEGIE AT WASHINGTONIAN CENTER,10100 WASHINGTONIAN BOULEVARD,GAITHERSBURG,MD,20878,BBWLHR1258529,On Premise,WELL KISCO THE CARNEGIETENANT LLC,No,"10100 WASHINGTONIAN BOULEVARD
GAITHERSBURG, MD 20878
(39.11877, -77.20648)"
ZEN ASIAN GRILL SUSHI,15602 OLD COLUMBIA PIKE,BURTONSVILLE,MD,20866,BBWLHR654,On Premise,ZEN-AN CORPORATION,No,"15602 OLD COLUMBIA PIKE
BURTONSVILLE, MD 20866
(39.11201, -76.93471)"
HOLA BEER & WINE,8035 SNOUFFER SCHOOL RD.,GAITHERSBURG,MD,20879,DBW275260,On/Off-Premise,"GNS TRADING COMPANY, LLC",Yes,"8035 SNOUFFER SCHOOL RD.
GAITHERSBURG, MD 20879
(39.161, -77.16293)"
GIUSEPPI'S PIZZA PLUS - ROCKVILLE,"199 EAST MONTGOMERY AVE, UNIT L",ROCKVILLE,MD,20850,HBW097,On Premise,"SPENSCO, INC.",No,"199 EAST MONTGOMERY AVE, UNIT L
ROCKVILLE, MD 20850
(39.08409, -77.14997)"
GUAPO'S - RIO,9811 WASHINGTONIAN BLVD,GAITHERSBURG,MD,20878,BBWLHR243,On Premise,GUAPO'S III INC.,No,"9811 WASHINGTONIAN BLVD
GAITHERSBURG, MD 20878
(39.11547, -77.19812)"
COOPER'S HAWK WINERY & RESTAURANT,1403 RESEARCH BLVD.,ROCKVILLE,MD,20850,BDBWL43341,On/Off-Premise,"COOPER'S HAWK ROCKVILLE, LLC",No,"1403 RESEARCH BLVD.
ROCKVILLE, MD 20850
(39.09057, -77.17734)"
CIELO ROJO,7211 CARROLL AVE,TAKOMA PARK,MD,20912,BBWLHR1059436,On Premise,SHILOH RESTAURANT GROUP LLC,No,"7211 CARROLL AVE
TAKOMA PARK, MD 20912
(38.97797, -77.00701)"
CANOPY,940 ROSE AVENUE,NORTH BETHESDA,MD,20852,BBWLHM33201,On Premise,"PNR HOTEL XXVI OPERATOR, LLC",No,"940 ROSE AVENUE
NORTH BETHESDA, MD 20852
(39.05094, -77.11711)"
FALLS ROAD GOLF COURSE,10800 FALLS ROAD,POTOMAC,MD,20854,BBWLCL013,On Premise,MONTGOMERY CO. REV AUTHORITY,No,"10800 FALLS ROAD
POTOMAC, MD 20854
(39.03071, -77.20135)"
MONTGOMERY VILLAGE BEER & WINE,18286 CONTOUR ROAD,GAITHERSBURG,MD,20879,ABW941412,Off Premise,JNJ SPIRITS INC,Yes,"18286 CONTOUR ROAD
GAITHERSBURG, MD 20879
(39.1544, -77.19923)"
AMY TEXMEX BAR AND GRILL,621 SLIGO AVE.,SILVER SPRING,MD,20910,BBWLHR798369,On Premise,AMY TEX MEX BAR & GRILL LLC,No,"621 SLIGO AVE.
SILVER SPRING, MD 20910
(38.99127, -77.01455)"
KNIGHTS OF PYTHIAS,11011 GAME PRESERVE ROAD,GAITHERSBURG,MD,20879,CBWLFV017,On Premise,KNIGHTS OF PYTHIAS,No,"11011 GAME PRESERVE ROAD
GAITHERSBURG, MD 20879
(39.16423, -77.22904)"
TACOMBI,4749 BETHESDA AVE.,BETHESDA,MD,20814,BDBWL490321,On/Off-Premise,TAQUERIA BUENA BETHESDADITA,No,"4749 BETHESDA AVE.
BETHESDA, MD 20814
(38.98097, -77.09478)"
CALIFORNIA PIZZA KITCHEN - GAITH,136 BOARDWALK PLACE,GAITHERSBURG,MD,20878,BBWLHR674,On Premise,"CALIFORNIA PIZZA KITCHEN, INC",No,"136 BOARDWALK PLACE
GAITHERSBURG, MD 20878
(39.11704, -77.19843)"
"SILVER SPRING BEER, WINE & DELI",8746 GEORGIA AVE,SILVER SPRING,MD,20910,DBW081,On/Off-Premise,"RYANALEX, INC.",No,"8746 GEORGIA AVE
SILVER SPRING, MD 20910
(38.99862, -77.03091)"
MAMMA LUCIA - SILVER SPRING,1302 EAST-WEST HIGHWAY,SILVER SPRING,MD,20910,BBWLHR386,On Premise,"IMOSS, INC.",No,"1302 EAST-WEST HIGHWAY
SILVER SPRING, MD 20910
(38.99289, -77.0316)"
OLAZZO,7921 NORFOLK AVE,BETHESDA,MD,20814,BBWLHR242,On Premise,LAZIOS INC,No,"7921 NORFOLK AVE
BETHESDA, MD 20814
(38.98923, -77.0978)"
YAAR SPICE INDIAN KITCHEN,9736 TRAVILLE GATEWAY DR,ROCKVILLE,MD,20850,BBWLHR1519544,On Premise,YAAR SPICE LLC,No,"9736 TRAVILLE GATEWAY DR
ROCKVILLE, MD 20850
(39.09189, -77.20376)"
CINEPOLIS,629 CENTER POINT WAY,GAITHERSBURG,MD,20878,BBWLHR122259,On Premise,"MARYLAND CINEMA INVESTMENTS, LLC",No,"629 CENTER POINT WAY
GAITHERSBURG, MD 20878
(39.12171, -77.23347)"
GENTLEMAN JIM'S,18257 FLOWER HILL WAY,GAITHERSBURG,MD,20879,BBWLHR451301,On Premise,"CAVALIER, LLC",No,"18257 FLOWER HILL WAY
GAITHERSBURG, MD 20879
(39.1576, -77.16214)"
CHIPOTLE MEXICAN GRILL - BETHESDA,7624 OLD GEORGETOWN ROAD,BETHESDA,MD,20814,BBWLHR299,On Premise,"CHIPOTLE MEXICAN GRILL, INC.",No,"7624 OLD GEORGETOWN ROAD
BETHESDA, MD 20814
(38.98608, -77.09643)"
WHEATON WINERY,"2211 UNIVERSITY BLVD, WEST, UNIT B",SILVER SPRING,MD,20902,ABW139,Off Premise,JOHNNY & PRUM INC.,Yes,"2211 UNIVERSITY BLVD, WEST, UNIT B
SILVER SPRING, MD 20902
(39.04164, -77.04855)"
RESIDENCE INN SILVER SPRING,12000 PLUM ORCHARD DRIVE,SILVER SPRING,MD,20904,BBWHR782366,On/Off-Premise,BCOORE SELECT RAVEN 1 TRC LLC,No,"12000 PLUM ORCHARD DRIVE
SILVER SPRING, MD 20904
(39.05167, -76.95334)"
TIJUANA MEXICAN CAFE - ROCKVILLE,2007 VEIRS MILL ROAD,ROCKVILLE,MD,20851,BBWLHR255,On Premise,MARIO CORPORATION,No,"2007 VEIRS MILL ROAD
ROCKVILLE, MD 20851
(39.07502, -77.11667)"
LOS COBANOS RESTAURANT,11210 GRANDVIEW AVE,SILVER SPRING,MD,20902,BBWLHR008,On Premise,"MERSAL, INC.",No,"11210 GRANDVIEW AVE
SILVER SPRING, MD 20902
(39.03877, -77.05233)"
SUSHIJIN,"8555 FENTON STREET, UNIT A",SILVER SPRING,MD,20910,HBW145,On Premise,"SUSHIJIN, LLC",No,"8555 FENTON STREET, UNIT A
SILVER SPRING, MD 20910
(38.99735, -77.02643)"
PIZZERIA DAMARCO,8008 WOODMONT AVE,BETHESDA,MD,20814,BBWLHR109,On Premise,"LIONSGATE RESTAURANT, LLC",No,"8008 WOODMONT AVE
BETHESDA, MD 20814
(38.9903, -77.09652)"
TASTE OF EUROPE,630 QUINCE ORCHARD RD.,GAITHERSBURG,MD,20878,ABW41666,Off Premise,"TASTE OF EUROPE ENTERPRISES, INC.",No,"630 QUINCE ORCHARD RD.
GAITHERSBURG, MD 20878
(39.14118, -77.22141)"
FISH TACO,7945 MACARTHUR BLVD,CABIN JOHN,MD,20818,BBWLHR797,On Premise,"FISH TACO, INC",No,"7945 MACARTHUR BLVD
CABIN JOHN, MD 20818
(38.97497, -77.16256)"
SHOPPERS FOOD WAREHOUSE,18066 MATENY ROAD,GERMANTOWN,MD,20874,DBW013,On/Off-Premise,SHOPPERS FOOD WAREHOUSE CORP.,Yes,"18066 MATENY ROAD
GERMANTOWN, MD 20874
(39.14799, -77.27335)"
PROMENADE MARKET & DELI,5225 POOKS HILL ROAD,BETHESDA,MD,20814,ABW222,Off Premise,"JAE & KIM, LLC",No,"5225 POOKS HILL ROAD
BETHESDA, MD 20814
(39.01646, -77.10696)"
THE 4 CORNERS PUB,10111 SUTHERLAND RD,SILVER SPRING,MD,20901,BBWLHR1503544,On Premise,HOSS & DOG LLC,No,"10111 SUTHERLAND RD
SILVER SPRING, MD 20901
(39.02121, -77.01293)"
BARKING MAD CAFE,239 SPECTRUM AVE,GAITHERSBURG,MD,20879,BBWLHR21715,On Premise,"RENEGADES COFFEE COMPANY, LLC",No,"239 SPECTRUM AVE
GAITHERSBURG, MD 20879
(39.16009, -77.22187)"
3 BROTHERS LOUNGE,2405 PRICE AVENUE,WHEATON,MD,20902,BBWLHR1640544,On Premise,3 BROTHERS LOUNGE LLC,No,"2405 PRICE AVENUE
WHEATON, MD 20902
(39.04027, -77.05055)"
LEDO PIZZA OLNEY,3472 OLNEY LAYTONSVILLE ROAD,OLNEY,MD,20832,HBWHR38339,On Premise,"MHI HOTELS SERVICES, LLC",No,"3472 OLNEY LAYTONSVILLE ROAD
OLNEY, MD 20832
(39.15335, -77.06852)"
EMA ROSSI NEAPOLITAN PIZZERIA,5556 NORBECK RD.,ROCKVILLE,MD,20853,HBWHR117262,On Premise,"RUIZ-HABIG RESTAURANT GROUP, LLC",No,"5556 NORBECK RD.
ROCKVILLE, MD 20853
(39.09481, -77.11099)"
SHEBA ETHIOPIAN RESTAURANT,5071 NICHOLSON LN.,ROCKVILLE,MD,20852,HBWHR249259,On Premise,"TAZZO, INC.",No,"5071 NICHOLSON LN.
ROCKVILLE, MD 20852
(39.04595, -77.1046)"
CAPTAIN'S MARKET,7607 MACARTHUR BLVD.,CABIN JOHN,MD,20818,DBW39382,On/Off-Premise,JAE AND JAE MARKET CORP.,Yes,"7607 MACARTHUR BLVD.
CABIN JOHN, MD 20818
(38.97341, -77.15561)"
RIDGEWELLS,5520 CLIPPER LANE,BETHESDA,MD,20816,CATBWL19232,On Premise,RIDGEWELLS,No,"5520 CLIPPER LANE
BETHESDA, MD 20816
(38.96432, -77.1019)"
ISLAND PRIDE OASIS,617 S. FREDERICK AVENUE,GAITHERSBURG,MD,20877,BBWLHR28015,On Premise,"ISLAND PRIDE OASIS, LLC",No,"617 S. FREDERICK AVENUE
GAITHERSBURG, MD 20877
(39.12887, -77.18526)"
CASPIAN HOUSE OF KABOB,72 MARKET ST,GAITHERSBURG,MD,20878,HBW26446,On Premise,"CASPIAN CAFE, INC",No,"72 MARKET ST
GAITHERSBURG, MD 20878
(39.12404, -77.23427)"
NORTHWEST GOLF COURSE,15711 LAYHILL ROAD,SILVER SPRING,MD,20906,BBWLCL231,On Premise,MONTGOMERY CO. REV. AUTHORITY,No,"15711 LAYHILL ROAD
SILVER SPRING, MD 20906
(39.11363, -77.03205)"
TALBERT'S ICE & BEVERAGE SERVICE,5234 RIVER ROAD,BETHESDA,MD,20816,DBW044,On/Off-Premise,MONTGOMERY ICE CORP.,Yes,"5234 RIVER ROAD
BETHESDA, MD 20816
(38.96492, -77.10468)"
LE PAIN QUOTIDIEN-WILDWOOD,10217 OLD GEORGETOWN RD.,BETHESDA,MD,20814,HBWHR485309,On Premise,"APQ WILDWOOD MD, LLC",No,"10217 OLD GEORGETOWN RD.
BETHESDA, MD 20814
(39.02349, -77.12353)"
ANDY'S PIZZA BETHESDA,4600 EAST WEST HIGHWAY,BETHESDA,MD,20814,BDBWL1024433,On/Off-Premise,"ANDYS PIZZA EAST WEST, LLC",No,"4600 EAST WEST HIGHWAY
BETHESDA, MD 20814
(38.98478, -77.09304)"
EAT A LAO,1327 ROCKVILLE PIKE UNIT I,ROCKVILLE,MD,20852,HBWHR1237534,On Premise,"MOO-KANA, LLC",No,"1327 ROCKVILLE PIKE UNIT I
ROCKVILLE, MD 20852
(39.06826, -77.1303)"
MI LA CAY RESTAURANT,2409 UNIVERSITY BLVD,SILVER SPRING,MD,20902,HBW319,On Premise,MJEJ CORPORATION,No,"2409 UNIVERSITY BLVD
SILVER SPRING, MD 20902
(39.04183, -77.05055)"
JAVA NATION,10516 CONNECTICUT AVENUE,KENSINGTON,MD,20895,HBWHR71919,On Premise,"JAVA NATION, INC",No,"10516 CONNECTICUT AVENUE
KENSINGTON, MD 20895
(39.02869, -77.07713)"
A & H CONVENIENCE MARKET,11235 OAK LEAF DR.,SILVER SPRING,MD,20901,ABW190259,Off Premise,A&H CONVENIENCE MARKET,Yes,"11235 OAK LEAF DR.
SILVER SPRING, MD 20901
(39.04147, -76.99377)"
DUMPLING DISTRICT,19775 FREDERICK ROAD,GERMANTOWN,MD,20876,BBWLHR1732544,On Premise,DD GERMANTOWN INC,No,"19775 FREDERICK ROAD
GERMANTOWN, MD 20876
(39.17873, -77.23803)"
SPRING GARDEN RESTAURANT,1919 SEMINARY RD.,SILVER SPRING,MD,20910,BBWHR42564,On/Off-Premise,"SPRING GARDEN RESTAURANT, INC.",No,"1919 SEMINARY RD.
SILVER SPRING, MD 20910
(39.00881, -77.04105)"
HOOK & REEL CAJUN SEAFOOD & BAR,11160 VEIRS MILL RD.,WHEATON,MD,20902,BBWLHR648359,On Premise,"CAJUN SEAFOOD WHEATON, LLC",No,"11160 VEIRS MILL RD.
WHEATON, MD 20902
(39.03748, -77.05329)"
LEDO PIZZA - BETHESDA,5245 RIVER ROAD,BETHESDA,MD,20816,BBWHR017,On/Off-Premise,"RIVER ROAD PIZZA, INC.",No,"5245 RIVER ROAD
BETHESDA, MD 20816
(38.966, -77.10458)"
QUENCH! BEER & WINE,13423 NEW HAMPSHIRE AVE,SILVER SPRING,MD,20904,BDBWLHR1056030,On/Off-Premise,"BREW 1729, INC.",Yes,"13423 NEW HAMPSHIRE AVE
SILVER SPRING, MD 20904
(39.07666, -77.00111)"
PAMA THAI,12525 PARK POTOMAC AVE,POTOMAC,MD,20854,BDBWL949411,On/Off-Premise,PAMA LLC,No,"12525 PARK POTOMAC AVE
POTOMAC, MD 20854
(39.06103, -77.15733)"
THE MANOR AT SILO FALLS,19501 GEORGIA AVENUE,BROOKEVILLE,MD,20833,BBWLHR35520,On Premise,"THE MANOR AT SILO FALLS, LLC",No,"19501 GEORGIA AVENUE
BROOKEVILLE, MD 20833
(39.17713, -77.05812)"
THE BRAZILIAN PLACE,2418 UNIVERSITY BOULEVARD WEST,WHEATON,MD,20902,BBWLHR34405,On Premise,"THE BRAZILIAN PLACE, LLC",No,"2418 UNIVERSITY BOULEVARD WEST
WHEATON, MD 20902
(39.04151, -77.05116)"
RANKEN NOODLE HOUSE,133 COMMERCE SQUARE PL.,GAITHERSBURG,MD,20878,HBWHR441289,On Premise,"RANKEN NOODLE HOUSE, LLC",No,"133 COMMERCE SQUARE PL.
GAITHERSBURG, MD 20878
(39.12236, -77.23385)"
SUSHI N YOU,7607 B MACARTHUR BLVD,CABIN JOHN,MD,20818,DBW1130480,On/Off-Premise,"YK CLASS, LLC",No,"7607 B MACARTHUR BLVD
CABIN JOHN, MD 20818
(38.97341, -77.15561)"
WASHINGTON-ROCKVILLE ELKS #15,5 TAFT COURT,ROCKVILLE,MD,20850,CBWLFV019,On Premise,B.P.O. ELKS #15,No,"5 TAFT COURT
ROCKVILLE, MD 20850
(39.09569, -77.13066)"
EFFOI,8233 FENTON STREET,SILVER SPRING,MD,20910,BBWLHR1628544,On Premise,SUNSHINE HOLDINGS LLC,No,"8233 FENTON STREET
SILVER SPRING, MD 20910
(38.99271, -77.02377)"
NEW PAUL KEE,"11305 GEORGIA AVENUE, UNIT B",WHEATON,MD,20902,HBWHR1218498,On Premise,SHIMIAODAO LLC,No,"11305 GEORGIA AVENUE, UNIT B
WHEATON, MD 20902
(39.04049, -77.05136)"
NOT YOUR AVERAGE JOE'S - BETHESDA,"10400 OLD GEORGETOWN ROAD, 6A",BETHESDA,MD,20814,BBWLHR21761,On Premise,"NOT YOUR AVERAGE JOE'S MD, LLC",No,"10400 OLD GEORGETOWN ROAD, 6A
BETHESDA, MD 20814
(39.02518, -77.12681)"
HOUSE OF POOLESVILLE,19611 FISHER AVE,POOLESVILLE,MD,20837,BBWLHR1092434,On Premise,HS AHOP INC,No,"19611 FISHER AVE
POOLESVILLE, MD 20837
(39.14441, -77.40945)"
KINGSVIEW BEER & WINE,13406 KINGSVIEW VILLAGE AVENUE,GERMANTOWN,MD,20874,ABWS172,Off Premise,3U CORPORATION,Yes,"13406 KINGSVIEW VILLAGE AVENUE
GERMANTOWN, MD 20874
(39.16016, -77.27951)"
JEWEL OF INDIA,10151 NEW HAMPSHIRE AVE,SILVER SPRING,MD,20903,BBWLHR661,On Premise,"JEWEL OF INDIA, CORP.",No,"10151 NEW HAMPSHIRE AVE
SILVER SPRING, MD 20903
(39.02169, -76.9762)"
IVELA SPORTS LOUNGE & HOOKAH,949 BONIFANT ST,SILVER SPRING,MD,20910,BBWLHR1025435,On Premise,"IVELA SPORTS LOUNGE, LLC",No,"949 BONIFANT ST
SILVER SPRING, MD 20910
(38.99373, -77.02562)"
CHIPOTLE MEXICAN GRILL - SS,907 ELLSWORTH DRIVE,SILVER SPRING,MD,20910,BBWLHR542,On Premise,CHIPTOLE MEXICAN GRILL OF MARY,No,"907 ELLSWORTH DRIVE
SILVER SPRING, MD 20910
(38.99653, -77.02573)"
CHINA JADE,16805 CRABBS BRANCH WAY,DERWOOD,MD,20855,HBW237,On Premise,"JIN SHENG, INC.",No,"16805 CRABBS BRANCH WAY
DERWOOD, MD 20855
(39.13123, -77.16697)"
CHEF TONY'S @ AMALFI,12307 WILKINS AVE,ROCKVILLE,MD,20852,BBWLHR942417,On Premise,AUDACE LLC,No,"12307 WILKINS AVE
ROCKVILLE, MD 20852
(39.05785, -77.11282)"
BETHESDA COUNTRY CLUB,7601 BRADLEY BLVD.,BETHESDA,MD,20817,CBWLCC004,On Premise,BETHESDA COUNTRY CLUB INC.,No,"7601 BRADLEY BLVD.
BETHESDA, MD 20817
(39.01229, -77.15624)"
LAO SZE CHUAN,20 PASEO DR.,NORTH BETHESDA,MD,20852,BBWLHR710355,On Premise,"BUFFET BETHESDA, LLC",No,"20 PASEO DR.
NORTH BETHESDA, MD 20852
(39.04301, -77.11193)"
SPRING BEER & WINE,9330 GEORGIA AVENUE,SILVER SPRING,MD,20910,ABW145,Off Premise,SPRING BEER & WINE CORPORATION,Yes,"9330 GEORGIA AVENUE
SILVER SPRING, MD 20910
(39.00802, -77.04023)"
BALDUCCI'S,10323 OLD GEORGETOWN RD.,BETHESDA,MD,20814,BBWHR478300,On/Off-Premise,"AMERICAN STORES COMPANY, LLC",Yes,"10323 OLD GEORGETOWN RD.
BETHESDA, MD 20814
(39.02493, -77.12456)"
MISS TOYA'S SOUTHERN KITCHEN,229 BOARDWALK PLACE,GAITHERSBURG,MD,20878,BBWLHR973416,On Premise,"MISS TOYA'S KITCHEN, LLC",No,"229 BOARDWALK PLACE
GAITHERSBURG, MD 20878
(39.11645, -77.19789)"
CLYDE'S OF CHEVY CHASE,5441 WISCONSIN AVENUE,CHEVY CHASE,MD,20815,BBWLHR86259,On Premise,"CLYDE'S OF CHEVY CHASE, LLC",No,"5441 WISCONSIN AVENUE
CHEVY CHASE, MD 20815
(38.96257, -77.08612)"
EGGMANIA,385 MUDDY BRANCH RD,GAITHERSBURG,MD,20878,BBWLHR1016422,On Premise,AB FOODS LLC,No,"385 MUDDY BRANCH RD
GAITHERSBURG, MD 20878
(39.12766, -77.2093)"
GYUZO,33 MARYLAND AVE.,ROCKVILLE,MD,20850,BBWLHR314262,On Premise,"SETSAIL, LLC",No,"33 MARYLAND AVE.
ROCKVILLE, MD 20850
(39.08574, -77.15099)"
SUSHI FREEDOM,12046 CHERRY HILL RD,SILVER SPRING,MD,20904,BBWLHR1396544,On Premise,SUSHI FREEDOM LLC,No,"12046 CHERRY HILL RD
SILVER SPRING, MD 20904
(39.05389, -76.95437)"
ROLLINS BEER & WINE,151 ROLLINS AVE.,ROCKVILLE,MD,20852,DBW492304,On/Off-Premise,"RIVNISH, LLC",Yes,"151 ROLLINS AVE.
ROCKVILLE, MD 20852
(39.05907, -77.12437)"
FOREST GLEN BEER WINE AND DELI,536 FOREST GLEN ROAD,SILVER SPRING,MD,20901,ABW1608545,Off Premise,AHIJ INC,Yes,"536 FOREST GLEN ROAD
SILVER SPRING, MD 20901
(39.01654, -77.01872)"
EL MARIACHI,765 ROCKVILLE PIKE,ROCKVILLE,MD,20852,BBWLHR151,On Premise,"TIO RESTAURANTER, INC.",No,"765 ROCKVILLE PIKE
ROCKVILLE, MD 20852
(39.07765, -77.14137)"
SALSA WITH SILVIA,4731 ELM ST.,BETHESDA,MD,20814,DBWL339262,On Premise,"SALSA WITH SILVIA BALLROOM, LLC",No,"4731 ELM ST.
BETHESDA, MD 20814
(38.98216, -77.09548)"
N-OLNEY ALE HOUSE,2000 OLNEY SANDY SPRING RD,OLNEY,MD,20832,BBWLHR1378544,On Premise,2000 OLNEY SANDY SPRING INC,No,"2000 OLNEY SANDY SPRING RD
OLNEY, MD 20832
(39.14453, -77.04399)"
KUMBIA RESTAURANT,100 B GIBBS ST.,ROCKVILLE,MD,20850,BBWLHR699358,On Premise,"KUMBIA ENTERTAINMENT GROUP, LLC",No,"100 B GIBBS ST.
ROCKVILLE, MD 20850
(39.08552, -77.15194)"
HUMITOS GRILL RESTAURANT,8371 SNOUFFER SCHOOL RD.,GAITHERSBURG,MD,20879,BBWLHR688356,On Premise,"HUMITOS GBEI, LLC",No,"8371 SNOUFFER SCHOOL RD.
GAITHERSBURG, MD 20879
(39.1669, -77.17146)"
VACE,4705 MILLER AVE,BETHESDA,MD,20814,ABW136,Off Premise,VACE INC.,No,"4705 MILLER AVE
BETHESDA, MD 20814
(38.9808, -77.09317)"
TOURNAMENT PLAYERS CLUB AT AVENEL,10000 OAKLYN DRIVE,POTOMAC,MD,20854,CBWLCC018,On Premise,"TOURNAMENT PLAYERS AT AVENEL, LLC",No,"10000 OAKLYN DRIVE
POTOMAC, MD 20854
(38.99255, -77.19415)"
THE OLNEY GRILLE,3464 OLNEY-LAYTONSVILLE ROAD,OLNEY,MD,20832,BBWLHR31000,On Premise,"OLNEY GRILLE, INC.",No,"3464 OLNEY-LAYTONSVILLE ROAD
OLNEY, MD 20832
(39.15337, -77.06852)"
O'DONNELL'S MARKET,1073 SEVEN LOCKS ROAD,ROCKVILLE,MD,20854,HBW21614,On Premise,"O'DONNELL'S MARKET, LLC",No,"1073 SEVEN LOCKS ROAD
ROCKVILLE, MD 20854
(39.06186, -77.16)"
THE FILLMORE SILVER SPRING,8656 COLESVILLE RD,SILVER SPRING,MD,20910,BBWLPA28293,On Premise,"DLS EVENTS, LLC",No,"8656 COLESVILLE RD
SILVER SPRING, MD 20910
(38.9973, -77.02727)"
SNIDERS SUPER FOODS,1936 SEMINARY RD.,SILVER SPRING,MD,20910,ABWS382274,Off Premise,"SNIDERS FAMILY GROCERY, INC.",Yes,"1936 SEMINARY RD.
SILVER SPRING, MD 20910
(39.00911, -77.0418)"
TOMATILLO MEXICAN GRILL,2232 VEIRS MILL ROAD,ROCKVILLE,MD,20851,HBW241,On Premise,"EL PRIMER PASO, INC.",No,"2232 VEIRS MILL ROAD
ROCKVILLE, MD 20851
(39.07528, -77.11396)"
UNCORKED,"8525 CHEVY CHASE LAKE TERRACE, SUITE 301",CHEVY CHASE,MD,20815,BDBWL623355,On/Off-Premise,"THE CHASE, LLC",Yes,"8525 CHEVY CHASE LAKE TERRACE, SUITE 301
CHEVY CHASE, MD 20815
(38.99582, -77.07597)"
EATHAI,"4011 E. NORBECK RD, UNIT E",ROCKVILLE,MD,20853,HBW25816,On Premise,"121 FOOD & SERVICE, INC.",No,"4011 E. NORBECK RD, UNIT E
ROCKVILLE, MD 20853
(39.10993, -77.07759)"
THE SPOT,255 NORTH WASHINGTON STREET,ROCKVILLE,MD,20850,BBWLHR36111,On Premise,"WL GROUP, LLC",No,"255 NORTH WASHINGTON STREET
ROCKVILLE, MD 20850
(39.08783, -77.15257)"
SUPER CHICKEN-WHEATON,2531 ENNALLS AVE,WHEATON,MD,20902,HBWHR33664,On Premise,STRATUS INTERNATIONAL INC,No,"2531 ENNALLS AVE
WHEATON, MD 20902
(39.03996, -77.05358)"
EXHALE SMOKE SHOP,8203 GEORGIA AVE,SILVER SPRING,MD,20910,DBW1062479,On/Off-Premise,"EXHALE SMOKE SHOP, LLC",No,"8203 GEORGIA AVE
SILVER SPRING, MD 20910
(38.99176, -77.0266)"
LA FONDA CHIQUITA CAFE,6838 NEW HAMPSHIRE AVE,TAKOMA PARK,MD,20912,HBW103,On Premise,"CGDV, INC.",No,"6838 NEW HAMPSHIRE AVE
TAKOMA PARK, MD 20912
(38.97441, -76.9956)"
PALMERAS RESTAURANT,2545 ENNALLS AVE,WHEATON,MD,20902,BBWLHR949410,On Premise,PALMERAS RESTAURANT LLC,No,"2545 ENNALLS AVE
WHEATON, MD 20902
(39.03981, -77.05389)"
TEMARI CAFE,1043 ROCKVILLE PIKE,ROCKVILLE,MD,20852,HBW139,On Premise,"NAKA, INC.",No,"1043 ROCKVILLE PIKE
ROCKVILLE, MD 20852
(39.0715, -77.13326)"
CALIENTE RESTAURANT & BAR,2442 ENNALLS AVE,SILVER SPRING,MD,20902,BBWLHR763,On Premise,"CALIENTE RESTAURANT & BAR, COR",No,"2442 ENNALLS AVE
SILVER SPRING, MD 20902
(39.04042, -77.05247)"
WASABI ZEN,18066 GEORGIA AVE,OLNEY,MD,20832,HBW121,On Premise,"WASABI ZEN JAPANESE CUIS., INC",No,"18066 GEORGIA AVE
OLNEY, MD 20832
(39.15258, -77.06765)"
EL ANDARIEGO,5 OLNEY SANDY SPRING ROAD,ASHTON,MD,20861,BBWLHR111,On Premise,EL ANDARIEGO,No,"5 OLNEY SANDY SPRING ROAD
ASHTON, MD 20861
(39.14985, -77.01296)"
CUBANO'S RESTAURANT 2,4907 CORDELL AVE.,BETHESDA,MD,20814,BBWLHR43805,On Premise,"MENDEZ & MENDEZ, INC.",No,"4907 CORDELL AVE.
BETHESDA, MD 20814
(38.9893, -77.09836)"
VISARTS,"155 GIBBS STREET, SUITE 300",ROCKVILLE,MD,20850,SBWLCPA01,On Premise,METROPOLITAN CENTER FOR THE VI,No,"155 GIBBS STREET, SUITE 300
ROCKVILLE, MD 20850
(39.08673, -77.15201)"
AMC RIO CINEMAS 18,9811 WASHINGTONIAN BLVD,GAITHERSBURG,MD,20878,BBWLHR28489,On Premise,"AMC OF MARYLAND, LLC",No,"9811 WASHINGTONIAN BLVD
GAITHERSBURG, MD 20878
(39.11547, -77.19812)"
HAWKERS ASIAN STREET FARE,7117 BETHESDA LN.,BETHESDA,MD,20814,BBWLHR208260,On Premise,"HAWKERS BETHESDA, LLC",No,"7117 BETHESDA LN.
BETHESDA, MD 20814
(38.9814, -77.09777)"
MYKONOS RESTAURANT,7965 TUCKERMAN LANE,POTOMAC,MD,20854,BBWLHR1544544,On Premise,"GEROSO, LLC",No,"7965 TUCKERMAN LANE
POTOMAC, MD 20854
(39.04046, -77.15847)"
MINERVA INDIAN CUISINE,16240 FREDERICK ROAD #201,GAITHERSBURG,MD,20877,BBWLHR054,On Premise,MINERVA HOSPITALITY,No,"16240 FREDERICK ROAD #201
GAITHERSBURG, MD 20877
(39.12163, -77.17752)"
ROUND HOUSE THEATRE,4545 EAST-WEST HIGHWAY,BETHESDA,MD,20814,SBWLCPA70602,On Premise,"ROUND HOUSE THEATRE, INC.",No,"4545 EAST-WEST HIGHWAY
BETHESDA, MD 20814
(38.98486, -77.09247)"
"HOLLYWOOD BEER, WINE, & DELI",12703 NEW HAMPSHIRE AVENUE,SILVER SPRING,MD,20904,ABW1458544,Off Premise,"SANG KIM ENTERPRISES, LLC",Yes,"12703 NEW HAMPSHIRE AVENUE
SILVER SPRING, MD 20904
(39.06478, -76.99933)"
POTOMAC BEER & WINE,9700 TRAVILLE GATEWAY DR.,ROCKVILLE,MD,20850,ABW055,Off Premise,"JINHYE, INC.",Yes,"9700 TRAVILLE GATEWAY DR.
ROCKVILLE, MD 20850
(39.0913, -77.20428)"
GAITHERSTOWNE BEER & WINE,296 N. FREDERICK AVENUE,GAITHERSBURG,MD,20877,ABW284,Off Premise,GAITHERSTOWNE BEER & WINE,Yes,"296 N. FREDERICK AVENUE
GAITHERSBURG, MD 20877
(39.14465, -77.20317)"
THE DAILY DISH,"8301 GRUBB ROAD, UNIT A",SILVER SPRING,MD,20910,BBWLHR580,On Premise,"WJ HOLLINGER, LLC",No,"8301 GRUBB ROAD, UNIT A
SILVER SPRING, MD 20910
(38.99242, -77.04841)"
ERTTERS MARKET,521 DALE DR.,SILVER SPRING,MD,20910,ABWS524348,Off Premise,"TEA'S ERTTERS, LLC",Yes,"521 DALE DR.
SILVER SPRING, MD 20910
(39.00031, -77.01741)"
THE BARKING DOG,4723 ELM STREET,BETHESDA,MD,20814,BBWLHR205,On Premise,SMC INC,No,"4723 ELM STREET
BETHESDA, MD 20814
(38.98218, -77.09519)"
THAIROCK,12071 ROCKVILLE PIKE,ROCKVILLE,MD,20852,BBWLHR1494544,On Premise,"THAIFOCK, LLC",No,"12071 ROCKVILLE PIKE
ROCKVILLE, MD 20852
(39.05469, -77.11781)"
JOY BY SEVEN REASONS,5471-F WISCONSN AVE,CHEVY CHASE,MD,20815,BBWLHR882398,On Premise,JOY7R LLC,No,"5471-F WISCONSN AVE
CHEVY CHASE, MD 20815
(38.96283, -77.08659)"
6/12 CONVENIENT MART,14100-C DARNESTOWN RD.,GERMANTOWN,MD,20874,DBW43142,On/Off-Premise,"AKSHAT ENTERPRISES, LLC",Yes,"14100-C DARNESTOWN RD.
GERMANTOWN, MD 20874
(39.10322, -77.29227)"
N-FINGERPRINTING,202 EDISON PARK DR,GAITHERSBURG,MD,20878,34229,On Premise,FINGERPRINTING,No,"202 EDISON PARK DR
GAITHERSBURG, MD 20878
(39.11161, -77.23531)"
"BONCHON, 3161",107 GIBBS ST UNIT A,ROCKVILLE,MD,20850,BBWLHR779373,On Premise,REYANSH VENTURES LLC,No,"107 GIBBS ST UNIT A
ROCKVILLE, MD 20850
(39.08549, -77.15194)"
WILD TOMATO,"7945 MACARTHUR BLVD, #103",CABIN JOHN,MD,20818,BBWLHR631,On Premise,"CLEMENTINE CAFE, LLC",No,"7945 MACARTHUR BLVD, #103
CABIN JOHN, MD 20818
(38.97497, -77.16256)"
EMPRESS COFFEE,325 MAIN STREET,GAITHERSBURG,MD,20878,BBWLHR1274551,On Premise,EMPRESS COFFEE LLC,No,"325 MAIN STREET
GAITHERSBURG, MD 20878
(39.12172, -77.23825)"
ASHTON BEER & WINE,7 OLNEY SANDY SPRING ROAD,ASHTON,MD,20861,DBW085,On/Off-Premise,JOCELYN INC.,Yes,"7 OLNEY SANDY SPRING ROAD
ASHTON, MD 20861
(39.14985, -77.01295)"
NEW YORK J&P PIZZA,26027 RIDGE RD.,DAMASCUS,MD,20872,HBWHR485306,On Premise,"FIVEPAR, LLC",No,"26027 RIDGE RD.
DAMASCUS, MD 20872
(39.28471, -77.20792)"
"OLLIE'S BEER, WINE AND DELI",2011-A VIERS MILL ROAD,ROCKVILLE,MD,20851,ABW287,Off Premise,"SREYPICH, LLC",Yes,"2011-A VIERS MILL ROAD
ROCKVILLE, MD 20851
(39.07488, -77.11622)"
DRAGON CITY,918 SLIGO AVE.,SILVER SPRING,MD,20910,ABW669356,Off Premise,"DRAGON CITY, LLC",No,"918 SLIGO AVE.
SILVER SPRING, MD 20910
(38.99019, -77.02432)"
NEEDWOOD GOLF COURSE,6724 NEEDWOOD ROAD,DERWOOD,MD,20855,BBWLCL229,On Premise,MONTGOMERY CO. REV.AUTHORITY,No,"6724 NEEDWOOD ROAD
DERWOOD, MD 20855
(39.1217, -77.13906)"
TACO BELL CANTINA,8662 & 8666 COLESVILLE ROAD,SILVER SPRING,MD,20910,BBWLHR1176494,On Premise,TB CANTINA LLC,No,"8662 & 8666 COLESVILLE ROAD
SILVER SPRING, MD 20910
(38.99749, -77.02714)"
GROVE BEER AND WINE,16825 CRABBS BRANCH WAY,DERWOOD,MD,20855,ABW199,Off Premise,AIMIE CORP.,Yes,"16825 CRABBS BRANCH WAY
DERWOOD, MD 20855
(39.13122, -77.16727)"
HOP N GRAPE,11416 ROCKVILLE PIKE,ROCKVILLE,MD,20852,ABWS26365,Off Premise,"HOP N GRAPE, INC",Yes,"11416 ROCKVILLE PIKE
ROCKVILLE, MD 20852
(39.04316, -77.11111)"
N-Aitana Elorriaga,3850 Boston St,Baltimore,MD,21224,2024,,,No,"3850 Boston St
Baltimore, MD 21224
(39.27721, -76.56162)"
ROCKVILLE MOOSE LODGE #1540,13755 TRAVILAH ROAD,ROCKVILLE,MD,20850,CBWLFV018,On Premise,LOYAL ORDER OF MOOSE ROCKVILLE,No,"13755 TRAVILAH ROAD
ROCKVILLE, MD 20850
(39.0798, -77.23789)"
LENOX BEER & WINE GOURMET MKT,8395 COLESVILLE RD.,SILVER SPRING,MD,20910,ABW219,Off Premise,"BTG HOLDINGS, INC.",Yes,"8395 COLESVILLE RD.
SILVER SPRING, MD 20910
(38.99322, -77.03305)"
FISH TACO OF WOODMONT,7251 WOODMONT AVENUE,BETHESDA,MD,20814,BBWLHR36066,On Premise,"FISH TACO OF WOODMONT, LLC",No,"7251 WOODMONT AVENUE
BETHESDA, MD 20814
(38.98155, -77.09583)"
THE MARKET AT RIVER FALLS,10124 RIVER ROAD,POTOMAC,MD,20854,ABWS19213,Off Premise,"JAAT, INC.",No,"10124 RIVER ROAD
POTOMAC, MD 20854
(39.01676, -77.20909)"
YIRASAI SUSHI & CAFE,12525 PARK POTOMAC AVE,POTOMAC,MD,20854,HBW093,On Premise,YIRASHI SUSHI & CAFE INC,No,"12525 PARK POTOMAC AVE
POTOMAC, MD 20854
(39.06103, -77.15733)"
INFERNO PIZZERIA,12207 DARNESTOWN ROAD,GAITHERSBURG,MD,20878,HBW22015,On Premise,"PIZZERIA INFERNO, LLC",No,"12207 DARNESTOWN ROAD
GAITHERSBURG, MD 20878
(39.11853, -77.2539)"
CROWN,8233 GEORGIA  AVENUE,SILVER SPRING,MD,20910,ABWS1217494,Off Premise,DDT GROUP LLC,Yes,"8233 GEORGIA AVENUE
SILVER SPRING, MD 20910
(38.99265, -77.02661)"
LILIT CAFE,7921 OLD GEORGETOWN ROAD,BETHESDA,MD,20814,DBW1190502,On/Off-Premise,GOPAL LLC,No,"7921 OLD GEORGETOWN ROAD
BETHESDA, MD 20814
(38.98869, -77.1008)"
DOG HAUS BIERGARTEN-SS,933 ELLSWORTH DR.,SILVER SPRING,MD,20910,BBWLHR471301,On Premise,"DHSS, LLC",No,"933 ELLSWORTH DR.
SILVER SPRING, MD 20910
(38.99561, -77.0268)"
OLDE TOWNE CAFE,226 E. DIAMOND AVE.,GAITHERSBURG,MD,20877,BBWLHR359274,On Premise,OLDE TOWNE CAFE LLC,No,"226 E. DIAMOND AVE.
GAITHERSBURG, MD 20877
(39.14218, -77.1935)"
MIDDLE EAST CUISINE,7006 CARROLL AVE,TAKOMA PARK,MD,20912,BBWLHR041,On Premise,"3H BROTHERS, INC.",No,"7006 CARROLL AVE
TAKOMA PARK, MD 20912
(38.97486, -77.01196)"
RUSSIAN GOURMET,11431 ROCKVILLE PIKE,ROCKVILE,MD,20852,ABWS779369,On/Off-Premise,MATRESHKA LLC,No,"11431 ROCKVILLE PIKE
ROCKVILE, MD 20852
(39.04433, -77.11098)"
AFI SILVER THEATRE&CULTURAL CENTER,8633 COLESVILLE ROAD,SILVER SPRING,MD,20910,SBWLCPA1059463,On Premise,AMERICAN FILM INSTITUTE,No,"8633 COLESVILLE ROAD
SILVER SPRING, MD 20910
(38.99662, -77.02772)"
THAI CHEF,29 MARYLAND AVE.,ROCKVILLE,MD,20850,BBWLHR531351,On Premise,"WESTON, INC.",No,"29 MARYLAND AVE.
ROCKVILLE, MD 20850
(39.08631, -77.15103)"
SENECA MEADOWS BEER & WINE,"20640 SENECA MEADOWS PARKWAY,",GERMANTOWN,MD,20876,ABW271,Off Premise,"ARIDI ENTERPRISE, INC",Yes,"20640 SENECA MEADOWS PARKWAY,
GERMANTOWN, MD 20876
(39.19877, -77.2548)"
WOODSIDE DELI II,13048 MIDDLEBROOK ROAD,GERMANTOWN,MD,20874,HBW250,On Premise,ZKB CORPORATION,No,"13048 MIDDLEBROOK ROAD
GERMANTOWN, MD 20874
(39.18129, -77.2716)"
CONGRESSIONAL COUNTRY CLUB,8500 RIVER ROAD,POTOMAC,MD,20817,CBWLCCO010,On Premise,"CONGRESSIONAL COUNTRY CLUB, IN",No,"8500 RIVER ROAD
POTOMAC, MD 20817
(39.00007, -77.17607)"
SOUTH HOUSE GARDEN,317 E. DIAMOND AVE.,GAITHERSBURG,MD,20877,BBWLHR438274,On Premise,"SOUTH HOUSE GARDEN, LLC",No,"317 E. DIAMOND AVE.
GAITHERSBURG, MD 20877
(39.14196, -77.19103)"
STAINED GLASS PUB,12510 LAYHILL ROAD,SILVER SPRING,MD,20906,BBWLHR192,On Premise,"THE PUB OF GLENMONT, INC.",No,"12510 LAYHILL ROAD
SILVER SPRING, MD 20906
(39.06183, -77.05131)"
THE GREENE TURTLE,15660 OLD COLUMBIA PIKE,BURTONSVILLE,MD,20866,BBWLHR41479,On Premise,"GT BURTONSVILLE 19, LLC",No,"15660 OLD COLUMBIA PIKE
BURTONSVILLE, MD 20866
(39.11213, -76.93313)"
JK BEER & WINE,331 KENTLANDS BLVD,GAITHERSURG,MD,20878,ABWS463301,Off Premise,"JK BEER & WINE, LLC",No,"331 KENTLANDS BLVD
GAITHERSURG, MD 20878
(39.12381, -77.23976)"
SILVER BRANCH LAGERHAUS & BIERGARTEN,8401 COLESVILLE ROAD,SILVER SPRING,MD,20910,BDBWL36146,On/Off-Premise,"PARALLEL WORLD BREWING CO., LLC",No,"8401 COLESVILLE ROAD
SILVER SPRING, MD 20910
(38.99435, -77.0309)"
KANTUTAS RESTAURANT BAR & GRILL,2400 UNIVERSITY BLVD WEST UNIT 1,SILVER SPRING,MD,20902,BDBWL919412,On/Off-Premise,KANTUTAS RESTAURANT INC,No,"2400 UNIVERSITY BLVD WEST UNIT 1
SILVER SPRING, MD 20902
(39.04155, -77.0506)"
CURRY PLACE,12951 WISTERIA DRIVE,GERMANTOWN,MD,20874,BBWHR124,On/Off-Premise,CURRY PLACE LLC,No,"12951 WISTERIA DRIVE
GERMANTOWN, MD 20874
(39.17831, -77.27016)"
MIDDLEBROOK DISCOUNT BEER AND WINE,19601 FREDERICK ROAD,GERMANTOWN,MD,20876,ABW1756544,Off Premise,SHIV LLC,Yes,"19601 FREDERICK ROAD
GERMANTOWN, MD 20876
(39.17758, -77.23842)"
LUCKY STRIKE,7101 DEMOCRACY BLVD,BETHESDA,MD,20817,BBWLHR1065437,On Premise,AMF BOWLING CENTERS INC,No,"7101 DEMOCRACY BLVD
BETHESDA, MD 20817
(39.0242, -77.1459)"
CAPITAL BEER & WINE,7903 NORFOLK AVE,BETHESDA,MD,20814,ABWS233,Off Premise,"BETHESDA BEER & WINE, LLC",Yes,"7903 NORFOLK AVE
BETHESDA, MD 20814
(38.98904, -77.09746)"
BEER & WINE PLUS,11512 MIDDLEBROOK RD,GERMANTOWN,MD,20876,ABWS1018420,Off Premise,"ANNA'S DELI PLUS, INC",Yes,"11512 MIDDLEBROOK RD
GERMANTOWN, MD 20876
(39.17985, -77.23896)"
BLACK MARKET BISTRO,4600 WAVERLY AVE,GARRETT PARK,MD,20896,BBWHR004,On/Off-Premise,"M.W. TAPPAN, LLC,",No,"4600 WAVERLY AVE
GARRETT PARK, MD 20896
(39.03835, -77.093)"
BUFFALO WILD WINGS-ROCKVILLE,33 MARYLAND AVE.,ROCKVILLE,MD,20850,BBWLHR389275,On Premise,"BWW LEX PARK, LLC",No,"33 MARYLAND AVE.
ROCKVILLE, MD 20850
(39.08574, -77.15099)"
GIUSEPPI'S PIZZA PLUS - GAITH,335 KENTLANDS BOULEVARD,GAITHERSBURG,MD,20878,HBW068,On Premise,"STEEL CITY PIZZA, INC.",No,"335 KENTLANDS BOULEVARD
GAITHERSBURG, MD 20878
(39.12391, -77.23994)"
TAVIRA RESTAURANT,8401 CONNECTICUT AVE,CHEVY CHASE,MD,20815,BBWLHR1213497,On Premise,TAVIRA LLC,No,"8401 CONNECTICUT AVE
CHEVY CHASE, MD 20815
(38.99423, -77.07606)"
BANGKOK GARDEN-ROCKVILLE,891-D ROCKVILLE PIKE,ROCKVILLE,MD,20852,HBWHR209259,On/Off-Premise,"V&Y FOOD, LLC",No,"891-D ROCKVILLE PIKE
ROCKVILLE, MD 20852
(39.07426, -77.13681)"
ALFIO'S,4515 WILLARD AVENUE,CHEVY CHASE,MD,20815,BBWLHR830,On Premise,"ALFIO'S, LLC",No,"4515 WILLARD AVENUE
CHEVY CHASE, MD 20815
(38.96216, -77.08983)"
TORCHY'S TACOS,12266 A ROCKVILLE PIKE,ROCKVILLE,MD,20852,BBWLHR1165494,On Premise,SUCCESS FOODS MANAGEMENT GROUP LLC,No,"12266 A ROCKVILLE PIKE
ROCKVILLE, MD 20852
(39.05729, -77.12168)"
FLOWER DELICATESSEN,8707 FLOWER AVE,SILVER SPRING,MD,20901,BBWHR044,On/Off-Premise,"MFM, INC.",Yes,"8707 FLOWER AVE
SILVER SPRING, MD 20901
(38.99865, -77.0035)"
BOB'S SHANGHAI 66,305 N WASHINGTON ST,ROCKVILLE,MD,20850,HBWHR1232515,On Premise,BOB'S SHANGHAI 66 INC,No,"305 N WASHINGTON ST
ROCKVILLE, MD 20850
(39.08872, -77.15288)"
SQUISITO PIZZA & PASTA,15654 OLD COLUMBIA PIKE,BURTONSVILLE,MD,20866,HBWHR43859,On Premise,"PUNCEATYME, INC.",No,"15654 OLD COLUMBIA PIKE
BURTONSVILLE, MD 20866
(39.11285, -76.93322)"
BRIGGS CHANEY DELI,13832 OUTLET DRIVE,SILVER SPRING,MD,20904,DBW150,On/Off-Premise,"TALATI ENTERPRISES, INC",Yes,"13832 OUTLET DRIVE
SILVER SPRING, MD 20904
(39.08336, -76.94571)"
LA BRASITA RESTAURANT,7206 MUNCASTER MILL RD.,DERWOOD,MD,20855,BBWLHR192260,On Premise,"LA ESQUINA, LLC",No,"7206 MUNCASTER MILL RD.
DERWOOD, MD 20855
(39.14501, -77.1447)"
EL AGUILA-RANDOLPH ROAD,55 RANDOLPH RD.,SILVER SPRING,MD,20904,BBWLHR203297,On Premise,"JWA, LLC",No,"55 RANDOLPH RD.
SILVER SPRING, MD 20904
(39.07545, -77.00395)"
OGEIS CHICKEN & SUBS,293 MUDDY BRANCH ROAD,GAITHERSBURG,MD,20878,BBWLHR31868,On Premise,A.C. GRILL INC.,No,"293 MUDDY BRANCH ROAD
GAITHERSBURG, MD 20878
(39.12812, -77.20879)"
DOWNTOWN BREW'S,5751 E FISHERS LANE,ROCKVILLE,MD,20852,DBW942419,On/Off-Premise,"DOWNTOWN BREW'S INVESTMENTS, LLC",No,"5751 E FISHERS LANE
ROCKVILLE, MD 20852
(39.06275, -77.11757)"
ROSCOE'S NEAPOLITAN PIZZERIA,7040 CARROLL AVE,TAKOMA PARK,MD,20912,BBWLHR543,On Premise,"MU & CD, LLC",No,"7040 CARROLL AVE
TAKOMA PARK, MD 20912
(38.9752, -77.01128)"
ASIA NINE II,254 CROWN PARK ROAD,GAITHERSBURG,MD,20878,BBWLHR861,On Premise,"THAIDEE, INC",No,"254 CROWN PARK ROAD
GAITHERSBURG, MD 20878
(39.11394, -77.20509)"
MAMMA LUCIA - OLNEY,18224 VILLAGE MART DRIVE,OLNEY,MD,20832,BBWLHR204,On Premise,"MAMMA LUCIA OF OLNEY, INC.",No,"18224 VILLAGE MART DRIVE
OLNEY, MD 20832
(39.1539, -77.06431)"
THE THAI CUISINE RESTAURANT,757 HUNGERFORD DRIVE,ROCKVILLE,MD,20850,HBW285,On Premise,THE THAI CUISINE RESTAURANT 20,No,"757 HUNGERFORD DRIVE
ROCKVILLE, MD 20850
(39.09332, -77.15311)"
GRINGOS & MARIACHIS RESTAURANT,12435 PARK POTOMAC AVENUE,POTOMAC,MD,20854,BBWLHR28338,On Premise,"POTOMAC GRINGOS, LLC",No,"12435 PARK POTOMAC AVENUE
POTOMAC, MD 20854
(39.05944, -77.15757)"
BETHESDA CO-OP,6500 SEVEN LOCKS ROAD,CABIN JOHN,MD,20818,ABWS099,Off Premise,"BETHESDA COMMUNITY FOOD STORE,",No,"6500 SEVEN LOCKS ROAD
CABIN JOHN, MD 20818
(38.97517, -77.16193)"
TED'S BULLETIN,220 ELLINGTON BOULEVARD,GAITHERSBURG,MD,20878,BBWLHR33121,On Premise,"TB CROWN FARM, LLC",No,"220 ELLINGTON BOULEVARD
GAITHERSBURG, MD 20878
(39.11454, -77.20549)"
COSTA GRANDE RESTAURANT,15883 REDLAND ROAD,DERWOOD,MD,20855,DBW1294549,On/Off-Premise,COSTA GRANDE MEXICAN RESTAURANT LLC,No,"15883 REDLAND ROAD
DERWOOD, MD 20855
(39.11694, -77.16488)"
DOUBLETREE WASH. DC N. GAITHERSBURG,620 PERRY PKWY,GAITHERSBURG,MD,20877,BBWLHR36508,On Premise,"GAITHERSBURG OPERATOR, LLC",No,"620 PERRY PKWY
GAITHERSBURG, MD 20877
(39.14899, -77.21326)"
SAKE JAPANESE STEAKHOUSE,11006 VIERS MILL ROAD,WHEATON,MD,20902,BBWLHR1457544,On Premise,"WHEATON HIBACHI, INC",No,"11006 VIERS MILL ROAD
WHEATON, MD 20902
(39.03697, -77.05123)"
THE HUNTERS HOUNDS,5471 WISCONSIN AVE.,CHEVY CHASE,MD,20815,BDBWL642356,On/Off-Premise,"QUEEN BEE GROUP, INC.",No,"5471 WISCONSIN AVE.
CHEVY CHASE, MD 20815
(38.96283, -77.08659)"
MELTING POT,9021 GAITHER ROAD,GAITHERSBURG,MD,20877,BBWLHR218,On Premise,BERK INC.,No,"9021 GAITHER ROAD
GAITHERSBURG, MD 20877
(39.11768, -77.18495)"
LUCY KITCHEN,8301 GEORGIA AVE.,SILVER SPRING,MD,20910,BBWLHR268261,On Premise,"YUMMY, LLC",No,"8301 GEORGIA AVE.
SILVER SPRING, MD 20910
(38.99309, -77.02663)"
COAL FIRE,116 MAIN STREET,GAITHERSBURG,MD,20878,BBWLHR586,On Premise,"COAL FIRE PIZZA OF KENTLANDS,",No,"116 MAIN STREET
GAITHERSBURG, MD 20878
(39.12453, -77.23764)"
NIRVANA INDIAN CUSINE,3474 OLNEY LAYTONSVILLE ROAD,OLNEY,MD,20832,HBWHR31664,On Premise,NIRVANA RESTAURANT LLC,No,"3474 OLNEY LAYTONSVILLE ROAD
OLNEY, MD 20832
(39.15328, -77.06854)"
VIRRAAJ,4914 CORDELL AVE.,BETHESDA,MD,20814,BBWLHR309260,On Premise,"VIRAAJ REST. GROUP,LLC",No,"4914 CORDELL AVE.
BETHESDA, MD 20814
(38.989, -77.09847)"
SAGAR BEER & WINE,615 SOUTH FREDERICK AVENUE,GAITHERSBURG,MD,20877,DBW34224,On/Off-Premise,"DAY & NIGHT BEER WINE, LLC",Yes,"615 SOUTH FREDERICK AVENUE
GAITHERSBURG, MD 20877
(39.12912, -77.18589)"
KNIGHTS OF COLUMBUS #2797,5417 WEST CEDAR LANE,BETHESDA,MD,20814,CBWLFV010,On Premise,ROCK CREEK COUNCIL #2797,No,"5417 WEST CEDAR LANE
BETHESDA, MD 20814
(39.00524, -77.10934)"
WOODMONT MARKET,"8227 WOODMONT AVE, UNIT A",BETHESDA,MD,20814,ABW213,Off Premise,"WOODMONT MARKET, INC.",Yes,"8227 WOODMONT AVE, UNIT A
BETHESDA, MD 20814
(38.99243, -77.09701)"
NOVA EUROPA RESTAURANT,1311 LAMBERTON DRIVE,SILVER SPRING,MD,20902,BBWLHR091,On Premise,"NOVA EUROPA RESTURANT, INC.",No,"1311 LAMBERTON DRIVE
SILVER SPRING, MD 20902
(39.041, -77.03087)"
RIO GRANDE BAR & GRILL,13541 CLOPPER RD,GERMANTOWN,MD,20874,BBWLHR901425,On Premise,HRS LLC,No,"13541 CLOPPER RD
GERMANTOWN, MD 20874
(39.16251, -77.28065)"
MAIN STREET BEER & WINE,300 MAIN STREET,GAITHERSBURG,MD,20878,ABW237,Off Premise,"INFINITY CREATIONS, LLC",Yes,"300 MAIN STREET
GAITHERSBURG, MD 20878
(39.12196, -77.23856)"
NINJA SUSHI,13452 NEW HAMPSHIRE AVE,SILVER SPRING,MD,20904,BBWLHR1466547,On Premise,,No,"13452 NEW HAMPSHIRE AVE
SILVER SPRING, MD 20904
(39.07671, -77.00182)"
ARTS ON THE GREEN,311 KENT SQUARE ROAD,GAITHERSBURG,MD,20878,STBW1072567,On Premise,CITY OF GAITHERSBURG,No,"311 KENT SQUARE ROAD
GAITHERSBURG, MD 20878
(39.11854, -77.23924)"
SMOKE BBQ,4858 CORDELL AVE,BETHESDA,MD,20814,BDBWLHR1070165,On/Off-Premise,"DESIGNS BY M, LLP",No,"4858 CORDELL AVE
BETHESDA, MD 20814
(38.98986, -77.09724)"
MOTORKAT,6939 LAUREL AVE,TAKOMA PARK,MD,20912,BBWLHR1015421,On Premise,ORSON WELLS LLC,No,"6939 LAUREL AVE
TAKOMA PARK, MD 20912
(38.97463, -77.0122)"
EL BOTANERO,800 PLEASANT DR,ROCKVILLE,MD,20850,BDBWL24075,On/Off-Premise,"JMK, LLC",No,"800 PLEASANT DR
ROCKVILLE, MD 20850
(39.11348, -77.17079)"
THAI HOUSE RESTAURANT,8369 SNOUFFER SCHOOL ROAD,GAITHERSBURG,MD,20879,DBW135,On/Off-Premise,"AEY, INC.",No,"8369 SNOUFFER SCHOOL ROAD
GAITHERSBURG, MD 20879
(39.16686, -77.17139)"
VIBE RESTAURANT AND LOUNGE,8081 B & C GEORGIA AVE.,SILVER SPRING,MD,20910,DBWL656365,On Premise,"SKY BLUE LOUNGE, LLC",No,"8081 B & C GEORGIA AVE.
SILVER SPRING, MD 20910
(38.99013, -77.02637)"
RUTA UKRAINIAN RESTAURANT,4862 CORDELL AVENUE,BETHESDA,MD,20814,BBWLHR1322544,On Premise,"RUTA BETHESDA, LLC",No,"4862 CORDELL AVENUE
BETHESDA, MD 20814
(38.98976, -77.09772)"
LA MALINCHE,8622 COLESVILLE ROAD,SILVER SPRING,MD,20910,BBWLHR750,On Premise,"BSZ & BROTHERS, LLC",No,"8622 COLESVILLE ROAD
SILVER SPRING, MD 20910
(38.99685, -77.02757)"
JULII,11915 GRAND PARK AVENUE,NORTH BETHESDA,MD,20852,BBWLHR35087,On Premise,"BTI HOSPITALITY, LLC",No,"11915 GRAND PARK AVENUE
NORTH BETHESDA, MD 20852
(39.05108, -77.11756)"
PHO WHEATON & BANH MI,11232 GRANDVIEW AVE,SILVER SPRING,MD,20902,HBW034,On Premise,SAIGONESE RESTAURANT INC.,No,"11232 GRANDVIEW AVE
SILVER SPRING, MD 20902
(39.03944, -77.05248)"
BEERS & CHEERS TOO,678 QUINCE ORCHARD ROAD,GAITHERSBURG,MD,20878,DBW23668,On/Off-Premise,"BEERS AND CHEERS TOO, LLC",Yes,"678 QUINCE ORCHARD ROAD
GAITHERSBURG, MD 20878
(39.14079, -77.22285)"
BETHESDA ROW CAFE,7235 WOODMONT AVE.,BETHESDA,MD,20814,BBWLHR41999,On Premise,"CINEMA BEVERAGES HOLDING COMPANY, LLC",No,"7235 WOODMONT AVE.
BETHESDA, MD 20814
(38.98132, -77.09562)"
HUNTERS BAR & GRILL,10123 RIVER ROAD,POTOMAC,MD,20854,BBWLHR1129515,On Premise,"TGOR, LLC",No,"10123 RIVER ROAD
POTOMAC, MD 20854
(39.01838, -77.20836)"
THE BETHESDA BAZAR,8006 NORFOLK AVENUE,BETHESDA,MD,20814,ABWS160264,Off Premise,"AESOLUTIONS, LLC",Yes,"8006 NORFOLK AVENUE
BETHESDA, MD 20814
(38.99003, -77.09916)"
PHOLUSCIOUS,10048 DARNESTOWN ROAD,ROCKVILLE,MD,20850,HBW318,On Premise,"HAPPY HUB, INC.",No,"10048 DARNESTOWN ROAD
ROCKVILLE, MD 20850
(39.09577, -77.20702)"
SONG & SAZON,11272 GEORGIA AVE,SILVER SPRING,MD,20902,BBWLHR764,On Premise,"THE CUBANAKAN LOUNGE, INC.",No,"11272 GEORGIA AVE
SILVER SPRING, MD 20902
(39.04044, -77.05152)"
KOMA,8006 FLOWER AVENUE,TAKOMA PARK,MD,20912,BDBWL935409,On/Off-Premise,"KOMA COFFEE, LLC",No,"8006 FLOWER AVENUE
TAKOMA PARK, MD 20912
(38.98909, -77.00119)"
KNOWLES STATION WINE & COMPANY,10414 DETRICK AVE.,KENSINGTON,MD,20895,DBW30780,On/Off-Premise,DETRICK AND KNOWLES WINE & COMPANY LLC,Yes,"10414 DETRICK AVE.
KENSINGTON, MD 20895
(39.02794, -77.07798)"
ZN-SKY LOUNGE,,,,,BBWLHR945412,On Premise,"THE CUBANAKAN LOUNGE, INC.",No,
PELICANA CHICKEN,4 N WASHINGTON STREET,ROCKVILLE,MD,20850,BBWLHR1355544,On Premise,PELICANA ROCKVILLE INC,No,"4 N WASHINGTON STREET
ROCKVILLE, MD 20850
(39.08433, -77.15316)"
SAFEWAY,3333 SPARTAN ROAD,OLNEY,MD,20832,ABWS18689,Off Premise,"NAI SATURN EASTERN, LLC",Yes,"3333 SPARTAN ROAD
OLNEY, MD 20832
(39.15034, -77.0643)"
LONGHORN STEAKHOUSE,20017 CENTURY BLVD,GERMANTOWN,MD,20874,BBWLHR059,On Premise,RARE BEVERAGES OF MD INC,No,"20017 CENTURY BLVD
GERMANTOWN, MD 20874
(39.18345, -77.25859)"
THE ORGANIC BUTCHER OF BETHESDA,7925 OLD GEORGETOWN RD,BETHESDA,MD,20814,DBW888417,On/Off-Premise,"THE ORGANIC BUTCHER OF BETH., LLC",No,"7925 OLD GEORGETOWN RD
BETHESDA, MD 20814
(38.98874, -77.10089)"
MATCHBOX-BETHESDA,7278 WOODMONT AVE.,BETHESDA,MD,20814,BBWLHR95262,On Premise,"MATCHBOX BETHESDA, LLC",No,"7278 WOODMONT AVE.
BETHESDA, MD 20814
(38.98206, -77.09603)"
THE DISH & DRAM,10301 KENSINGTON PARKWAY,KENSINGTON,MD,20895,BKBWLHR26097,On Premise,"LEFTFORK, INC",No,"10301 KENSINGTON PARKWAY
KENSINGTON, MD 20895
(39.02523, -77.07107)"
PASSION FIN ASIAN BISTRO,4611 SANGAMORE ROAD,BETHESDA,MD,20816,BBWHR722,On/Off-Premise,"PASSION SUSHI, INC.",No,"4611 SANGAMORE ROAD
BETHESDA, MD 20816
(38.94875, -77.11848)"
KANPAI BBQ & SHABU SHABU BUFFET,"1701 ROCKVILLE PIKE, UNIT A10",ROCKVILLE,MD,20852,BBWLHR1458547,On Premise,KANPAI USA LLC,No,"1701 ROCKVILLE PIKE, UNIT A10
ROCKVILLE, MD 20852
(39.06056, -77.12336)"
ZT-MIDDLEBROOK DISCOUNT B & W,,,,,ABW257,Off Premise,"SOHRABS, INC",No,
CHICKEN POCHA,12933 WISTERIA DR,GERMANTOWN,MD,20874,BBWLHR1002420,On Premise,CHICKEN POCHA,No,"12933 WISTERIA DR
GERMANTOWN, MD 20874
(39.17806, -77.26973)"
CHARM THAI RESTAURANT,"8408 GEORGIA AVE, UNIT A",SILVER SPRING,MD,20910,HBW291,On Premise,"DEEWANDEEKERN, INC.",No,"8408 GEORGIA AVE, UNIT A
SILVER SPRING, MD 20910
(38.99375, -77.02666)"
TORTACOS,13024 MIDDLEBROOK ROAD,GERMANTOWN,MD,20874,BBWLHR1086432,On Premise,TORTACOS LLC,No,"13024 MIDDLEBROOK ROAD
GERMANTOWN, MD 20874
(39.18099, -77.27166)"
MAKI BAR,6831 WISCONSIN AVENUE,BETHESDA,MD,20815,HBW22695,On Premise,"NEW JOURNEY, LLC",No,"6831 WISCONSIN AVENUE
BETHESDA, MD 20815
(38.97858, -77.09063)"
LA GELATTERIA,10414 DETRICK AVE #500,KENSINGTON,MD,20895,BBWLHR779375,On Premise,LA GELATTERIA LLC,No,"10414 DETRICK AVE #500
KENSINGTON, MD 20895
(39.02794, -77.07798)"
BUTCHER'S ALLEY,4961 BETHESDA AVE.,BETHESDA,MD,20814,ABW39882,Off Premise,"PD & BA, LLC",No,"4961 BETHESDA AVE.
BETHESDA, MD 20814
(38.98127, -77.10026)"
WHEATON DELI,11413 GEORGIA AVE,SILVER SPRING,MD,20902,ABW124,Off Premise,WHEATON DELI LLC,Yes,"11413 GEORGIA AVE
SILVER SPRING, MD 20902
(39.04195, -77.05159)"
RESTAURANT POLLOS EL MESON,615 SOUTH FREDERICK AVE,GAITHERSBURG,MD,20877,BBWLHR22816,On Premise,"RESTAURANT POLLOS EL MESON, LLC",No,"615 SOUTH FREDERICK AVE
GAITHERSBURG, MD 20877
(39.12912, -77.18589)"
THE GROVE,7747 TUCKERMAN LANE,POTOMAC,MD,20854,BBWLHR1011418,On Premise,"AUGIE'S POTOMAC, LLC",No,"7747 TUCKERMAN LANE
POTOMAC, MD 20854
(39.04071, -77.15559)"
AMC MONTGOMERY 16,7101 DEMOCRACY BLVD,BETHESDA,MD,20817,BBWLHR786363,On Premise,AMC OF MARYLAND LLC,No,"7101 DEMOCRACY BLVD
BETHESDA, MD 20817
(39.0242, -77.1459)"
CHIPOTLE MEXICAN GRILL - KENTLANDS,96 MAIN STREET,GAITHERSBURG,MD,20878,BBWLHR541,On Premise,CHIPOTLE MEXICAN GRILL OF MARY,No,"96 MAIN STREET
GAITHERSBURG, MD 20878
(39.12478, -77.23718)"
SN BEER & WINE,12801 WISTERIA DRIVE,GERMANTOWN,MD,20874,ABW173,Off Premise,SONG SAKANIN CORPORATION,Yes,"12801 WISTERIA DRIVE
GERMANTOWN, MD 20874
(39.17664, -77.26919)"
SOCIETY RESTAURANT & LOUNGE,8229 GEORGIA AVENUE,SILVER SPRING,MD,20910,BBWLHR41379,On Premise,"SILVER SPRING REST. GROUP, LLC",No,"8229 GEORGIA AVENUE
SILVER SPRING, MD 20910
(38.99257, -77.02661)"
ACAJUTLA RESTAURANT,18554 WOODFIELD RD,GAITHERSBURG,MD,20879,BBWLHR1749545,On Premise,"ARCOR, INC",No,"18554 WOODFIELD RD
GAITHERSBURG, MD 20879
(39.16143, -77.15958)"
CAMBRIA HOTEL & SUITES,1 HELEN HENEGHAN WAY,ROCKVILLE,MD,20850,BBWLHM650358,On Premise,"PEACHTREE HOSPITALITY MGMT., LLC",No,"1 HELEN HENEGHAN WAY
ROCKVILLE, MD 20850
(39.084625, -77.15031)"
GULELE MARKET AND RESTAURANT,211-B N FREDERICK AVE,GAITHERSBURG,MD,20877,DBW1608544,On/Off-Premise,EZANA ENTERPRISES LLC,No,"211-B N FREDERICK AVE
GAITHERSBURG, MD 20877
(39.14447, -77.20133)"
MARRIOTT INTERNATIONAL HQ,7750 WISCONSIN AVE,BETHESDA,MD,20814,BBWLCT935412,On Premise,"ARAMARK SERVICES, INC",No,"7750 WISCONSIN AVE
BETHESDA, MD 20814
(38.98765, -77.09493)"
SAMANTHA'S,631 UNIVERSITY BLVD EAST,SILVER SPRING,MD,20901,BBWLHR117,On Premise,GARCIA'S & VENTURA'S INC.,No,"631 UNIVERSITY BLVD EAST
SILVER SPRING, MD 20901
(39.00053, -76.99591)"
AY! JALISCO II,425 S. FREDERICK AVE,GAITHERSBURG,MD,20877,BBWLHR169,On Premise,"ABI III, CORP.",No,"425 S. FREDERICK AVE
GAITHERSBURG, MD 20877
(39.1362, -77.19157)"
DARO'S BEER AND WINE,2501 ENNALLS AVE,WHEATON,MD,20902,DBW1057432,On/Off-Premise,ETHIO PROGRESS LLC,No,"2501 ENNALLS AVE
WHEATON, MD 20902
(39.04022, -77.05292)"
WHELAN'S BEER AND WINE,9812 FALLS ROAD SUITE 106,POTOMAC,MD,20854,DBW1031441,Off Premise,WHELAN'S LLC,Yes,"9812 FALLS ROAD SUITE 106
POTOMAC, MD 20854
(39.01812, -77.21102)"
FOUNDING FARMERS,12505 PARK POTOMAC AVE,POTOMAC,MD,20854,BBWLHR677,On Premise,FOUNDING FARMERS POTOMAC LLC,No,"12505 PARK POTOMAC AVE
POTOMAC, MD 20854
(39.06025, -77.15709)"
HERSHEYS RESTAURANT,17030 OAKMONT AVE,GAITHERSBURG,MD,20877,BBWLHR135,On Premise,"GORMAN, INC.",No,"17030 OAKMONT AVE
GAITHERSBURG, MD 20877
(39.13585, -77.17771)"
AC HOTEL BETHESDA,4646 MONTGOMERY AVE.,BETHEDA,MD,20814,BBWLHM674355,On Premise,"7359 WISCONSIN AVE, LLC",No,"4646 MONTGOMERY AVE.
BETHEDA, MD 20814
(38.98378, -77.09306)"
TACO BAR II,"10003 FIELDS ROAD, SUITE B",GAITHERSBURG,MD,20878,ABW003,Off Premise,"TACO BAR,LLC",No,"10003 FIELDS ROAD, SUITE B
GAITHERSBURG, MD 20878
(39.11669, -77.20603)"
VILLA MAYA RESTAURANT-ROCKVILLE,5532 NORBECK ROAD,ROCKVILLE,MD,20853,BBWLHR628,On Premise,SOL MAYA CORPORATION,No,"5532 NORBECK ROAD
ROCKVILLE, MD 20853
(39.09464, -77.11096)"
N-Vincent Grande,274 Trudy Ct,Forest Hill,MD,21050,2025,,,No,"274 Trudy Ct
Forest Hill, MD 21050
(39.57142, -76.37273)"
N-Ross Fusillo,14723 Harrisville Road,Mount Airy,MD,21771,2025,,,No,"14723 Harrisville Road
Mount Airy, MD 21771
(39.42789, -77.15048)"
BETHESDA BLUES & JAZZ,7719 WISCONSIN AVE,BETHESDA,MD,20814,BBWLHR765,On Premise,"BETHESDA BLUES & JAZZ, LLC",No,"7719 WISCONSIN AVE
BETHESDA, MD 20814
(38.98748, -77.09447)"
JAVA NATION - KENTLANDS,121 MARKET ST,GAITHERSBURG,MD,20878,BBWLHR1018419,On Premise,JAVA NATION,No,"121 MARKET ST
GAITHERSBURG, MD 20878
(39.12214, -77.23499)"
LOCAVINO,8519 FENTON STREET,SILVER SPRING,MD,20910,BBWHR41463,On/Off-Premise,"EAT DRINK LIVE, LLC",No,"8519 FENTON STREET
SILVER SPRING, MD 20910
(38.99658, -77.0251)"
BARRILES RESTAURANT & SPORTS BAR,7637 NEW HAMPSHIRE AVENUE,TAKOMA PARK,MD,20912,BBWLHR1522544,On Premise,JVJ ENTERPRICES LLC,No,"7637 NEW HAMPSHIRE AVENUE
TAKOMA PARK, MD 20912
(38.98693, -76.98768)"
GRAPE ESCAPE,223 KENTLANDS BLVD,GAITHERSBURG,MD,20878,DBW1579544,On/Off-Premise,"CASA DI VINO, LLC",Yes,"223 KENTLANDS BLVD
GAITHERSBURG, MD 20878
(39.12321, -77.23582)"
OLNEY STATION,3418 OLNEY-LAYTONSVILLE ROAD,OLNEY,MD,20832,BBWLHR21342,On Premise,"SARDIS FUSION, INC",No,"3418 OLNEY-LAYTONSVILLE ROAD
OLNEY, MD 20832
(39.15299, -77.06773)"
CURRY PLACE-SILVER SPRING,11229 NEW HAMPSHIRE AVENUE,SILVER SPRING,MD,20904,HBWHR1798544,On Premise,CURRY PLACE THREE LLC,No,"11229 NEW HAMPSHIRE AVENUE
SILVER SPRING, MD 20904
(39.04136, -76.98882)"
AKIRA RAMEN & IZAKAYA,105 PARAMOUNT PARK DRIVE,GAITHERSBURG,MD,20879,BBWLHR1170498,On Premise,AKIRA GAI INC,No,"105 PARAMOUNT PARK DRIVE
GAITHERSBURG, MD 20879
(39.15946, -77.22169)"
Q BY PETER CHANG,4500 EAST WEST HIGHWAY SUITE 100,BETHESDA,MD,20814,BBWLHR27709,On Premise,"CHANG'S HOME, LLC",No,"4500 EAST WEST HIGHWAY SUITE 100
BETHESDA, MD 20814
(38.98503, -77.09126)"
ALATRI BROS.,4926 CORDELL AVENUE,BETHESDA,MD,20814,BBWLHR28339,On Premise,BRIGGS MANAGEMENT LLC,No,"4926 CORDELL AVENUE
BETHESDA, MD 20814
(38.98868, -77.09878)"
LEDO'S PIZZA COLESVILLE,13444 NEW HAMPSHIRE AVE,COLESVILLE,MD,20904,HBWHR28449,On Premise,"MHI HOTELS SERVICES, LLC",No,"13444 NEW HAMPSHIRE AVE
COLESVILLE, MD 20904
(39.07709, -77.00249)"
POYOTECA,14921 SHADY GROVE RD.,ROCKVILLE,MD,20850,BBWHR616352,On/Off-Premise,"POYOTECA ROCKVILLE, INC.",No,"14921 SHADY GROVE RD.
ROCKVILLE, MD 20850
(39.09704, -77.19343)"
BARREL & CROW,4867 CORDELL AVENUE,BETHESDA,MD,20814,BBWLHR20279,On Premise,"BARREL AND CROW, LLC",No,"4867 CORDELL AVENUE
BETHESDA, MD 20814
(38.98965, -77.09783)"
ASBURY METHODIST VILLAGE,201 RUSSELL AVENUE,GAITHERSBURG,MD,20877,CBWLRC004,On Premise,"IVA, INC",No,"201 RUSSELL AVENUE
GAITHERSBURG, MD 20877
(39.14658, -77.19735)"
NIWANO HANA,887 ROCKVILLE PIKE,ROCKVILLE,MD,20852,BBWLHR35795,On/Off-Premise,"NIWANO HANA HS,INC.",No,"887 ROCKVILLE PIKE
ROCKVILLE, MD 20852
(39.07498, -77.13694)"
COLESVILLE BEER & WINE,13468 NEW HAMPSHIRE AVE,SILVER SPRING,MD,20904,ABWS038,Off Premise,"COLESVILLE BEER AND WINE, INC.",Yes,"13468 NEW HAMPSHIRE AVE
SILVER SPRING, MD 20904
(39.07702, -77.00185)"
THE NIBBLER,18556 WOODFIELD RD.,GAITHERSBURG,MD,20879,BBWHR387274,On/Off-Premise,"RP GROUP, LLC",No,"18556 WOODFIELD RD.
GAITHERSBURG, MD 20879
(39.16147, -77.15955)"
OLD TOWN MARKET,10251 KENSINGTON PARKWAY,KENSINGTON,MD,20895,ABWS243,Off Premise,"COOPERSMITH, INC",Yes,"10251 KENSINGTON PARKWAY
KENSINGTON, MD 20895
(39.02499, -77.07101)"
COPPER CANYON GRILL  - GAITHERSBURG,100 BOARDWALK PLACE,GAITHERSBURG,MD,20878,BBWLHR340,On Premise,"CANYON GRILL ENTERPRISES, LLC",No,"100 BOARDWALK PLACE
GAITHERSBURG, MD 20878
(39.11755, -77.19893)"
FIESTA BEER AND WINE,"1337 UNIVERSITY BLVD, E",TAKOMA PARK,MD,20912,DBW1232520,On/Off-Premise,"AARYA, LLC",Yes,"1337 UNIVERSITY BLVD, E
TAKOMA PARK, MD 20912
(38.98718, -76.9857)"
MOSUN'S KITCHEN,303 Muddy Branch Road,Gaithersburg,MD,20878,BBWHR1143498,On/Off-Premise,Mosun's Kitchen LLC,No,"303 Muddy Branch Road
Gaithersburg, MD 20878
(39.12812, -77.20879)"
FRATERNAL ORDER OF EAGLES 3509,211 N. FREDERICK AVE,GAITHERSBURG,MD,20877,CBWLFV997426,On Premise,FRATERNAL ORDER OF EAGLES 3509,No,"211 N. FREDERICK AVE
GAITHERSBURG, MD 20877
(39.14447, -77.20133)"
POOLESVILLE GOLF COURSE,16601 WEST WILLARD ROAD,POOLESVILLE,MD,20837,BBWLCL084,On Premise,MONTGOMERY COUNTY REVENUE AUTH,No,"16601 WEST WILLARD ROAD
POOLESVILLE, MD 20837
(39.1271, -77.42429)"
MILK & HONEY CAFE,9326 GEORGIA AVE.,SILVER SPRING,MD,20910,BBWLHR749361,On Premise,"WILLIE T'S LOBSTER SHACK, LLC",No,"9326 GEORGIA AVE.
SILVER SPRING, MD 20910
(39.00793, -77.0402)"
QUALITY BEER & WINE,13826 OLD COLUMBIA PIKE,SILVER SPRING,MD,20904,ABW1071811,Off Premise,"BONG & KWON, INC",Yes,"13826 OLD COLUMBIA PIKE
SILVER SPRING, MD 20904
(39.08418, -76.95205)"
N-CONCLAVE RESTAURANT,6834 NEW HAMPSHIRE AVENUE,TAKOMA PARK,MD,20912,DBWL1815544,On Premise,"CONCLAVE RESTAURANT AND LOUNGE, LLC",No,"6834 NEW HAMPSHIRE AVENUE
TAKOMA PARK, MD 20912
(38.97441, -76.99561)"
DON POLLO-GERMANTOWN,21040-A FREDERICK ROAD,GERMANTOWN,MD,20876,HBWHR35720,On Premise,"DON POLLO OF GERMANTOWN, LLC",No,"21040-A FREDERICK ROAD
GERMANTOWN, MD 20876
(39.20118, -77.24674)"
GIANT FOOD STORE 350,11221 NEW HAMPSHIRE AVE,SILVER SPRING,MD,20904,ABWS1061476,Off Premise,GIANT OF MARYLAND LLC,No,"11221 NEW HAMPSHIRE AVE
SILVER SPRING, MD 20904
(39.04128, -76.98903)"
WOODMONT GRILL,7715 WOODMONT AVE,BETHESDA,MD,20814,BBWLHR241,On Premise,"HILLSTONE RESTAURANT GROUP,INC",No,"7715 WOODMONT AVE
BETHESDA, MD 20814
(38.98789, -77.09602)"
K-POT KOREAN BBQ & HOT POT,19727 FREDERICK ROAD,GERMANTOWN,MD,20876,BBWLHR945414,On Premise,KHP GERMANTOWN LLC,No,"19727 FREDERICK ROAD
GERMANTOWN, MD 20876
(39.1795, -77.23836)"
MISSION BBQ,885 ROCKVILLE PIKE,ROCKVILLE,MD,20852,HBW27623,On Premise,"MISSION BBQ ROCKVILLE, LLC",No,"885 ROCKVILLE PIKE
ROCKVILLE, MD 20852
(39.07503, -77.1373)"
ZT-LEDO PIZZA - WESTLAKE,,,,,HBW011,On Premise,WESTLAKE DRIVE PIZZA INC.,No,
WARREN STREET DELI,9226 WARREN STREET,SILVER SPRING,MD,20910,ABW973415,Off Premise,"WARREN  STREET DELI, LLC",No,"9226 WARREN STREET
SILVER SPRING, MD 20910
(39.00665, -77.04911)"
KIELBASA FACTORY,1073 ROCKVILLE PIKE,ROCKVILLE,MD,20852,DBW849394,On/Off-Premise,"SMOLAVI, LLC",No,"1073 ROCKVILLE PIKE
ROCKVILLE, MD 20852
(39.07103, -77.1328)"
DON RAMON RESTAURANT,13816 OLD COLUMBIA PIKE,SILVER SPRING,MD,20904,BBWLHR1225508,On Premise,"RC ARBAIZA ENTERPRISE, INC",No,"13816 OLD COLUMBIA PIKE
SILVER SPRING, MD 20904
(39.08344, -76.95232)"
CRAFT BEER AND WINE,4459 WILLARD AVE,CHEVY CHASE,MD,20815,DBW1027433,On/Off-Premise,CRAFT BEER AND WINE LLC,Yes,"4459 WILLARD AVE
CHEVY CHASE, MD 20815
(38.96191, -77.08822)"
GRILLMARX STEAKHOUSE,18149 TOWN CENTER DRIVE,OLNEY,MD,20832,BBWLHR658,On Premise,"GRILLMARX, LLC",No,"18149 TOWN CENTER DRIVE
OLNEY, MD 20832
(39.15329, -77.06117)"
GESTE FOODS & WINE,4801 EDGEMOOR LANE,BETHESDA,MD,20814,ABWS268,Off Premise,"GESTE FOODS AND WINES, LLC",Yes,"4801 EDGEMOOR LANE
BETHESDA, MD 20814
(38.98541, -77.0958)"
GREGORIO'S TRATTORIA,12505 PARK POTOMAC AVE,POTOMAC,MD,20854,BBWLHR1269550,On Premise,"GREGORIO'S AT PARK POTOMAC, LLC",No,"12505 PARK POTOMAC AVE
POTOMAC, MD 20854
(39.06025, -77.15709)"
MAMMA LUCIA - ROCKVILLE,"12274 ROCKVILLE PIKE, SUITE M",ROCKVILLE,MD,20852,BBWLHR387,On Premise,"MAMMA LUCIA OF MONTGOMERY, INC",No,"12274 ROCKVILLE PIKE, SUITE M
ROCKVILLE, MD 20852
(39.05785, -77.12066)"
SOLAIRE SOCIAL,8200 DIXON AVE,SILVER SPRING,MD,20910,BDBWL937417,On/Off-Premise,"SOLAIRE RIPLEY II, LLC",No,"8200 DIXON AVE
SILVER SPRING, MD 20910
(38.99171, -77.02805)"
HOUSE OF FOONG LIN,4613 WILLOW LANE,CHEVY CHASE,MD,20815,BBWLHR775,On Premise,"CFK, LLC",No,"4613 WILLOW LANE
CHEVY CHASE, MD 20815
(38.98149, -77.09202)"
HOUSE OF CURRY,9805 MAIN STREET SUITE 207,DAMASCUS,MD,20872,HBWHR1662545,On Premise,HOUSE OF CURRY LLC,No,"9805 MAIN STREET SUITE 207
DAMASCUS, MD 20872
(39.28826, -77.20359)"
MELINA,905 ROSE AVENUE,ROCKVILLE,MD,20852,BBWLHR479301,On Premise,"DTI MELINA, LLC",No,"905 ROSE AVENUE
ROCKVILLE, MD 20852
(39.05117, -77.11584)"
AMERICAN LEGION POST #171,"10201 LEWIS DRIVE, P.O. BOX 171",DAMASCUS,MD,20872,CBWLC20177,On Premise,DEPT. MD DAMASCUS AMER. LG. # 171,No,"10201 LEWIS DRIVE, P.O. BOX 171
DAMASCUS, MD 20872
(39.29173, -77.21172)"
BETHESDA MARKET,"4611 SANGAMORE ROAD, UNIT D",BETHESDA,MD,20816,DBW146,On/Off-Premise,OM SAI RAM INC.,Yes,"4611 SANGAMORE ROAD, UNIT D
BETHESDA, MD 20816
(38.94875, -77.11848)"
EL TACO LOCO,8417 GEORGIA AVENUE,SILVER SPRING,MD,20910,BBWLHR1259530,On Premise,"EL TACO LOCO, INC",No,"8417 GEORGIA AVENUE
SILVER SPRING, MD 20910
(38.99382, -77.02667)"
CALLEVA FARM,19120 MARTINSBURG RD,DICKERSON,MD,20842,DBWL997425,On Premise,CALLEVA INC,No,"19120 MARTINSBURG RD
DICKERSON, MD 20842
(39.16978, -77.47375)"
GERMANTOWN WINE AND BEER,19590 N. FREDERICK AVENUE,GERMANTOWN,MD,20876,DBW926409,On/Off-Premise,"GERMANTOWN WINE AND BEER, LLC",Yes,"19590 N. FREDERICK AVENUE
GERMANTOWN, MD 20876
(39.17716, -77.23901)"
BARBERRYS BAR & LOUNGE,2423 HICKERSON DR.,SILVER SPRING,MD,20902,BBWLHR629355,On Premise,"JOSVIC ENTERPRISES, LLC",No,"2423 HICKERSON DR.
SILVER SPRING, MD 20902
(39.04233, -77.05105)"
GREGORIO'S TRATTORIA AT SUMNER PLACE,4611A SANGAMORE LN.,BETHESDA,MD,20816,BBWLHR391274,On Premise,"GREGORIO'S AT SUMNER PLACE, LLC",No,"4611A SANGAMORE LN.
BETHESDA, MD 20816
(38.94875, -77.11848)"
HAMPTON INN & SUITES,960 FREDERICK AVENUE,GAITHERSBURG,MD,20879,DBW153,On/Off-Premise,"MCC HOSPITALITY, LLC",No,"960 FREDERICK AVENUE
GAITHERSBURG, MD 20879
(39.1596, -77.22019)"
EL AMATE RESTAURANT,11452 CHERRY HILL ROAD,BELTSVILLE,MD,20705,BBWLHR172,On Premise,"EL AMATE RESTAURANT, INC.",No,"11452 CHERRY HILL ROAD
BELTSVILLE, MD 20705
(39.0448, -76.95161)"
SIRIWAN 4 SECTORS,20640 SENECA MEADOWS PKWY,GERMANTOWN,MD,20876,BBWLHR40920,On Premise,"SIRIWAN, LLC",No,"20640 SENECA MEADOWS PKWY
GERMANTOWN, MD 20876
(39.19877, -77.2548)"
DELHI SPICE,4925 BETHESDA AVE,BETHESDA,MD,20814,BBWLHR951413,On Premise,MATSYA LLC,No,"4925 BETHESDA AVE
BETHESDA, MD 20814
(38.98098, -77.09949)"
EL TEJANO RESTAURANT II,"2646 UNIVERSITY BLVD, WEST",SILVER SPRING,MD,20874,BBWLHR1679544,On Premise,JOSAM 5 LLC,No,"2646 UNIVERSITY BLVD, WEST
SILVER SPRING, MD 20874
(39.04053, -77.05404)"
N- RTD TEST CUSTOMER1,901 Edison Park Dr,Gaithersburg,MD,00000,BW13219918,Off Premise,RTD TEST CUSTOMER1,No,"901 Edison Park Dr
Gaithersburg, MD 00000"
COMUS INN,23900 OLD HUNDRED ROAD,DICKERSON,MD,20842,BDBWL1238537,On/Off-Premise,10 RULES LLC,No,"23900 OLD HUNDRED ROAD
DICKERSON, MD 20842
(39.24739, -77.34992)"
AP PIZZA SHOP NEIGHBORHOOD PIZZERIA & AVENTINO ROMAN ITALIAN,4747 BETHESDA AVENUE,BETHESDA,MD,20814,BBWLHR834400,On Premise,"NO PLACE LIKE ROME, LLC",No,"4747 BETHESDA AVENUE
BETHESDA, MD 20814
(38.98099, -77.09426)"
HARD TIMES CAFE,1117 NELSON ST,ROCKVILLE,MD,20850,BBWLHR1502544,On Premise,"MORGAN HOWARD, LLC",No,"1117 NELSON ST
ROCKVILLE, MD 20850
(39.09174, -77.17436)"
ROUTE 108 PIZZA & BBQ,805 OLNEY SANDY SPRING,SANDY SPRING,MD,20860,BBWLHR464306,On Premise,"108 COMPANIES, LLC",No,"805 OLNEY SANDY SPRING
SANDY SPRING, MD 20860
(39.14982, -77.02557)"
TAIPEI TOKYO-ROCKVILLE PIKE,11510-A ROCKVILLE PIKE,ROCKVILLE,MD,20852,HBWHR27324,On Premise,"YENG XING INTERNATIONAL, INC",No,"11510-A ROCKVILLE PIKE
ROCKVILLE, MD 20852
(39.04537, -77.11255)"
MIDWAY BEER & WINE,16057 FREDERICK ROAD,DERWOOD,MD,20855,ABW279,Off Premise,SHIVA CORPORATION,Yes,"16057 FREDERICK ROAD
DERWOOD, MD 20855
(39.11892, -77.17059)"
KIIN IMM THAI RESTAURANT,785 D ROCKVILLE PIKE,ROCKVILLE,MD,20852,HBWHR34891,On Premise,"PATTARA, INC.",No,"785 D ROCKVILLE PIKE
ROCKVILLE, MD 20852
(39.07661, -77.14113)"
REGINA'S RESTAURANT,11423 GEORGIA AVE.,WHEATON,MD,20902,BBWLHR546348,On Premise,"ALVAREZ & CAMPOS, INC.",No,"11423 GEORGIA AVE.
WHEATON, MD 20902
(39.04216, -77.05183)"
AFRICAN PALACE,117 N. FREDERICK AVENUE,GAITHERSBURG,MD,20877,DBWL21494,On Premise,"AFRICAN PALACE, LLC",No,"117 N. FREDERICK AVENUE
GAITHERSBURG, MD 20877
(39.14319, -77.20012)"
DOUBLETREE BY HILTON SS DC N.,8777 GEORGIA AVE.,SILVER SPRING,MD,20910,BBWLHM629356,On Premise,"LCOF SS OPERATING, LLC",No,"8777 GEORGIA AVE.
SILVER SPRING, MD 20910
(38.99864, -77.03094)"
ROOTS MARKET,16800 GEORGIA AVENUE,OLNEY,MD,20832,DBW1349544,On/Off-Premise,"ROOTS OLNEY, LLC",No,"16800 GEORGIA AVENUE
OLNEY, MD 20832
(39.13183, -77.07132)"
DIAMOND SQUARE BEER & WINE,38 BUREAU DRIVE,GAITHERSBURG,MD,20878,ABW283,Off Premise,"J&J BEER AND WINE, INC.",Yes,"38 BUREAU DRIVE
GAITHERSBURG, MD 20878
(39.14388, -77.21731)"
EL PATIO,5240 RANDOLPH ROAD,ROCKVILLE,MD,20852,BBWHR113,On/Off-Premise,"EL PATIO INTERNATIONAL, INC.",No,"5240 RANDOLPH ROAD
ROCKVILLE, MD 20852
(39.05358, -77.10447)"
HILTON GARDEN INN,7301 WAVERLY ST,BETHESDA,MD,20814,BBWLHM1047440,On Premise,BETHESDA RE HOLDINGS LLC,No,"7301 WAVERLY ST
BETHESDA, MD 20814
(38.98326, -77.0923)"
METHI INDIAN RESTAURANT,2509 UNIVERSITY BLVD W.,SILVER SPRING,MD,20902,HBWHR27735,On Premise,"AARAMVA, LLC",No,"2509 UNIVERSITY BLVD W.
SILVER SPRING, MD 20902
(39.04143, -77.05216)"
CHEVY CHASE CLUB,6100 CONNECTICUT AVE,CHEVY CHASE,MD,20815,CBWLCCO008,On Premise,"CHEVY CHASE CLUB, INC.",No,"6100 CONNECTICUT AVE
CHEVY CHASE, MD 20815
(38.97586, -77.07773)"
BOYD'S COUNTRY STORE,15110 BARNESVILLE ROAD,BOYDS,MD,20841,DBW1016423,On/Off-Premise,P AND V GROUP LLC,Yes,"15110 BARNESVILLE ROAD
BOYDS, MD 20841
(39.18481, -77.31425)"
RUAN THAI,11407 AMHERST AVE,SILVER SPRING,MD,20902,HBW004,On Premise,RUAN THAI RESTAURANT INC.,No,"11407 AMHERST AVE
SILVER SPRING, MD 20902
(39.0418, -77.04784)"
EUROMART,"822 ROCKVILLE PIKE, UNIT C",ROCKVILLE,MD,20852,ABW39499,Off Premise,"EUROMART, LLC",No,"822 ROCKVILLE PIKE, UNIT C
ROCKVILLE, MD 20852
(39.07704, -77.13849)"
THAI CUISINE,3430-3434 OLNEY-LAYTONSVILLE RD.,OLNEY,MD,20832,HBWHR40499,On Premise,"THAI CUISINE 2005, INC.",No,"3430-3434 OLNEY-LAYTONSVILLE RD.
OLNEY, MD 20832
(39.15298, -77.068)"
MOOSE LODGE #1775,2901 BEL PRE ROAD,SILVER SPRING,MD,20906,CBWLFV006,On Premise,"WHEATON MOOSE LODGE #1775, INC",No,"2901 BEL PRE ROAD
SILVER SPRING, MD 20906
(39.09126, -77.0592)"
LOS PRIMOS TEX MEX GRILL,12303 TWINBROOK PARKWAY,ROCKVILLE,MD,20852,BBWLHR39399,On Premise,"LOS PRIMOS TEX MEX GRILL, INC.",No,"12303 TWINBROOK PARKWAY
ROCKVILLE, MD 20852
(39.05841, -77.11963)"
BBQ CHICKEN & BEER,2235 BEL PRE RD.,SILVER SPRING,MD,20906,BBWLHR655357,On Premise,"HIZ CHICKEN FACTORY, LLC",No,"2235 BEL PRE RD.
SILVER SPRING, MD 20906
(39.09183, -77.04777)"
MARRIOTT BETHESDA DOWNTOWN,7707 WOODMONT AVE.,BETHESDA,MD,20814,BBWLHM635355,On Premise,"MARRIOTT HOTEL SERVICES, LLC",No,"7707 WOODMONT AVE.
BETHESDA, MD 20814
(38.9872, -77.09596)"
TERRA MARE RESTAURANT & BAR,2504 ENNALLS AVE.,WHEATON,MD,20902,BBWLHR782365,On Premise,"TERRA MARE, INC.",No,"2504 ENNALLS AVE.
WHEATON, MD 20902
(39.03976, -77.05303)"
RATTLEWOOD GOLF COURSE,13501 PENN SHOP ROAD,MOUNT AIRY,MD,21771,BBWLCL186,On Premise,MONT.CO. REVENUE AUTHORITY,No,"13501 PENN SHOP ROAD
MOUNT AIRY, MD 21771
(39.34213, -77.19076)"
CHERCHER ETHIOPIAN CUISINE,4921 BETHESDA AVENUE,BETHESDA,MD,20814,BBWLHR34720,On Premise,"CHERO,LLC",No,"4921 BETHESDA AVENUE
BETHESDA, MD 20814
(38.98081, -77.09927)"
CENTER FOR LEADER EXCELLENCE,6777 & 6801 ROCKLEDGE DR.,BETHESDA,MD,20817,BBWLHR223265,On Premise,"ARAMARK SPORTS & ENTMT. SVCS., LLC",No,"6777 & 6801 ROCKLEDGE DR.
BETHESDA, MD 20817
(39.03051, -77.13953)"
FOX HILL CLUB & RESIDENCES,8300 BURDETTE ROAD,BETHESDA,MD,20817,BBWLHR800,On Premise,"WELLTOWER OPCO GROUP, LLC",No,"8300 BURDETTE ROAD
BETHESDA, MD 20817
(38.99111, -77.15201)"
MAKI MAKI SUSHI,8023 WISCONSIN AVE,BETHESDA,MD,20814,HBW224,On Premise,"JTL, LLC",No,"8023 WISCONSIN AVE
BETHESDA, MD 20814
(38.99112, -77.09566)"
MAYA CUISINE RESTAURANT & BAR,7345-A WISCONSIN AVE.,BETHESDA,MD,20814,BBWLHR490323,On/Off-Premise,"SHANGRILA MANAGEMENT, LLC",No,"7345-A WISCONSIN AVE.
BETHESDA, MD 20814
(38.98312, -77.09352)"
CUGINIS RESTAURANT & BAR,"19616 FISHER AVE, UNIT H",POOLESVILLE,MD,20837,BDBWL758,On/Off-Premise,"CUGINIS RESTAURANT & BAR, LLC",No,"19616 FISHER AVE, UNIT H
POOLESVILLE, MD 20837
(39.14406, -77.40922)"
ASPEN HILL RACQUET CLUB,14501 HOMECREST ROAD,SILVER SPRING,MD,20906,DBW010,On/Off-Premise,"ASPEN HILL TENNIS, INC.",No,"14501 HOMECREST ROAD
SILVER SPRING, MD 20906
(39.09403, -77.06008)"
SARON CONVENIENCE STORE,961 BONIFANT STREET,SILVER SPRING,MD,20910,ABW1119445,Off Premise,"SARON CONVENIENCE, LLC",No,"961 BONIFANT STREET
SILVER SPRING, MD 20910
(38.9936, -77.02599)"
JUNCTION BISTRO BAR & BAKERY,5471 WISCONSIN AVE.,CHEVY CHASE,MD,20815,BBWLHR767358,On Premise,"BAKER'S BREAD MD, LLC",No,"5471 WISCONSIN AVE.
CHEVY CHASE, MD 20815
(38.96283, -77.08659)"
N-Kaela Murphy,6 Bromwell Ct,Cockeysville,MD,21030,2025,,,No,"6 Bromwell Ct
Cockeysville, MD 21030
(39.47739, -76.60924)"
OPEN HAND,220 GIRARD ST SUITE B,GAITHERSBURG,MD,20877,ABW919431,Off Premise,DA CAPO LLC,No,"220 GIRARD ST SUITE B
GAITHERSBURG, MD 20877
(39.14193, -77.1831)"
HORNET'S NEST GRILLE,9876 MAIN ST,DAMASCUS,MD,20872,BBWLHR24736,On Premise,"HNG, LLC",No,"9876 MAIN ST
DAMASCUS, MD 20872
(39.28834, -77.20386)"
SANDY SPRING MART,905 OLNEY SANDY SPRING RD,SANDY SPRING,MD,20860,DBW961417,On/Off-Premise,SANDY SPRING MART INC,No,"905 OLNEY SANDY SPRING RD
SANDY SPRING, MD 20860
(39.14962, -77.02715)"
BREWS AND BARRELS,625 CENTER POINT WAY,GAITHERSBURG,MD,20878,BBWLHR224259,On Premise,"MAHI RESTAURANT, INC.",No,"625 CENTER POINT WAY
GAITHERSBURG, MD 20878
(39.12185, -77.23356)"
POTOMAC PIZZA,9812 FALLS ROAD,POTOMAC,MD,20854,BBWLHR132,On Premise,"PIZZA ZONE OF POTOMAC, INC.",No,"9812 FALLS ROAD
POTOMAC, MD 20854
(39.01812, -77.21102)"
LAMROT BAR & RESTAURANT,949 BONIFANT STREET STE B,SILVER SPRING,MD,20910,BBWLHR1270559,On Premise,"LAMROT BAR & RESTAURANT,LLC",No,"949 BONIFANT STREET STE B
SILVER SPRING, MD 20910
(38.99373, -77.02562)"
WORLD OF BEER,196-B EAST MONTGOMERY AVENUE,ROCKVILLE,MD,20850,BBWLHR22600,On Premise,"WOB ROCKVILLE, LLC",No,"196-B EAST MONTGOMERY AVENUE
ROCKVILLE, MD 20850
(39.08408, -77.15034)"
ETHIO-PLUS,11303 GEORGIA AVE,SILVER SPRING,MD,20902,ABW1003421,Off Premise,MSGANA LLC,No,"11303 GEORGIA AVE
SILVER SPRING, MD 20902
(39.04038, -77.05132)"
MON AMI GABI,7239 WOODMONT AVE,BETHESDA,MD,20814,BBWLHR330,On Premise,MON AMI BETHESDA LLC,No,"7239 WOODMONT AVE
BETHESDA, MD 20814
(38.98134, -77.09564)"
PARTY TIME BEER & WINE,11443 GEORGIA AVE,SILVER SPRING,MD,20902,ABW095,Off Premise,NONE,Yes,"11443 GEORGIA AVE
SILVER SPRING, MD 20902
(39.04262, -77.05141)"
MAHDANG,12300 WILKINS AVENUE,ROCKVILLE,MD,20852,BBWLHR43343,On Premise,"MASJIB, LLC",No,"12300 WILKINS AVENUE
ROCKVILLE, MD 20852
(39.05795, -77.11325)"
AIRPARK BEER AND WINE,"7601 AIRPARK ROAD, UNIT G",GAITHERSBURG,MD,20879,ABWS208,Off Premise,CRUNCHKIDS LLC,Yes,"7601 AIRPARK ROAD, UNIT G
GAITHERSBURG, MD 20879
(39.16988, -77.15499)"
QUINCY'S BAR & GRILLE,616 QUINCE ORCHARD ROAD,GAITHERSBURG,MD,20878,BBWLHR536,On Premise,"COTY GROUP, LLC",No,"616 QUINCE ORCHARD ROAD
GAITHERSBURG, MD 20878
(39.14179, -77.22118)"
DAD'S BEER & WINE,603 HUNGERFORD DRIVE,ROCKVILLE,MD,20850,ABWS203,Off Premise,"DAD'S BEER & WINE, LLC",Yes,"603 HUNGERFORD DRIVE
ROCKVILLE, MD 20850
(39.09165, -77.1521)"
CAFE SOPHIE,7940 AIRPARK ROAD SUITE 201,GAITHERSBURG,MD,20879,BBWHR888400,On/Off-Premise,CAFE SOPHE LLC,No,"7940 AIRPARK ROAD SUITE 201
GAITHERSBURG, MD 20879
(39.16785, -77.1623)"
ROCKVILLE BEER & WINE,15809 FREDERICK ROAD,DERWOOD,MD,20855,DBW497333,On/Off-Premise,"R&S SOLUTIONS, LLC",Yes,"15809 FREDERICK ROAD
DERWOOD, MD 20855
(39.11494, -77.16487)"
GIL'S RESTAURANT,8200 PINEY BRANCH ROAD,SILVER SPRING,MD,20910,BBWLHR684,On Premise,GILS RESTAURANT PARTNERSHIP,No,"8200 PINEY BRANCH ROAD
SILVER SPRING, MD 20910
(38.99309, -77.00955)"
SEVEN-ELEVEN STORE,14101 GEORGIA AVE.,SILVER SPRING,MD,20906,ABW100,Off Premise,MCMAHON-DENT INC.,Yes,"14101 GEORGIA AVE.
SILVER SPRING, MD 20906
(39.08518, -77.07778)"
MULUSHEWA GRILLE,"8241 GEORGIA AVENUE, SUITE 200",SILVER SPRING,MD,20910,BBWLHR1267555,On Premise,"MULUSHEWA, LLC",No,"8241 GEORGIA AVENUE, SUITE 200
SILVER SPRING, MD 20910
(38.99282, -77.02662)"
BT'S BETHESDA,4866 CORDELL AVENUE,BETHESDA,MD,20814,BDBWL1447544,On/Off-Premise,"4866 LIBERTY, LLC",No,"4866 CORDELL AVENUE
BETHESDA, MD 20814
(38.98964, -77.09784)"
ARADA MARKET,6844 NEW HAMPSHIRE AVE,TAKOMA PARK,MD,20912,DBW1300545,On/Off-Premise,Y AND E INCORPORATED,No,"6844 NEW HAMPSHIRE AVE
TAKOMA PARK, MD 20912
(38.97463, -76.9956)"
OWENS ORDINARY,11820 TRADE STREET,NORTH BETHESDA,MD,20852,BBWLHR24646,On Premise,"NEIGHBORHOOD REST. GROUP XX, LLC",No,"11820 TRADE STREET
NORTH BETHESDA, MD 20852
(39.04966, -77.11606)"
"GLENMONT BEER, WINE & DELI",12351 GEORGIA AVE,SILVER SPRING,MD,20906,ABW176,Off Premise,"JYL,INC.",No,"12351 GEORGIA AVE
SILVER SPRING, MD 20906
(39.06071, -77.04949)"
BREW BELLY,18065 GEORGIA AVE,OLNEY,MD,20832,BDBWL31001,On/Off-Premise,"BREW BELLY, LLC",No,"18065 GEORGIA AVE
OLNEY, MD 20832
(39.15232, -77.06646)"
SEAFOOD IN THE BUFF IN WHEATON,12132 GEORGIA AVENUE,WHEATON,MD,20902,DBW1253526,On/Off-Premise,TASTEMAKERS MANAGEMENT LLC,No,"12132 GEORGIA AVENUE
WHEATON, MD 20902
(39.05404, -77.05098)"
LEDO PIZZA WESTLAKE,10301 WESTLAKE DRIVE,BETHESDA,MD,20817,HBWHR1749544,On Premise,"WESTLAKE DRIVE PIZZA, INC",No,"10301 WESTLAKE DRIVE
BETHESDA, MD 20817
(39.02575, -77.14801)"
TACO BAR,3 RUSSELL AVE SUITE A,GAITHERSBURG,MD,20877,BDBWL28685,On/Off-Premise,TACO BAR LLC,No,"3 RUSSELL AVE SUITE A
GAITHERSBURG, MD 20877
(39.14246, -77.19635)"
CAVA RESTAURANT,9713 TRAVILLE GATEWAY DRIVE,ROCKVILLE,MD,20850,BBWLHR066,On Premise,"DTI, LLC,",No,"9713 TRAVILLE GATEWAY DRIVE
ROCKVILLE, MD 20850
(39.09156, -77.20366)"
HAMPSHIRE GREENS GOLF COURSE,616 FIRESTONE DRIVE,ASHTON,MD,20861,BBWLCL178,On Premise,MONTGOMERY CO REVENUE AUTHORIT,No,"616 FIRESTONE DRIVE
ASHTON, MD 20861"
NEW VILLAGE RESTAURANT,11540 MIDDLEBROOK ROAD,GERMANTOWN,MD,20876,BBWHR25277,On/Off-Premise,"58UNITY,LLC",No,"11540 MIDDLEBROOK ROAD
GERMANTOWN, MD 20876
(39.1795, -77.24014)"
N-Benjamin Stender,16417 Tomahawk Dr,Gaithersburg,MD,20878,2024,,,No,"16417 Tomahawk Dr
Gaithersburg, MD 20878
(39.12479, -77.2554)"
DON POLLO OF POTOMAC,10321 WESTLAKE DRIVE,BETHESDA,MD,20817,HBW29871,On Premise,"DON POLLO OF POTOMAC, INC.",No,"10321 WESTLAKE DRIVE
BETHESDA, MD 20817
(39.02611, -77.14721)"
HILTON GARDEN INN-SS N.,2200 BROAD BIRCH DR.,SILVER SPRING,MD,20904,BBWLHR441298,On Premise,"CRESTLINE HOTELS & RSRTS-MONT.,LLC",No,"2200 BROAD BIRCH DR.
SILVER SPRING, MD 20904
(39.05667, -76.96439)"
CHIPOTLE MEXICAN GRILL - OLNEY,3333 OLNEY SANDY SPRING ROAD,OLNEY,MD,20832,BBWLHR316,On Premise,CHIPOTLE MEXICAN GRILL OF MD L,No,"3333 OLNEY SANDY SPRING ROAD
OLNEY, MD 20832
(39.15307, -77.06641)"
TRATTORIA SORRENTO,4930 CORDELL AVE,BETHESDA,MD,20814,BBWLHR177,On Premise,"SORRENTO, INC.",No,"4930 CORDELL AVE
BETHESDA, MD 20814
(38.98855, -77.0989)"
LUM THAI,806 MUDDY BRANCH RD,GAITHERSBURG,MD,20878,HBWHR1024432,On/Off-Premise,LUMTHAI LLC,No,"806 MUDDY BRANCH RD
GAITHERSBURG, MD 20878
(39.11395, -77.21678)"
CHIPOTLE MEXICAN GRILL - GAITH,"564  NORTH FREDERICK AVE, UNIT4",GAITHERSBURG,MD,20877,BBWLHR315,On Premise,CHIPOLTE MEXICAN GRILL OF MD L,No,"564 NORTH FREDERICK AVE, UNIT4
GAITHERSBURG, MD 20877
(39.14856, -77.20999)"
GALLERY MARKET & CAFE,11710 OLD GEORGETOWN ROAD,ROCKVILLE,MD,20852,ABW26094,Off Premise,"HARVEY CROP, INC.",Yes,"11710 OLD GEORGETOWN ROAD
ROCKVILLE, MD 20852
(39.04973, -77.11325)"
BROOKVILLE MARKET,7027 BROOKVILLE ROAD,CHEVY CHASE,MD,20815,ABW189,Off Premise,"CHEVY CHASE MARKET, INC.",No,"7027 BROOKVILLE ROAD
CHEVY CHASE, MD 20815
(38.98091, -77.07139)"
TWINBROOK DELI BEER WINE,2208 VEIRS MILL ROAD,ROCKVILLE,MD,20851,ABW212259,Off Premise,"TWINBROOK DELI BEER WINE, LLC",Yes,"2208 VEIRS MILL ROAD
ROCKVILLE, MD 20851
(39.07517, -77.11455)"
HOLIDAY INN GAITHERSBURG,TWO MONTGOMERY VILLAGE AVE,GAITHERSBURG,MD,20879,BBWLHM003,On Premise,MONTGOMERY VILLAGE HOSPITALITY,No,"TWO MONTGOMERY VILLAGE AVE
GAITHERSBURG, MD 20879
(39.15357, -77.21167)"
ZENE'S DELI & WORLDMARKET,8113 A FENTON ST,SILVER SPRING,MD,20910,BDBWLHR24574,On/Off-Premise,"SOLIYANA, LLC",No,"8113 A FENTON ST
SILVER SPRING, MD 20910
(38.991, -77.02376)"
HOLLYWOOD EAST CAFE - WESTFIELD,"11160 VEIRS MILL ROAD, #1",SILVER SPRING,MD,20902,BBWLHR582,On Premise,"FOUR KINGS ENTERPRISES, INC.",No,"11160 VEIRS MILL ROAD, #1
SILVER SPRING, MD 20902
(39.03748, -77.05329)"
LA BRASA ROTISSERIE,12401 PARKLAWN DR.,ROCKVILLE,MD,20852,BBWLHR1051241,On Premise,"LA BRASA ROTISSERIE, INC.",No,"12401 PARKLAWN DR.
ROCKVILLE, MD 20852
(39.06126, -77.11163)"
FINE WINE OF WHEATON,11211 GEORGIA AVENUE,WHEATON,MD,20902,ABW273,Off Premise,"MJ HOLDINGS, INC",Yes,"11211 GEORGIA AVENUE
WHEATON, MD 20902
(39.03883, -77.05085)"
LA FRONTERA RESTAURANT,3 RUSSELL AVE,GAITHERSBURG,MD,20877,BBWLHR604,On Premise,LA FRONTERA RESTAURANT INC.,No,"3 RUSSELL AVE
GAITHERSBURG, MD 20877
(39.14246, -77.19635)"
EVEN HOTEL,1775 ROCKVILLE PIKE,ROCKVILLE,MD,20852,BBWLHR1062524,On Premise,"MERRITT HOSPITALITY, LLC",No,"1775 ROCKVILLE PIKE
ROCKVILLE, MD 20852
(39.05992, -77.12329)"
ENGOCHA MARKET,"11406 GEORGIA AVE, STE A",WHEATON,MD,20902,ABW34662,Off Premise,"ENGOCHA, LLC",No,"11406 GEORGIA AVE, STE A
WHEATON, MD 20902
(39.04172, -77.05227)"
JIANG COURT,"18200 GEORGIA AVE SUITE F, G",OLNEY,MD,20832,BBWLHR1427544,On Premise,JIANG HE FENG LLC,No,"18200 GEORGIA AVE SUITE F, G
OLNEY, MD 20832
(39.155, -77.06694)"
LEDO PIZZA - DERWOOD,7213 MUNCASTER MILL ROAD,ROCKVILLE,MD,20855,HBW266,On Premise,"BOGEY ENTERPRISES, INC.",No,"7213 MUNCASTER MILL ROAD
ROCKVILLE, MD 20855
(39.14632, -77.1446)"
BRAZIL GOURMET PIZZERIA & GRILL,9870 MAIN STREET,DAMASCUS,MD,20872,HBWHR462303,On Premise,"BRAZIL GOURMET, LLC",No,"9870 MAIN STREET
DAMASCUS, MD 20872
(39.28831, -77.20377)"
THE LIMERICK PUB,11301 ELKIN STREET,SILVER SPRING,MD,20902,BBWLHR637,On Premise,"THE LIMERICK PUB, LLC",No,"11301 ELKIN STREET
SILVER SPRING, MD 20902
(39.04047, -77.05035)"
BACCHUS OF LEBANON,7945 NORFOLK AVE,BETHESDA,MD,20814,BBWLHR230,On Premise,"U.H.B., INC.",No,"7945 NORFOLK AVE
BETHESDA, MD 20814
(38.98966, -77.09852)"
LEDO PIZZA - MONTGOMERY VILLAGE,19200 MONTGOMERY VILLAGE AVE,MONTGOMERY VILLAGE,MD,20886,HBWHR1050733,On Premise,"MHI HOTEL SERVICES, LLC",No,"19200 MONTGOMERY VILLAGE AVE
MONTGOMERY VILLAGE, MD 20886
(39.1717, -77.20506)"
DIAMOND FAST FOOD BEER WINE AND TOBACCO,504 E DIAMOND AVE,GAITHERSBURG,MD,20877,DBW1717544,On/Off-Premise,RIGHTTIME MANAGEMENT INC,No,"504 E DIAMOND AVE
GAITHERSBURG, MD 20877
(39.14099, -77.18453)"
MI MARIACHI BAR AND GRILL,11301 FERN ST,SILVER SPRING,MD,20902,DBWL1046457,On Premise,MI MARIACHI BAR AND GRILL RESTAURANT INC,No,"11301 FERN ST
SILVER SPRING, MD 20902
(39.04017, -77.04919)"
CHEF LEES ELEMENT,521 QUINCE ORCHARD RD.,GAITHERSBURG,MD,20878,HBWHR653362,On Premise,"CHEF LI, LLC",No,"521 QUINCE ORCHARD RD.
GAITHERSBURG, MD 20878
(39.14443, -77.22029)"
POTOMAC PIZZA - CHEVY CHASE,19 WISCONSIN CIRCLE,CHEVY CHASE,MD,20815,HBWHR411,On Premise,"PIZZA ZONE OF CHEVY CHASE, INC",No,"19 WISCONSIN CIRCLE
CHEVY CHASE, MD 20815
(38.96201, -77.08546)"
SMOKEY GLEN FARM BARBEQUERS INC,16407 RIFFLEFORD RD,GAITHERSBURG,MD,20878,BBWLHR221,On Premise,SMOKEY GLEN FARM BARBERQUERS INC,No,"16407 RIFFLEFORD RD
GAITHERSBURG, MD 20878
(39.12598, -77.26901)"
SIN & GRIN,353 MAIN STREET,GAITHERSBURG,MD,20878,BBWLHR019,On Premise,SIN & GRIN LLC,No,"353 MAIN STREET
GAITHERSBURG, MD 20878
(39.12127, -77.2376)"
N-Our Family Restaurant,201 EDISON PARK DR,GAITHERSBURG,MD,00000,BBWLHR756356,,,No,"201 EDISON PARK DR
GAITHERSBURG, MD 00000
(39.1133, -77.23257)"
ON THE VINE,15230 SIESTA KEY WAY,ROCKVILLE,MD,20850,DBW37415,On/Off-Premise,"TANGRI, LLC",Yes,"15230 SIESTA KEY WAY
ROCKVILLE, MD 20850
(39.10571, -77.19441)"
ZN-ROHOBOT ETHIOPIAN RESTAURANT,,,,,BBWLHR887398,On Premise,"MD BROTHERS, LLC",No,
OUTTA THE WAY CAFE,17503 REDLAND ROAD,DERWOOD,MD,20855,BBWLHR063,On Premise,REST. MNGMT. ACQ. INC.,No,"17503 REDLAND ROAD
DERWOOD, MD 20855
(39.14383, -77.14417)"
MISSION BBQ-GERMANTOWN,"19800 CENTURY BLVD.,STE. 600",GERMANTOWN,MD,20874,HBWHR51270,On Premise,"MISSION BBQ GERMANTOWN, LLC",No,"19800 CENTURY BLVD.,STE. 600
GERMANTOWN, MD 20874
(39.18048, -77.26809)"
TOMMY JOE'S BAR & GRILL,7940 NORFOLK AVENUE,BETHESDA,MD,20814,BBWLHR19871,On Premise,SOCIAL HEIGHTS RESTAURANT LLC,No,"7940 NORFOLK AVENUE
BETHESDA, MD 20814
(38.9896, -77.09843)"
LA RUMBA RESTAURANT,2311 PRICE AVE,SILVER SPRING,MD,20902,BBWLHR703,On Premise,"PORSAN CORPORATION, INC",No,"2311 PRICE AVE
SILVER SPRING, MD 20902
(39.04033, -77.05)"
PIKE & RANDOLPH BEER & WINE,5408 RANDOLPH RD,ROCKVILLE,MD,20852,DBW1023430,On/Off-Premise,PIKE & RANDOLPH BEER & WINE,Yes,"5408 RANDOLPH RD
ROCKVILLE, MD 20852
(39.05348, -77.10761)"
COURTYARD BY MARRIOTT-SILVER SPRING,8506 FENTON STREET,SILVER SPRING,MD,20910,BBWLHM210,On Premise,SILVER SPRING HOTEL ASSOCIATES,No,"8506 FENTON STREET
SILVER SPRING, MD 20910
(38.99588, -77.02462)"
SISTERS THAI,7995 TUCKERMAN LANE,POTOMAC,MD,20854,BBWLHR39579,On Premise,"LUCKDEE, LLC",No,"7995 TUCKERMAN LANE
POTOMAC, MD 20854
(39.0412, -77.15858)"
VERIDIAN MARKET AND WINE,8010 BLAIR MILL WAY,SILVER SPRING,MD,20910,ABWS26668,Off Premise,"MCH VERIDIAN, INC",Yes,"8010 BLAIR MILL WAY
SILVER SPRING, MD 20910
(38.98919, -77.02739)"
SAINTS ROW BREWING,"15 FULKS CORNER AVE, SUITE 101",GAITHERSBURG,MD,20877,DBW30553,On/Off-Premise,SAINTS ROW BREWING LLC,No,"15 FULKS CORNER AVE, SUITE 101
GAITHERSBURG, MD 20877
(39.14026, -77.19577)"
TOKYO FIRE,9811 MAIN ST,DAMASCUS,MD,20872,HBW24576,On Premise,TOKYO FIRE INC,No,"9811 MAIN ST
DAMASCUS, MD 20872
(39.28804, -77.20237)"
FRANK PEPE'S PIZZERIA NAPOLETANA,7101 DEMOCRACY BLVD.,BETHESDA,MD,20817,HBWHR616351,On Premise,"PEPE'S OF MONTGOMERY, LLC",No,"7101 DEMOCRACY BLVD.
BETHESDA, MD 20817
(39.0242, -77.1459)"
CUBA DE AYER,15446 OLD COLUMBIA PIKE,BURTONSVILLE,MD,20866,BBWLHR139,On Premise,"CUBA DE AYER, INC.",No,"15446 OLD COLUMBIA PIKE
BURTONSVILLE, MD 20866
(39.10965, -76.93563)"
KALDI'S SOCIAL,918 SILVER SPRING AVENUE,SILVER SPRING,MD,20910,BBWLHR22788,On Premise,"KALDI'S SOCIAL HOUSE, INC.",No,"918 SILVER SPRING AVENUE
SILVER SPRING, MD 20910
(38.99165, -77.0255)"
URBAN HOT POT,1800 ROCKVILLE PIKE H2,ROCKVILLE,MD,20852,HBWHR35025,On Premise,"EVG GROUP, LLC",No,"1800 ROCKVILLE PIKE H2
ROCKVILLE, MD 20852
(39.05994, -77.12199)"
LA CASA DEL MOFONGO,"9441 GEORGIA AVE, # 4",SILVER SPRING,MD,20910,BBWLHR786,On Premise,"LA CASA DEL MOFONGO, LLC.",No,"9441 GEORGIA AVE, # 4
SILVER SPRING, MD 20910
(39.00976, -77.0402)"
GYROLAND,1701 ROCKVILLE PIKE SUITE B-3,ROCKVILLE,MD,20852,HBW32382,On Premise,"ROSO RESTAURANT, LLC",No,"1701 ROCKVILLE PIKE SUITE B-3
ROCKVILLE, MD 20852
(39.06056, -77.12336)"
LIFE TIME ATHLETIC,10121 WASHINGTONIAN BLVD,GAITHERSBURG,MD,20878,CBWLFV27779,On Premise,"LTF MARYLAND LIQUOR,LLC",No,"10121 WASHINGTONIAN BLVD
GAITHERSBURG, MD 20878
(39.12068, -77.20461)"
FAIRLAND ETHIOPIAN RESTAURANT,13310 OLD COLUMBIA PIKE,SILVER SPRING,MD,20904,ABW479300,Off Premise,"7-FAIRLAND, INC.",No,"13310 OLD COLUMBIA PIKE
SILVER SPRING, MD 20904
(39.07557, -76.95832)"
TAIPEI CAFE,802 HUNGERFORD DRIVE,ROCKVILLE,MD,20850,BBWHR138,On/Off-Premise,"BROTHERS BISTRO, LLC",No,"802 HUNGERFORD DRIVE
ROCKVILLE, MD 20850
(39.09443, -77.1537)"
LANGANO ETHIOPIAN BAR & RESTAURANT,11261 NEW HAMPSHIRE AVE,SILVER SPRING,MD,20904,BDBWL35192,On/Off-Premise,"LANGANO WHITE OAK, LLC",No,"11261 NEW HAMPSHIRE AVE
SILVER SPRING, MD 20904
(39.04177, -76.9878)"
SHAKE SHACK KENTLANDS,150 KENTLANDS SQ. PL.,GAITHERSBURG,MD,20878,HBWHR738355,On/Off-Premise,"SHAKE SHACK MARYLAND, LLC",No,"150 KENTLANDS SQ. PL.
GAITHERSBURG, MD 20878
(39.12398, -77.23665)"
KEMA BY KENAKI,11325 SEVEN LOCKS RD UNIT 115,POTOMAC,MD,20854,BBWLHR979417,On Premise,"KENAKI CABIN JOHN, LLC",No,"11325 SEVEN LOCKS RD UNIT 115
POTOMAC, MD 20854
(39.04196, -77.15831)"
MARKET ON THE BOULEVARD,7945 MACARTHUR BLVD,CABIN JOHN,MD,20818,BBWHR085,On/Off-Premise,"NEXKIM, INC.",Yes,"7945 MACARTHUR BLVD
CABIN JOHN, MD 20818
(38.97497, -77.16256)"
IRON AGE,1054 ROCKVILLE PIKE,ROCKVILLE,MD,20852,BBWLHR724,On Premise,"IRON AGE ROCKVILLE, LLC",No,"1054 ROCKVILLE PIKE
ROCKVILLE, MD 20852
(39.0725, -77.13287)"
LA FONDA PAISA & GROCERY STORE,7914 GEORGIA AVE,SILVER SPRING,MD,20910,DBW064,On/Off-Premise,LA FONDA INC.,No,"7914 GEORGIA AVE
SILVER SPRING, MD 20910
(38.98548, -77.02663)"
KUSSHI,36-G MARYLAND AVE,ROCKVILLE,MD,20850,BBWLHR1245527,On Premise,KUSSHI ROCKVILLE TOWN SQUARE LLC,No,"36-G MARYLAND AVE
ROCKVILLE, MD 20850
(39.08548, -77.15097)"
CORK 57 BEER & WINE,4910 BETHESDA AVE,BETHESDA,MD,20814,DBW102,On/Off-Premise,NONE,No,"4910 BETHESDA AVE
BETHESDA, MD 20814
(38.98083, -77.09894)"
ISAAC'S POULTRY MARKET,12163 DARNESTOWN RD,GAITHERSURG,MD,20878,BBWHR834399,On/Off-Premise,"IPM 001, LLC",No,"12163 DARNESTOWN RD
GAITHERSURG, MD 20878
(39.11945, -77.25081)"
MARGARITA BAR AND GRILL,19201 FREDERICK RD,GERMANTOWN,MD,20876,DBWL1061434,On Premise,J&B BAR RESTAURANT LLC,No,"19201 FREDERICK RD
GERMANTOWN, MD 20876
(39.17021, -77.23465)"
KUSSHI,7820 NORFOLK AVE,BETHESDA,MD,20814,BBWLHR1324544,On Premise,KUSSHI WOODMONT TRIANGLE LLC,No,"7820 NORFOLK AVE
BETHESDA, MD 20814
(38.98887, -77.09717)"
LA CATRINA LOUNGE,4935 CORDELL AVENUE,BETHESDA,MD,20814,BBWLHR878396,On Premise,LA CATRINA LOUNGE LLC,No,"4935 CORDELL AVENUE
BETHESDA, MD 20814
(38.98838, -77.09947)"
WOODMOOR SUPERMARKET,10129 COLESVILLE ROAD,SILVER SPRING,MD,20901,ABWS044,Off Premise,"CHOI MARKET, INC.",Yes,"10129 COLESVILLE ROAD
SILVER SPRING, MD 20901
(39.02092, -77.01217)"
GEORGIA MARKET,"13623  GEORGIA AVE, UNIT D",SILVER SPRING,MD,20906,ABW147,Off Premise,"MUHN, INC.",Yes,"13623 GEORGIA AVE, UNIT D
SILVER SPRING, MD 20906
(39.07946, -77.07247)"
PLAZA AZTECA RESTAURANT,10430 AUTO PARK AVE,BETHESDA,MD,20817,BBWLHR527,On Premise,"CASA AZTECCA RESTAURANT, INC.",No,"10430 AUTO PARK AVE
BETHESDA, MD 20817
(39.02835, -77.14556)"
SILVER BRANCH ROCKVILLE BEERWORKS,7301 CALHOUN PL #600,DERWOOD,MD,20855,BBWLHR1732545,On Premise,"SBRE1, LLC",No,"7301 CALHOUN PL #600
DERWOOD, MD 20855
(39.10786, -77.14764)"
EL MERCAT BAR DE TAPAS,101 GIBBS ST.,ROCKVILLE,MD,20850,BDBWL655355,On/Off-Premise,"GEORGE RODRIGUES REST. GRP., LLC",No,"101 GIBBS ST.
ROCKVILLE, MD 20850
(39.08525, -77.15193)"
DEMPSEYS OF ASHTON,1 OLNEY SANDY SPRING ROAD,ASHTON,MD,20861,BBWLHR731,On Premise,IRM SLONIN INC MICHAEL SLONIN,No,"1 OLNEY SANDY SPRING ROAD
ASHTON, MD 20861
(39.15007, -77.0127)"
"BEER, WINE, & CO.",7029 WISCONSIN AVE,CHEVY CHASE,MD,20815,DBW22948,On/Off-Premise,"GOLDEN TRADE, LLC",Yes,"7029 WISCONSIN AVE
CHEVY CHASE, MD 20815
(38.98003, -77.09181)"
HOP N CRU,20940-G FREDERICK ROAD,GERMANTOWN,MD,20876,ABWS1151496,Off Premise,UPSCALE SPIRITS INC,Yes,"20940-G FREDERICK ROAD
GERMANTOWN, MD 20876
(39.2, -77.24529)"
SIRIWAN THAI RESTUARANT,12115 DARNESTOWN RD,GAITHERSBURG,MD,20878,HBW26242,On Premise,"SIRIWAN M.X.B., LLC",No,"12115 DARNESTOWN RD
GAITHERSBURG, MD 20878
(39.11757, -77.25058)"
LA CASITA,2 E. DIAMOND AVE,GAITHERSBURG,MD,20877,BBWLHR25458,On Premise,"ARBAIZA FOOD GROUP, INC",No,"2 E. DIAMOND AVE
GAITHERSBURG, MD 20877
(39.14201, -77.19864)"
HUNGERFORD BEER & WINE,761 HUNGERFORD DRIVE,ROCKVILLE,MD,20850,DBW38196,On/Off-Premise,"ANGEL,LLC",Yes,"761 HUNGERFORD DRIVE
ROCKVILLE, MD 20850
(39.09346, -77.1531)"
PISCO Y NAZCA CEVICHE GASTROBAR,7401 WOODMONT AVENUE,BETHESDA,MD,20814,BBWLHR1228504,On Premise,PISCO Y NAZCA BETHESDA LLC,No,"7401 WOODMONT AVENUE
BETHESDA, MD 20814
(38.98368, -77.09619)"
RED MAPLE RESTAURANT,10110 COLESVILLE ROAD,SILVER SPRING,MD,20901,BBWLHR742,On Premise,"RED MAPLE ASSOCIATES, LLC",No,"10110 COLESVILLE ROAD
SILVER SPRING, MD 20901
(39.02072, -77.01252)"
N-COMEDOR SAN ALEJO,7643 NEW HAMPSHIRE AVENUE,TAKOMA PARK,MD,20912,DBWL1492544,On Premise,ALVARADO INDUSTRIES LLC,No,"7643 NEW HAMPSHIRE AVENUE
TAKOMA PARK, MD 20912
(38.98712, -76.98766)"
NINJA SUSHI,13452 NEW HAMPSHIRE AVE,SILVER SPRING,MD,20904,BBWLHR1466547,On Premise,NINJA SUSHI 99 LLC,No,"13452 NEW HAMPSHIRE AVE
SILVER SPRING, MD 20904
(39.07671, -77.00182)"
IRENE'S PUPUSAS,12854 NEW HAMPSHIRE AVENUE,SILVER SPRING,MD,20904,BBWLHR1765545,On Premise,"MADISON & ASSOCIATES, LLC",No,"12854 NEW HAMPSHIRE AVENUE
SILVER SPRING, MD 20904
(39.06622, -77.00116)"
ELBE'S BEER AND WINE,"2522 UNIVERSITY BLVD, WEST",SILVER SPRING,MD,20902,DBW045,On/Off-Premise,"ELBE'S, INC.",Yes,"2522 UNIVERSITY BLVD, WEST
SILVER SPRING, MD 20902
(39.04092, -77.05256)"
BLU WATER DAY SPA,5234 NICHOLSON LANE,KENSINGTON,MD,20895,SCBBWL0002,On Premise,"CIRCLE P SPA, INC",No,"5234 NICHOLSON LANE
KENSINGTON, MD 20895
(39.04355, -77.10622)"
INSPIRE NAILS BAR & SPA,8010 GRAMERCY BLVD.,ROCKVILLE,MD,20855,SCBBWL32720,On Premise,"INSPIRE NAIL BAR AND SPA, INC.",No,"8010 GRAMERCY BLVD.
ROCKVILLE, MD 20855
(39.12358, -77.16468)"
MAX'S BEST ICE CREAM,7770 WOODMONT AVENUE,BETHESDA,MD,20814,DBWL1624545,On Premise,MAX'S BEST ICE CREAM LLC,No,"7770 WOODMONT AVENUE
BETHESDA, MD 20814
(38.98807, -77.09605)"
NAILSALOON,5449 WISCONSIN AVENUE,CHEVY CHASE,MD,20815,SCBBWL1162496,On Premise,NAILSALOON CHEVY CHASE LLC,No,"5449 WISCONSIN AVENUE
CHEVY CHASE, MD 20815
(38.96264, -77.08542)"
PASSION NAIL SPA - GERMANTOWN,19847-H CENTURY BOULEVARD,GERMANTOWN,MD,20874,SCBBWL0003,On Premise,"KCD NGUYEN, LLC",No,"19847-H CENTURY BOULEVARD
GERMANTOWN, MD 20874
(39.1814, -77.2657)"
VASILI'S KITCHEN,705 CENTER POINT WAY,GAITHERSBURG,MD,20878,BBWLHR1629544,On Premise,"VASILI'S KITCHEN, LLC",No,"705 CENTER POINT WAY
GAITHERSBURG, MD 20878
(39.12196, -77.23518)"
PASSION NAIL SPA - CLARKSBURG,"12051 CHESTNUT BRANCH WAY, C-2",CLARKSBURG,MD,20871,SCBBWL0004,On Premise,"KCD NGUYEN II, LLC",No,"12051 CHESTNUT BRANCH WAY, C-2
CLARKSBURG, MD 20871
(39.23008, -77.2499)"
A&A CATERING,7845 AIRPARK RD SUITE D & E,GAITHERSBURG,MD,20879,CATBWL1271548,On Premise,A&A CATERING DMV LLC,No,"7845 AIRPARK RD SUITE D & E
GAITHERSBURG, MD 20879
(39.17047, -77.16019)"
SALON EFX,1610 ELTON RD,SILVER SPRING,MD,20903,SCBBWL1235530,On Premise,STARLOW LLC,No,"1610 ELTON RD
SILVER SPRING, MD 20903
(39.0204, -76.97517)"
JINLAN DUMPLINGS,11620-A ROCKVILLE PIKE,NORTH BETHESDA,MD,20852,DBW1238535,On/Off-Premise,JINLAN WENHUA LLC,No,"11620-A ROCKVILLE PIKE
NORTH BETHESDA, MD 20852
(39.04778, -77.11383)"
CLOUD9 NAILS LOUNGE,20940 FREDERICK RD STE E,GERMANTOWN,MD,20876,SCBBWL1219496,On Premise,CLOUD9 NAILS LOUNGE LLC,No,"20940 FREDERICK RD STE E
GERMANTOWN, MD 20876
(39.2, -77.24529)"
PROGRESSIONS SALON SPA STORE,12211 NEBEL STREET,ROCKVILLE,MD,20852,SCBBWL1760544,On Premise,IAL LLC DBA PROGRESSIONS,No,"12211 NEBEL STREET
ROCKVILLE, MD 20852
(39.05218, -77.11002)"
PAINT NAIL BAR,7928 WISCONSIN AVENUE,BETHESDA,MD,20814,SCBBWL1079435,On Premise,PAINT NAIL BAR BETHESDA LLC,No,"7928 WISCONSIN AVENUE
BETHESDA, MD 20814
(38.98997, -77.09542)"
GREAT VIBES BARBERSHOP,2 PROFESSIONAL DRIVE STE 216,GAITHERSBURG,MD,20879,SCBBWL1256532,On Premise,GREAT VIBES LLC,No,"2 PROFESSIONAL DRIVE STE 216
GAITHERSBURG, MD 20879
(39.16368, -77.2275)"
BARBERS AND BREW,77 S WASHINGTON ST UNIT 101,ROCKVILLE,MD,20850,SCBBWL1037452,On Premise,MOBILE BARBERING SERVICES LLC,No,"77 S WASHINGTON ST UNIT 101
ROCKVILLE, MD 20850
(39.08384, -77.15338)"
SIMPLY NAILS & SPA,18078 MATENY ROAD,GERMANTOWN,MD,20874,SCBBWL462301,On Premise,"SIMPLY NAILS & SPA, INC.",No,"18078 MATENY ROAD
GERMANTOWN, MD 20874
(39.14727, -77.27286)"
BEARDED GOAT BARBER,720 CENTER POINT WAY,GAITHERSBURG,MD,20878,SCBBWL1511546,On Premise,"BEARDED GOAT BARBER KENTLANDS, LLC",No,"720 CENTER POINT WAY
GAITHERSBURG, MD 20878
(39.12198, -77.23541)"
N-ANDY'S PIZZA KENTLANDS,145 COMMERCE SQUARE PLACE,GAITHERSBURG,MD,20878,BBWLHR,On Premise,ANDYS PIZZA COMMERCE SQUARE PL LLC,No,"145 COMMERCE SQUARE PLACE
GAITHERSBURG, MD 20878
(39.12234, -77.23385)"
"POOLESVILLE BEER, WINE & DELI",19716 FISHER AVE,POOLESVILLE,MD,20837,ABW1766544,Off Premise,JIYONG LLC,Yes,"19716 FISHER AVE
POOLESVILLE, MD 20837
(39.14472, -77.41305)"
PICANTERIA EL PICARON,2417 UNIVERSITY BLVD W,SILVER SPRING,MD,20902,BBWLHR1762545,On Premise,"F PICARON, LLC",No,"2417 UNIVERSITY BLVD W
SILVER SPRING, MD 20902
(39.04181, -77.05081)"
MARYVALE DELI AND BEER WINE,500 NORTH HORNERS LANE,ROCKVILLE,MD,20850,ABW1089436,Off Premise,CHAIS INC,Yes,"500 NORTH HORNERS LANE
ROCKVILLE, MD 20850
(39.09087, -77.14376)"
PICCOLI PIATTI,5306 ZENITH OVERLOOK,BETHESDA,MD,20816,HBWHR1659544,On Premise,"PICCOLI PIATTI OF WESTBARD, LLC",No,"5306 ZENITH OVERLOOK
BETHESDA, MD 20816
(38.9635, -77.1072)"
N-LEDO PIZZA,12619 WISTERIA DR,GERMANTOWN,MD,20871,HBWHR,On Premise,FORT ENTERPRISES INCORPORATED,No,"12619 WISTERIA DR
GERMANTOWN, MD 20871
(39.16985, -77.26162)"
FIRST STREET TAVERN,820 BALTIMORE ROAD,ROCKVILLE,MD,20851,BBWLHR1819544,On Premise,FIRST STREET TAVERN LLC,No,"820 BALTIMORE ROAD
ROCKVILLE, MD 20851
(39.08469, -77.13531)"
KENWOOD GOLF & COUNTRY CLUB,5601 RIVER ROAD,BETHESDA,MD,20816,CBWLCC1762546,On Premise,"KENWOOD GOLF & COUNTRY CLUB, INC",No,"5601 RIVER ROAD
BETHESDA, MD 20816
(38.97061, -77.11169)"
RODMANS PARTY BOUTIQUE,4301 RANDOLPH ROAD,SILVER SPRING,MD,20906,DBW1775544,On/Off-Premise,DISCOUNT DRUGS WISCONSIN INC,Yes,"4301 RANDOLPH ROAD
SILVER SPRING, MD 20906
(39.05588, -77.08347)"
REGAL MAJESTIC STADIUM 20,900 ELLSWORTH DRIVE,SILVER SPRING,MD,20910,BBWLHR1609544,On Premise,"REGAL CINEMAS MARYLAND, LLC",No,"900 ELLSWORTH DRIVE
SILVER SPRING, MD 20910
(38.99669, -77.02557)"
N-SIXTY VINES,212 ELLINGTON BLVD SUITE B190,GAITHERSBURG,MD,20878,BBWLHR,On Premise,"SIXTY VINES MONTGOMERY COUNTY, LLC",No,"212 ELLINGTON BLVD SUITE B190
GAITHERSBURG, MD 20878
(39.11474, -77.20524)"
MIMI NAILS,18228 FLOWER HILL WAY,GAITHERSBURG,MD,20879,SCBBWL1843544,On Premise,MIMI NAILS LLC,No,"18228 FLOWER HILL WAY
GAITHERSBURG, MD 20879
(39.1547, -77.16508)"
N-TAPERS AND TEQUILA,16819-16821 CRABBS BRANCH WAY,ROCKVILLE,MD,20855,DBWL1903544,On Premise,"TAPERS AND TEQUILA, LLC",No,"16819-16821 CRABBS BRANCH WAY
ROCKVILLE, MD 20855
(39.13132, -77.1671)"
VILLAGE BEER & WINE AT POOLESVILLE,19710-G FISHER AVE,POOLESVILLE,MD,20837,ABW1793544,Off Premise,MANAKAMANA INC,Yes,"19710-G FISHER AVE
POOLESVILLE, MD 20837
(39.14408, -77.41246)"
TLUX NAIL LOUNGE,8785 GEORGIA AVE,SILVER SPRING,MD,20910,SCBBWL1845544,On Premise,TLUX NAIL LOUNGE LLC,No,"8785 GEORGIA AVE
SILVER SPRING, MD 20910
(38.99911, -77.03147)"
GROSVENOR MARKET,"10401 GROSVENOR PLACE, SUITE 2",ROCKVILLE,MD,20852,ABW1491544,Off Premise,"GROSVENOR MARKET, INC",Yes,"10401 GROSVENOR PLACE, SUITE 2
ROCKVILLE, MD 20852
(39.02689, -77.10667)"
GERMANTOWN BEER & WINE,13046 MIDDLEBROOK RD #190,GERMANTOWN,MD,20874,DBW1858544,On/Off-Premise,BEER PARK LLC,Yes,"13046 MIDDLEBROOK RD #190
GERMANTOWN, MD 20874
(39.18126, -77.27165)"
N-AKAGI,5751 FISHERS LN STE F,ROCKVILLE,MD,20852,BBWHR,On/Off-Premise,AKAGI SUSHI & HIBACHI LLC,No,"5751 FISHERS LN STE F
ROCKVILLE, MD 20852
(39.06275, -77.11757)"
CITADEL CREOLE CUISINE,11300 FERN ST,SILVER SPRING,MD,20902,BBWLHR1871544,On Premise,CITADEL CREOLE CUISINE LLC,No,"11300 FERN ST
SILVER SPRING, MD 20902
(39.04038, -77.0495)"
AH'HAAN BY BANGKOK GARDEN,237 A KENTLANDS BOULEVARD,GAITHERSBURG,MD,20878,BBWLHR1840544,On Premise,"BKK FAMILY, LLC",No,"237 A KENTLANDS BOULEVARD
GAITHERSBURG, MD 20878
(39.12494, -77.23896)"
RODMANS GOURMET BEER & WINE,5148 NICHOLSON LANE,KENSINGTON,MD,20895,DBW1775545,On/Off-Premise,W.F.F. & B. INC.,Yes,"5148 NICHOLSON LANE
KENSINGTON, MD 20895
(39.04372, -77.10512)"
KUNG FU 12 SZECHUAN,14921 SHADY GROVE ROAD,ROCKVILLE,MD,20850,HBWHR1864544,On Premise,KUNG FU 12 RV LLC,No,"14921 SHADY GROVE ROAD
ROCKVILLE, MD 20850
(39.09704, -77.19343)"
THE PRESTON OF ROCKVILLE,55 WEST GUDE DRIVE,ROCKVILLE,MD,20850,BBWLHR1776544,On Premise,55 W GUDE DRIVE OPCO LLC,No,"55 WEST GUDE DRIVE
ROCKVILLE, MD 20850
(39.10707, -77.16365)"
N-AUTHENTIC AFRICAN CUISINE,13075 WISTERIA DR,GERMANTOWN,MD,20874,BBWLHR,On Premise,AUTHENTIC AFRICAN RESTAURANT LLC,No,"13075 WISTERIA DR
GERMANTOWN, MD 20874
(39.17821, -77.27158)"
N-MARATHON DELI & GRILL,10619 CONNECTICUT AVE,KENSINGTON,MD,20895,BBWHR,On/Off-Premise,LEFKAS ENTERPRISE INC,No,"10619 CONNECTICUT AVE
KENSINGTON, MD 20895
(39.02946, -77.07565)"
CAFE K,1300 SPRING ST,SILVER SPRING,MD,20910,BBWHR1875544,On/Off-Premise,"KAFE K, LLC",No,"1300 SPRING ST
SILVER SPRING, MD 20910
(38.99904, -77.03246)"
NT-MARYVALE DELI AND BEER WINE,500 NORTH HORNERS LANE,ROCKVILLE,MD,20850,ABW,Off Premise,T & J ENTERPRISES,No,"500 NORTH HORNERS LANE
ROCKVILLE, MD 20850
(39.09087, -77.14376)"
NT-JEOVANI'S PIZZERIA,26027 RIDGE RD,DAMASCUS,MD,20872,HBW1967544,On Premise,FIVEPAR LLC,No,"26027 RIDGE RD
DAMASCUS, MD 20872
(39.28471, -77.20792)"
FORK & KITCHEN RESTAURANT,150 GIBBS STREET,ROCKVILLE,MD,20850,BBWLHR1786544,On Premise,"FORK AND KITCHEN, LLC",No,"150 GIBBS STREET
ROCKVILLE, MD 20850
(39.0866, -77.152)"
DOK KHAO THAI EATERY,8551-201 CONNECTICUT AVENUE,CHEVY CHASE,MD,20815,BBWLHR1635544,On Premise,"SP CHEVY CHASE, INC",No,"8551-201 CONNECTICUT AVENUE
CHEVY CHASE, MD 20815
(38.99559, -77.07651)"
PASSAGE TO INDIA,4931 CORDELL AVENUE,BETHESDA,MD,20814,BBWLHR1830544,On Premise,INDIGO INDIA LLC,No,"4931 CORDELL AVENUE
BETHESDA, MD 20814
(38.98854, -77.09891)"
SIMONA CAFE,4520 EAST WEST HWY,BETHESDA,MD,20814,BBWHR1852544,On/Off-Premise,4520 SIMONA LLC,No,"4520 EAST WEST HWY
BETHESDA, MD 20814
(38.98492, -77.09204)"
FIRE STATION 1 SPORTS BAR & RESTAURANT,8131 GEORGIA AVENUE,SILVER SPRING,MD,20910,BBWLHR1762544,On Premise,"FABULOUS RESTAURANT & LOUNGE, LLC",No,"8131 GEORGIA AVENUE
SILVER SPRING, MD 20910
(38.99125, -77.02648)"
N-NAN XIANG SOUP DUMPLINGS,7101 DEMOCRACY BLVD #2350,BETHESDA,MD,20817,BBWLHR,On Premise,2350 BETHESDA LLC,No,"7101 DEMOCRACY BLVD #2350
BETHESDA, MD 20817
(39.0242, -77.1459)"
N-ERISTAR CAFE AND RESTAURANT,15412 NEW HAMPSHIRE AVE,SILVER SPRING,MD,20905,BBWLHR,On Premise,ERISTAR CAFE AND RESTAURANT LLC,No,"15412 NEW HAMPSHIRE AVE
SILVER SPRING, MD 20905
(39.10965, -76.99759)"
N-SILVER SPRING SICHUAN BISTRO,3830 INTERNATIONAL DR,SILVER SPRING,MD,20906,BBWLHR,On Premise,CHUAN ZHI VEI III CORPORATION,No,"3830 INTERNATIONAL DR
SILVER SPRING, MD 20906
(39.10371, -77.07574)"
